<?xml version="1.0" encoding="utf-8" standalone="yes"?>
<gpx version="1.1" creator="Locus Map, Android"
 xmlns="http://www.topografix.com/GPX/1/1"
 xmlns:xsi="http://www.w3.org/2001/XMLSchema-instance"
 xsi:schemaLocation="http://www.topografix.com/GPX/1/1 http://www.topografix.com/GPX/1/1/gpx.xsd"
 xmlns:gpxx="http://www.garmin.com/xmlschemas/GpxExtensions/v3"
 xmlns:gpxtrkx="http://www.garmin.com/xmlschemas/TrackStatsExtension/v1"
 xmlns:gpxtpx="http://www.garmin.com/xmlschemas/TrackPointExtension/v2"
 xmlns:locus="https://www.locusmap.app">
	<metadata>
		<desc>File with points/tracks from Locus Map/4.35.0</desc>
		<time>2026-08-05T10:39:32.337Z</time>
	</metadata>
<trk>
	<name>IE_07</name>
	<extensions>
		<line xmlns="http://www.topografix.com/GPX/gpx_style/0/2">
			<color>D700D7</color>
			<opacity>0.59</opacity>
			<width>6.0</width>
			<extensions>
				<locus:lsColorBase>#96D700D7</locus:lsColorBase>
				<locus:lsWidth>6.0</locus:lsWidth>
				<locus:lsUnits>PIXELS</locus:lsUnits>
			</extensions>
		</line>
		<locus:activity>cycling</locus:activity>
		<locus:rteComputeType>103</locus:rteComputeType>
	</extensions>
<trkseg>
<trkpt lat="53.5297699" lon="-10.1646900">
	<ele>4.77</ele>
	<time>1970-01-01T00:00:00.000Z</time>
</trkpt>
<trkpt lat="53.5297470" lon="-10.1646852">
	<ele>4.74</ele>
	<time>1970-01-01T00:00:00.501Z</time>
</trkpt>
<trkpt lat="53.5295982" lon="-10.1645813">
	<ele>4.59</ele>
	<time>1970-01-01T00:00:03.509Z</time>
</trkpt>
<trkpt lat="53.5293427" lon="-10.1647024">
	<ele>4.34</ele>
	<time>1970-01-01T00:00:07.982Z</time>
</trkpt>
<trkpt lat="53.5287514" lon="-10.1648178">
	<ele>4.07</ele>
	<time>1970-01-01T00:00:18.240Z</time>
</trkpt>
<trkpt lat="53.5283356" lon="-10.1647902">
	<ele>4.19</ele>
	<time>1970-01-01T00:00:25.777Z</time>
</trkpt>
<trkpt lat="53.5279999" lon="-10.1646013">
	<ele>4.52</ele>
	<time>1970-01-01T00:00:32.886Z</time>
</trkpt>
<trkpt lat="53.5278625" lon="-10.1643848">
	<ele>4.85</ele>
	<time>1970-01-01T00:00:36.872Z</time>
</trkpt>
<trkpt lat="53.5277824" lon="-10.1642303">
	<ele>5.18</ele>
	<time>1970-01-01T00:00:39.842Z</time>
</trkpt>
<trkpt lat="53.5275993" lon="-10.1640863">
	<ele>5.84</ele>
	<time>1970-01-01T00:00:44.939Z</time>
</trkpt>
<trkpt lat="53.5273743" lon="-10.1639948">
	<ele>6.47</ele>
	<time>1970-01-01T00:00:51.693Z</time>
</trkpt>
<trkpt lat="53.5271530" lon="-10.1639318">
	<ele>7.04</ele>
	<time>1970-01-01T00:00:58.745Z</time>
</trkpt>
<trkpt lat="53.5269775" lon="-10.1638985">
	<ele>7.42</ele>
	<time>1970-01-01T00:01:03.902Z</time>
</trkpt>
<trkpt lat="53.5267830" lon="-10.1639128">
	<ele>7.76</ele>
	<time>1970-01-01T00:01:10.078Z</time>
</trkpt>
<trkpt lat="53.5266876" lon="-10.1639090">
	<ele>7.88</ele>
	<time>1970-01-01T00:01:13.127Z</time>
</trkpt>
<trkpt lat="53.5265541" lon="-10.1637878">
	<ele>7.91</ele>
	<time>1970-01-01T00:01:17.549Z</time>
</trkpt>
<trkpt lat="53.5265427" lon="-10.1635723">
	<ele>7.86</ele>
	<time>1970-01-01T00:01:21.198Z</time>
</trkpt>
<trkpt lat="53.5265694" lon="-10.1633577">
	<ele>8.01</ele>
	<time>1970-01-01T00:01:24.872Z</time>
</trkpt>
<trkpt lat="53.5266533" lon="-10.1629496">
	<ele>9.29</ele>
	<time>1970-01-01T00:01:32.744Z</time>
</trkpt>
<trkpt lat="53.5267601" lon="-10.1625099">
	<ele>11.01</ele>
	<time>1970-01-01T00:01:41.366Z</time>
</trkpt>
<trkpt lat="53.5269356" lon="-10.1619902">
	<ele>11.83</ele>
	<time>1970-01-01T00:01:52.446Z</time>
</trkpt>
<trkpt lat="53.5272865" lon="-10.1610241">
	<ele>10.54</ele>
	<time>1970-01-01T00:02:06.892Z</time>
</trkpt>
<trkpt lat="53.5273018" lon="-10.1609297">
	<ele>10.26</ele>
	<time>1970-01-01T00:02:08.174Z</time>
</trkpt>
<trkpt lat="53.5273132" lon="-10.1608667">
	<ele>10.08</ele>
	<time>1970-01-01T00:02:08.854Z</time>
</trkpt>
<trkpt lat="53.5273323" lon="-10.1606216">
	<ele>9.65</ele>
	<time>1970-01-01T00:02:11.409Z</time>
</trkpt>
<trkpt lat="53.5273399" lon="-10.1604033">
	<ele>9.38</ele>
	<time>1970-01-01T00:02:13.819Z</time>
</trkpt>
<trkpt lat="53.5273247" lon="-10.1599350">
	<ele>9.04</ele>
	<time>1970-01-01T00:02:18.310Z</time>
</trkpt>
<trkpt lat="53.5271835" lon="-10.1580210">
	<ele>8.22</ele>
	<time>1970-01-01T00:02:35.636Z</time>
</trkpt>
<trkpt lat="53.5270691" lon="-10.1570063">
	<ele>8.17</ele>
	<time>1970-01-01T00:02:46.817Z</time>
</trkpt>
<trkpt lat="53.5270576" lon="-10.1565561">
	<ele>8.00</ele>
	<time>1970-01-01T00:02:51.212Z</time>
</trkpt>
<trkpt lat="53.5270424" lon="-10.1561642">
	<ele>7.76</ele>
	<time>1970-01-01T00:02:55.143Z</time>
</trkpt>
<trkpt lat="53.5270615" lon="-10.1556873">
	<ele>7.45</ele>
	<time>1970-01-01T00:03:00.101Z</time>
</trkpt>
<trkpt lat="53.5271034" lon="-10.1552362">
	<ele>7.43</ele>
	<time>1970-01-01T00:03:04.584Z</time>
</trkpt>
<trkpt lat="53.5271683" lon="-10.1549311">
	<ele>7.33</ele>
	<time>1970-01-01T00:03:07.800Z</time>
</trkpt>
<trkpt lat="53.5272484" lon="-10.1546621">
	<ele>7.33</ele>
	<time>1970-01-01T00:03:10.736Z</time>
</trkpt>
<trkpt lat="53.5273476" lon="-10.1544228">
	<ele>7.52</ele>
	<time>1970-01-01T00:03:13.588Z</time>
</trkpt>
<trkpt lat="53.5275574" lon="-10.1539698">
	<ele>8.23</ele>
	<time>1970-01-01T00:03:19.771Z</time>
</trkpt>
<trkpt lat="53.5277596" lon="-10.1535501">
	<ele>8.99</ele>
	<time>1970-01-01T00:03:27.700Z</time>
</trkpt>
<trkpt lat="53.5278473" lon="-10.1534023">
	<ele>9.36</ele>
	<time>1970-01-01T00:03:31.006Z</time>
</trkpt>
<trkpt lat="53.5279350" lon="-10.1532917">
	<ele>9.68</ele>
	<time>1970-01-01T00:03:34.102Z</time>
</trkpt>
<trkpt lat="53.5282593" lon="-10.1530209">
	<ele>10.35</ele>
	<time>1970-01-01T00:03:44.605Z</time>
</trkpt>
<trkpt lat="53.5290108" lon="-10.1524467">
	<ele>9.74</ele>
	<time>1970-01-01T00:04:02.432Z</time>
</trkpt>
<trkpt lat="53.5292091" lon="-10.1523180">
	<ele>9.61</ele>
	<time>1970-01-01T00:04:06.514Z</time>
</trkpt>
<trkpt lat="53.5293465" lon="-10.1522675">
	<ele>9.58</ele>
	<time>1970-01-01T00:04:09.063Z</time>
</trkpt>
<trkpt lat="53.5295029" lon="-10.1522369">
	<ele>9.58</ele>
	<time>1970-01-01T00:04:11.791Z</time>
</trkpt>
<trkpt lat="53.5295753" lon="-10.1522350">
	<ele>9.58</ele>
	<time>1970-01-01T00:04:13.081Z</time>
</trkpt>
<trkpt lat="53.5299149" lon="-10.1522264">
	<ele>9.43</ele>
	<time>1970-01-01T00:04:19.610Z</time>
</trkpt>
<trkpt lat="53.5300407" lon="-10.1522570">
	<ele>9.36</ele>
	<time>1970-01-01T00:04:21.999Z</time>
</trkpt>
<trkpt lat="53.5301704" lon="-10.1523600">
	<ele>9.38</ele>
	<time>1970-01-01T00:04:24.722Z</time>
</trkpt>
<trkpt lat="53.5303307" lon="-10.1524572">
	<ele>9.21</ele>
	<time>1970-01-01T00:04:27.754Z</time>
</trkpt>
<trkpt lat="53.5305939" lon="-10.1525259">
	<ele>8.61</ele>
	<time>1970-01-01T00:04:31.931Z</time>
</trkpt>
<trkpt lat="53.5310097" lon="-10.1526117">
	<ele>7.91</ele>
	<time>1970-01-01T00:04:38.058Z</time>
</trkpt>
<trkpt lat="53.5312080" lon="-10.1525831">
	<ele>7.58</ele>
	<time>1970-01-01T00:04:40.972Z</time>
</trkpt>
<trkpt lat="53.5314484" lon="-10.1524830">
	<ele>7.14</ele>
	<time>1970-01-01T00:04:44.361Z</time>
</trkpt>
<trkpt lat="53.5317383" lon="-10.1522655">
	<ele>6.65</ele>
	<time>1970-01-01T00:04:48.776Z</time>
</trkpt>
<trkpt lat="53.5318565" lon="-10.1522264">
	<ele>6.62</ele>
	<time>1970-01-01T00:04:50.471Z</time>
</trkpt>
<trkpt lat="53.5319824" lon="-10.1522083">
	<ele>6.64</ele>
	<time>1970-01-01T00:04:52.350Z</time>
</trkpt>
<trkpt lat="53.5320549" lon="-10.1522131">
	<ele>6.68</ele>
	<time>1970-01-01T00:04:53.388Z</time>
</trkpt>
<trkpt lat="53.5323563" lon="-10.1522303">
	<ele>6.67</ele>
	<time>1970-01-01T00:04:57.852Z</time>
</trkpt>
<trkpt lat="53.5329056" lon="-10.1524210">
	<ele>4.92</ele>
	<time>1970-01-01T00:05:05.026Z</time>
</trkpt>
<trkpt lat="53.5330925" lon="-10.1524887">
	<ele>3.96</ele>
	<time>1970-01-01T00:05:07.371Z</time>
</trkpt>
<trkpt lat="53.5332260" lon="-10.1525621">
	<ele>3.46</ele>
	<time>1970-01-01T00:05:09.103Z</time>
</trkpt>
<trkpt lat="53.5333824" lon="-10.1526756">
	<ele>3.24</ele>
	<time>1970-01-01T00:05:11.188Z</time>
</trkpt>
<trkpt lat="53.5334129" lon="-10.1526814">
	<ele>3.21</ele>
	<time>1970-01-01T00:05:11.530Z</time>
</trkpt>
<trkpt lat="53.5334854" lon="-10.1526928">
	<ele>3.17</ele>
	<time>1970-01-01T00:05:12.457Z</time>
</trkpt>
<trkpt lat="53.5335426" lon="-10.1526823">
	<ele>3.13</ele>
	<time>1970-01-01T00:05:13.286Z</time>
</trkpt>
<trkpt lat="53.5336151" lon="-10.1526175">
	<ele>3.01</ele>
	<time>1970-01-01T00:05:14.325Z</time>
</trkpt>
<trkpt lat="53.5337219" lon="-10.1524839">
	<ele>2.82</ele>
	<time>1970-01-01T00:05:16.037Z</time>
</trkpt>
<trkpt lat="53.5338707" lon="-10.1522436">
	<ele>2.64</ele>
	<time>1970-01-01T00:05:18.580Z</time>
</trkpt>
<trkpt lat="53.5339737" lon="-10.1520901">
	<ele>2.57</ele>
	<time>1970-01-01T00:05:20.192Z</time>
</trkpt>
<trkpt lat="53.5340881" lon="-10.1519260">
	<ele>2.42</ele>
	<time>1970-01-01T00:05:22.037Z</time>
</trkpt>
<trkpt lat="53.5382156" lon="-10.1460314">
	<ele>-0.13</ele>
	<time>1970-01-01T00:06:55.397Z</time>
</trkpt>
<trkpt lat="53.5383797" lon="-10.1457968">
	<ele>0.05</ele>
	<time>1970-01-01T00:06:59.404Z</time>
</trkpt>
<trkpt lat="53.5388336" lon="-10.1453381">
	<ele>1.10</ele>
	<time>1970-01-01T00:07:09.255Z</time>
</trkpt>
<trkpt lat="53.5389862" lon="-10.1447878">
	<ele>2.42</ele>
	<time>1970-01-01T00:07:18.718Z</time>
</trkpt>
<trkpt lat="53.5392113" lon="-10.1448278">
	<ele>2.47</ele>
	<time>1970-01-01T00:07:24.081Z</time>
</trkpt>
<trkpt lat="53.5396385" lon="-10.1448784">
	<ele>2.90</ele>
	<time>1970-01-01T00:07:33.432Z</time>
</trkpt>
<trkpt lat="53.5398254" lon="-10.1448631">
	<ele>3.14</ele>
	<time>1970-01-01T00:07:37.660Z</time>
</trkpt>
<trkpt lat="53.5399895" lon="-10.1448803">
	<ele>3.19</ele>
	<time>1970-01-01T00:07:41.357Z</time>
</trkpt>
<trkpt lat="53.5401535" lon="-10.1449661">
	<ele>2.98</ele>
	<time>1970-01-01T00:07:44.528Z</time>
</trkpt>
<trkpt lat="53.5403214" lon="-10.1451149">
	<ele>2.52</ele>
	<time>1970-01-01T00:07:47.641Z</time>
</trkpt>
<trkpt lat="53.5403824" lon="-10.1451273">
	<ele>2.42</ele>
	<time>1970-01-01T00:07:48.695Z</time>
</trkpt>
<trkpt lat="53.5408325" lon="-10.1446590">
	<ele>2.36</ele>
	<time>1970-01-01T00:07:57.825Z</time>
</trkpt>
<trkpt lat="53.5412369" lon="-10.1444063">
	<ele>2.53</ele>
	<time>1970-01-01T00:08:05.913Z</time>
</trkpt>
<trkpt lat="53.5414124" lon="-10.1442804">
	<ele>2.71</ele>
	<time>1970-01-01T00:08:09.669Z</time>
</trkpt>
<trkpt lat="53.5415306" lon="-10.1441507">
	<ele>2.96</ele>
	<time>1970-01-01T00:08:12.688Z</time>
</trkpt>
<trkpt lat="53.5419922" lon="-10.1430902">
	<ele>5.58</ele>
	<time>1970-01-01T00:08:27.634Z</time>
</trkpt>
<trkpt lat="53.5422211" lon="-10.1424093">
	<ele>7.41</ele>
	<time>1970-01-01T00:08:40.566Z</time>
</trkpt>
<trkpt lat="53.5423698" lon="-10.1418753">
	<ele>9.94</ele>
	<time>1970-01-01T00:08:54.198Z</time>
</trkpt>
<trkpt lat="53.5425262" lon="-10.1413927">
	<ele>11.53</ele>
	<time>1970-01-01T00:09:07.936Z</time>
</trkpt>
<trkpt lat="53.5426407" lon="-10.1409073">
	<ele>12.50</ele>
	<time>1970-01-01T00:09:21.614Z</time>
</trkpt>
<trkpt lat="53.5427856" lon="-10.1400299">
	<ele>15.62</ele>
	<time>1970-01-01T00:09:50.296Z</time>
</trkpt>
<trkpt lat="53.5427933" lon="-10.1399670">
	<ele>15.80</ele>
	<time>1970-01-01T00:09:51.880Z</time>
</trkpt>
<trkpt lat="53.5428696" lon="-10.1396904">
	<ele>16.75</ele>
	<time>1970-01-01T00:09:59.933Z</time>
</trkpt>
<trkpt lat="53.5430031" lon="-10.1394882">
	<ele>17.88</ele>
	<time>1970-01-01T00:10:08.465Z</time>
</trkpt>
<trkpt lat="53.5435905" lon="-10.1390533">
	<ele>20.94</ele>
	<time>1970-01-01T00:10:42.729Z</time>
</trkpt>
<trkpt lat="53.5441055" lon="-10.1409788">
	<ele>17.40</ele>
	<time>1970-01-01T00:11:10.943Z</time>
</trkpt>
<trkpt lat="53.5446701" lon="-10.1432276">
	<ele>16.05</ele>
	<time>1970-01-01T00:11:44.548Z</time>
</trkpt>
<trkpt lat="53.5447807" lon="-10.1436357">
	<ele>15.81</ele>
	<time>1970-01-01T00:11:49.943Z</time>
</trkpt>
<trkpt lat="53.5447998" lon="-10.1437206">
	<ele>15.77</ele>
	<time>1970-01-01T00:11:51.008Z</time>
</trkpt>
<trkpt lat="53.5448532" lon="-10.1440573">
	<ele>15.63</ele>
	<time>1970-01-01T00:11:54.819Z</time>
</trkpt>
<trkpt lat="53.5448875" lon="-10.1446428">
	<ele>15.55</ele>
	<time>1970-01-01T00:12:00.626Z</time>
</trkpt>
<trkpt lat="53.5448799" lon="-10.1450119">
	<ele>15.54</ele>
	<time>1970-01-01T00:12:03.925Z</time>
</trkpt>
<trkpt lat="53.5448456" lon="-10.1452122">
	<ele>15.38</ele>
	<time>1970-01-01T00:12:06.031Z</time>
</trkpt>
<trkpt lat="53.5447922" lon="-10.1454344">
	<ele>15.16</ele>
	<time>1970-01-01T00:12:08.473Z</time>
</trkpt>
<trkpt lat="53.5447693" lon="-10.1455393">
	<ele>15.10</ele>
	<time>1970-01-01T00:12:09.552Z</time>
</trkpt>
<trkpt lat="53.5446053" lon="-10.1459904">
	<ele>15.07</ele>
	<time>1970-01-01T00:12:15.026Z</time>
</trkpt>
<trkpt lat="53.5441246" lon="-10.1470118">
	<ele>16.68</ele>
	<time>1970-01-01T00:12:29.510Z</time>
</trkpt>
<trkpt lat="53.5438919" lon="-10.1474819">
	<ele>15.87</ele>
	<time>1970-01-01T00:12:35.860Z</time>
</trkpt>
<trkpt lat="53.5437584" lon="-10.1479006">
	<ele>16.05</ele>
	<time>1970-01-01T00:12:41.018Z</time>
</trkpt>
<trkpt lat="53.5436134" lon="-10.1484327">
	<ele>16.66</ele>
	<time>1970-01-01T00:12:47.372Z</time>
</trkpt>
<trkpt lat="53.5435066" lon="-10.1489916">
	<ele>16.29</ele>
	<time>1970-01-01T00:12:54.151Z</time>
</trkpt>
<trkpt lat="53.5434189" lon="-10.1499615">
	<ele>16.62</ele>
	<time>1970-01-01T00:13:06.474Z</time>
</trkpt>
<trkpt lat="53.5433998" lon="-10.1504555">
	<ele>15.99</ele>
	<time>1970-01-01T00:13:11.768Z</time>
</trkpt>
<trkpt lat="53.5434418" lon="-10.1513920">
	<ele>15.76</ele>
	<time>1970-01-01T00:13:21.864Z</time>
</trkpt>
<trkpt lat="53.5441322" lon="-10.1564198">
	<ele>19.82</ele>
	<time>1970-01-01T00:14:23.315Z</time>
</trkpt>
<trkpt lat="53.5441780" lon="-10.1568394">
	<ele>20.07</ele>
	<time>1970-01-01T00:14:28.320Z</time>
</trkpt>
<trkpt lat="53.5442696" lon="-10.1572552">
	<ele>20.56</ele>
	<time>1970-01-01T00:14:34.080Z</time>
</trkpt>
<trkpt lat="53.5443993" lon="-10.1578074">
	<ele>21.35</ele>
	<time>1970-01-01T00:14:42.367Z</time>
</trkpt>
<trkpt lat="53.5448418" lon="-10.1591139">
	<ele>22.34</ele>
	<time>1970-01-01T00:15:02.126Z</time>
</trkpt>
<trkpt lat="53.5450096" lon="-10.1596470">
	<ele>21.94</ele>
	<time>1970-01-01T00:15:09.363Z</time>
</trkpt>
<trkpt lat="53.5451279" lon="-10.1602907">
	<ele>20.66</ele>
	<time>1970-01-01T00:15:22.450Z</time>
</trkpt>
<trkpt lat="53.5451813" lon="-10.1609478">
	<ele>19.49</ele>
	<time>1970-01-01T00:15:30.835Z</time>
</trkpt>
<trkpt lat="53.5452614" lon="-10.1626654">
	<ele>20.76</ele>
	<time>1970-01-01T00:15:53.826Z</time>
</trkpt>
<trkpt lat="53.5452423" lon="-10.1628761">
	<ele>20.56</ele>
	<time>1970-01-01T00:15:56.232Z</time>
</trkpt>
<trkpt lat="53.5452118" lon="-10.1632442">
	<ele>20.06</ele>
	<time>1970-01-01T00:16:00.507Z</time>
</trkpt>
<trkpt lat="53.5451126" lon="-10.1637583">
	<ele>19.49</ele>
	<time>1970-01-01T00:16:06.626Z</time>
</trkpt>
<trkpt lat="53.5449028" lon="-10.1649790">
	<ele>19.35</ele>
	<time>1970-01-01T00:16:19.024Z</time>
</trkpt>
<trkpt lat="53.5448837" lon="-10.1652851">
	<ele>19.55</ele>
	<time>1970-01-01T00:16:22.324Z</time>
</trkpt>
<trkpt lat="53.5448799" lon="-10.1653719">
	<ele>19.61</ele>
	<time>1970-01-01T00:16:23.315Z</time>
</trkpt>
<trkpt lat="53.5448799" lon="-10.1655865">
	<ele>19.83</ele>
	<time>1970-01-01T00:16:25.784Z</time>
</trkpt>
<trkpt lat="53.5449219" lon="-10.1657734">
	<ele>20.33</ele>
	<time>1970-01-01T00:16:28.383Z</time>
</trkpt>
<trkpt lat="53.5450172" lon="-10.1661282">
	<ele>21.49</ele>
	<time>1970-01-01T00:16:34.838Z</time>
</trkpt>
<trkpt lat="53.5451775" lon="-10.1665316">
	<ele>23.11</ele>
	<time>1970-01-01T00:16:45.507Z</time>
</trkpt>
<trkpt lat="53.5451889" lon="-10.1666451">
	<ele>23.30</ele>
	<time>1970-01-01T00:16:48.030Z</time>
</trkpt>
<trkpt lat="53.5452385" lon="-10.1670942">
	<ele>24.05</ele>
	<time>1970-01-01T00:16:58.084Z</time>
</trkpt>
<trkpt lat="53.5452538" lon="-10.1673203">
	<ele>24.33</ele>
	<time>1970-01-01T00:17:02.768Z</time>
</trkpt>
<trkpt lat="53.5453377" lon="-10.1686268">
	<ele>25.11</ele>
	<time>1970-01-01T00:17:27.510Z</time>
</trkpt>
<trkpt lat="53.5453720" lon="-10.1690760">
	<ele>25.43</ele>
	<time>1970-01-01T00:17:35.084Z</time>
</trkpt>
<trkpt lat="53.5454025" lon="-10.1694040">
	<ele>25.84</ele>
	<time>1970-01-01T00:17:40.466Z</time>
</trkpt>
<trkpt lat="53.5454750" lon="-10.1700888">
	<ele>26.56</ele>
	<time>1970-01-01T00:17:51.157Z</time>
</trkpt>
<trkpt lat="53.5455513" lon="-10.1707573">
	<ele>26.21</ele>
	<time>1970-01-01T00:18:00.418Z</time>
</trkpt>
<trkpt lat="53.5456390" lon="-10.1718206">
	<ele>25.45</ele>
	<time>1970-01-01T00:18:13.754Z</time>
</trkpt>
<trkpt lat="53.5456505" lon="-10.1719761">
	<ele>25.51</ele>
	<time>1970-01-01T00:18:15.557Z</time>
</trkpt>
<trkpt lat="53.5457802" lon="-10.1724329">
	<ele>25.91</ele>
	<time>1970-01-01T00:18:21.596Z</time>
</trkpt>
<trkpt lat="53.5459785" lon="-10.1728373">
	<ele>26.22</ele>
	<time>1970-01-01T00:18:28.072Z</time>
</trkpt>
<trkpt lat="53.5463753" lon="-10.1734200">
	<ele>26.56</ele>
	<time>1970-01-01T00:18:39.153Z</time>
</trkpt>
<trkpt lat="53.5467453" lon="-10.1739607">
	<ele>27.23</ele>
	<time>1970-01-01T00:18:48.458Z</time>
</trkpt>
<trkpt lat="53.5469055" lon="-10.1751976">
	<ele>24.93</ele>
	<time>1970-01-01T00:19:00.818Z</time>
</trkpt>
<trkpt lat="53.5469856" lon="-10.1757269">
	<ele>24.30</ele>
	<time>1970-01-01T00:19:04.841Z</time>
</trkpt>
<trkpt lat="53.5470428" lon="-10.1762609">
	<ele>22.69</ele>
	<time>1970-01-01T00:19:10.608Z</time>
</trkpt>
<trkpt lat="53.5470428" lon="-10.1766977">
	<ele>21.00</ele>
	<time>1970-01-01T00:19:14.217Z</time>
</trkpt>
<trkpt lat="53.5470276" lon="-10.1770544">
	<ele>19.81</ele>
	<time>1970-01-01T00:19:17.102Z</time>
</trkpt>
<trkpt lat="53.5470543" lon="-10.1773329">
	<ele>19.10</ele>
	<time>1970-01-01T00:19:19.299Z</time>
</trkpt>
<trkpt lat="53.5470772" lon="-10.1775103">
	<ele>18.73</ele>
	<time>1970-01-01T00:19:20.622Z</time>
</trkpt>
<trkpt lat="53.5470924" lon="-10.1777077">
	<ele>18.44</ele>
	<time>1970-01-01T00:19:22.050Z</time>
</trkpt>
<trkpt lat="53.5471687" lon="-10.1781311">
	<ele>17.88</ele>
	<time>1970-01-01T00:19:24.954Z</time>
</trkpt>
<trkpt lat="53.5473747" lon="-10.1793509">
	<ele>18.39</ele>
	<time>1970-01-01T00:19:35.800Z</time>
</trkpt>
<trkpt lat="53.5476036" lon="-10.1805696">
	<ele>19.60</ele>
	<time>1970-01-01T00:19:48.996Z</time>
</trkpt>
<trkpt lat="53.5476608" lon="-10.1811962">
	<ele>19.43</ele>
	<time>1970-01-01T00:19:53.176Z</time>
</trkpt>
<trkpt lat="53.5476990" lon="-10.1814098">
	<ele>19.32</ele>
	<time>1970-01-01T00:19:54.835Z</time>
</trkpt>
<trkpt lat="53.5477448" lon="-10.1815166">
	<ele>19.18</ele>
	<time>1970-01-01T00:19:55.870Z</time>
</trkpt>
<trkpt lat="53.5482025" lon="-10.1823330">
	<ele>16.93</ele>
	<time>1970-01-01T00:20:06.156Z</time>
</trkpt>
<trkpt lat="53.5483246" lon="-10.1824427">
	<ele>16.12</ele>
	<time>1970-01-01T00:20:08.281Z</time>
</trkpt>
<trkpt lat="53.5484772" lon="-10.1825457">
	<ele>15.15</ele>
	<time>1970-01-01T00:20:10.226Z</time>
</trkpt>
<trkpt lat="53.5491333" lon="-10.1833458">
	<ele>11.16</ele>
	<time>1970-01-01T00:20:17.746Z</time>
</trkpt>
<trkpt lat="53.5499077" lon="-10.1840868">
	<ele>7.28</ele>
	<time>1970-01-01T00:20:25.843Z</time>
</trkpt>
<trkpt lat="53.5507164" lon="-10.1848440">
	<ele>6.11</ele>
	<time>1970-01-01T00:20:36.477Z</time>
</trkpt>
<trkpt lat="53.5525818" lon="-10.1856537">
	<ele>6.86</ele>
	<time>1970-01-01T00:21:03.513Z</time>
</trkpt>
<trkpt lat="53.5527153" lon="-10.1856356">
	<ele>7.16</ele>
	<time>1970-01-01T00:21:05.974Z</time>
</trkpt>
<trkpt lat="53.5527200" lon="-10.1856800">
	<ele>8.40</ele>
	<time>1970-01-01T00:00:00.000Z</time>
</trkpt>
<trkpt lat="53.5539500" lon="-10.1849700">
	<ele>10.20</ele>
	<time>1970-01-01T00:00:00.000Z</time>
</trkpt>
<trkpt lat="53.5544700" lon="-10.1848100">
	<ele>11.40</ele>
	<time>1970-01-01T00:00:00.000Z</time>
</trkpt>
<trkpt lat="53.5547500" lon="-10.1844500">
	<ele>12.00</ele>
	<time>1970-01-01T00:00:00.000Z</time>
</trkpt>
<trkpt lat="53.5548800" lon="-10.1840900">
	<ele>11.00</ele>
	<time>1970-01-01T00:00:00.000Z</time>
</trkpt>
<trkpt lat="53.5551800" lon="-10.1836300">
	<ele>11.30</ele>
	<time>1970-01-01T00:00:00.000Z</time>
</trkpt>
<trkpt lat="53.5555200" lon="-10.1829500">
	<ele>11.50</ele>
	<time>1970-01-01T00:00:00.000Z</time>
</trkpt>
<trkpt lat="53.5563000" lon="-10.1818890">
	<ele>11.40</ele>
	<time>1970-01-01T00:00:00.000Z</time>
</trkpt>
<trkpt lat="53.5564600" lon="-10.1815000">
	<ele>10.70</ele>
	<time>1970-01-01T00:00:00.000Z</time>
</trkpt>
<trkpt lat="53.5565600" lon="-10.1809600">
	<ele>10.70</ele>
	<time>1970-01-01T00:00:00.000Z</time>
</trkpt>
<trkpt lat="53.5567200" lon="-10.1804600">
	<ele>9.60</ele>
	<time>1970-01-01T00:00:00.000Z</time>
</trkpt>
<trkpt lat="53.5573400" lon="-10.1795300">
	<ele>6.00</ele>
	<time>1970-01-01T00:00:00.000Z</time>
</trkpt>
<trkpt lat="53.5579800" lon="-10.1781100">
	<ele>3.10</ele>
	<time>1970-01-01T00:00:00.000Z</time>
</trkpt>
<trkpt lat="53.5582100" lon="-10.1775000">
	<ele>2.80</ele>
	<time>1970-01-01T00:00:00.000Z</time>
</trkpt>
<trkpt lat="53.5588500" lon="-10.1764100">
	<ele>1.80</ele>
	<time>1970-01-01T00:00:00.000Z</time>
</trkpt>
<trkpt lat="53.5590300" lon="-10.1756800">
	<ele>5.87</ele>
	<time>1970-01-01T00:00:00.000Z</time>
</trkpt>
<trkpt lat="53.5590800" lon="-10.1749700">
	<ele>6.10</ele>
	<time>1970-01-01T00:00:00.000Z</time>
</trkpt>
<trkpt lat="53.5591800" lon="-10.1742800">
	<ele>7.60</ele>
	<time>1970-01-01T00:00:00.000Z</time>
</trkpt>
<trkpt lat="53.5592200" lon="-10.1735100">
	<ele>9.50</ele>
	<time>1970-01-01T00:00:00.000Z</time>
</trkpt>
<trkpt lat="53.5588300" lon="-10.1701590">
	<ele>9.80</ele>
	<time>1970-01-01T00:00:00.000Z</time>
</trkpt>
<trkpt lat="53.5586900" lon="-10.1677400">
	<ele>6.70</ele>
	<time>1970-01-01T00:00:00.000Z</time>
</trkpt>
<trkpt lat="53.5580100" lon="-10.1646800">
	<ele>7.20</ele>
	<time>1970-01-01T00:00:00.000Z</time>
</trkpt>
<trkpt lat="53.5578400" lon="-10.1642300">
	<ele>6.70</ele>
	<time>1970-01-01T00:00:00.000Z</time>
</trkpt>
<trkpt lat="53.5570300" lon="-10.1616800">
	<ele>3.20</ele>
	<time>1970-01-01T00:00:00.000Z</time>
</trkpt>
<trkpt lat="53.5569500" lon="-10.1610090">
	<ele>2.70</ele>
	<time>1970-01-01T00:00:00.000Z</time>
</trkpt>
<trkpt lat="53.5567900" lon="-10.1603800">
	<ele>2.20</ele>
	<time>1970-01-01T00:00:00.000Z</time>
</trkpt>
<trkpt lat="53.5565500" lon="-10.1602100">
	<ele>2.50</ele>
	<time>1970-01-01T00:00:00.000Z</time>
</trkpt>
<trkpt lat="53.5561600" lon="-10.1601800">
	<ele>2.90</ele>
	<time>1970-01-01T00:00:00.000Z</time>
</trkpt>
<trkpt lat="53.5554100" lon="-10.1603500">
	<ele>4.20</ele>
	<time>1970-01-01T00:00:00.000Z</time>
</trkpt>
<trkpt lat="53.5538400" lon="-10.1613390">
	<ele>9.10</ele>
	<time>1970-01-01T00:00:00.000Z</time>
</trkpt>
<trkpt lat="53.5531400" lon="-10.1625000">
	<ele>11.80</ele>
	<time>1970-01-01T00:00:00.000Z</time>
</trkpt>
<trkpt lat="53.5528500" lon="-10.1630800">
	<ele>12.70</ele>
	<time>1970-01-01T00:00:00.000Z</time>
</trkpt>
<trkpt lat="53.5522590" lon="-10.1637100">
	<ele>14.20</ele>
	<time>1970-01-01T00:00:00.000Z</time>
</trkpt>
<trkpt lat="53.5520100" lon="-10.1636300">
	<ele>13.40</ele>
	<time>1970-01-01T00:00:00.000Z</time>
</trkpt>
<trkpt lat="53.5512100" lon="-10.1627900">
	<ele>17.20</ele>
	<time>1970-01-01T00:00:00.000Z</time>
</trkpt>
<trkpt lat="53.5508700" lon="-10.1613200">
	<ele>15.80</ele>
	<time>1970-01-01T00:00:00.000Z</time>
</trkpt>
<trkpt lat="53.5508900" lon="-10.1604900">
	<ele>17.70</ele>
	<time>1970-01-01T00:00:00.000Z</time>
</trkpt>
<trkpt lat="53.5514000" lon="-10.1580400">
	<ele>12.70</ele>
	<time>1970-01-01T00:00:00.000Z</time>
</trkpt>
<trkpt lat="53.5515100" lon="-10.1560700">
	<ele>10.50</ele>
	<time>1970-01-01T00:00:00.000Z</time>
</trkpt>
<trkpt lat="53.5518500" lon="-10.1541900">
	<ele>8.60</ele>
	<time>1970-01-01T00:00:00.000Z</time>
</trkpt>
<trkpt lat="53.5519500" lon="-10.1531100">
	<ele>7.80</ele>
	<time>1970-01-01T00:00:00.000Z</time>
</trkpt>
<trkpt lat="53.5519600" lon="-10.1525300">
	<ele>7.40</ele>
	<time>1970-01-01T00:00:00.000Z</time>
</trkpt>
<trkpt lat="53.5518200" lon="-10.1515700">
	<ele>8.10</ele>
	<time>1970-01-01T00:00:00.000Z</time>
</trkpt>
<trkpt lat="53.5518300" lon="-10.1503100">
	<ele>6.10</ele>
	<time>1970-01-01T00:00:00.000Z</time>
</trkpt>
<trkpt lat="53.5520300" lon="-10.1469700">
	<ele>7.40</ele>
	<time>1970-01-01T00:00:00.000Z</time>
</trkpt>
<trkpt lat="53.5522200" lon="-10.1457800">
	<ele>9.00</ele>
	<time>1970-01-01T00:00:00.000Z</time>
</trkpt>
<trkpt lat="53.5524900" lon="-10.1448690">
	<ele>10.10</ele>
	<time>1970-01-01T00:00:00.000Z</time>
</trkpt>
<trkpt lat="53.5527800" lon="-10.1444200">
	<ele>12.30</ele>
	<time>1970-01-01T00:00:00.000Z</time>
</trkpt>
<trkpt lat="53.5532500" lon="-10.1441700">
	<ele>12.90</ele>
	<time>1970-01-01T00:00:00.000Z</time>
</trkpt>
<trkpt lat="53.5534800" lon="-10.1437600">
	<ele>13.80</ele>
	<time>1970-01-01T00:00:00.000Z</time>
</trkpt>
<trkpt lat="53.5546500" lon="-10.1401400">
	<ele>24.90</ele>
	<time>1970-01-01T00:00:00.000Z</time>
</trkpt>
<trkpt lat="53.5547300" lon="-10.1397200">
	<ele>27.10</ele>
	<time>1970-01-01T00:00:00.000Z</time>
</trkpt>
<trkpt lat="53.5546090" lon="-10.1354390">
	<ele>20.40</ele>
	<time>1970-01-01T00:00:00.000Z</time>
</trkpt>
<trkpt lat="53.5544500" lon="-10.1343300">
	<ele>17.60</ele>
	<time>1970-01-01T00:00:00.000Z</time>
</trkpt>
<trkpt lat="53.5542800" lon="-10.1335300">
	<ele>16.10</ele>
	<time>1970-01-01T00:00:00.000Z</time>
</trkpt>
<trkpt lat="53.5539000" lon="-10.1328400">
	<ele>15.50</ele>
	<time>1970-01-01T00:00:00.000Z</time>
</trkpt>
<trkpt lat="53.5538200" lon="-10.1322800">
	<ele>15.10</ele>
	<time>1970-01-01T00:00:00.000Z</time>
</trkpt>
<trkpt lat="53.5541500" lon="-10.1306000">
	<ele>12.30</ele>
	<time>1970-01-01T00:00:00.000Z</time>
</trkpt>
<trkpt lat="53.5539000" lon="-10.1275300">
	<ele>11.30</ele>
	<time>1970-01-01T00:00:00.000Z</time>
</trkpt>
<trkpt lat="53.5539700" lon="-10.1269500">
	<ele>10.90</ele>
	<time>1970-01-01T00:00:00.000Z</time>
</trkpt>
<trkpt lat="53.5540490" lon="-10.1266400">
	<ele>10.30</ele>
	<time>1970-01-01T00:00:00.000Z</time>
</trkpt>
<trkpt lat="53.5543500" lon="-10.1258900">
	<ele>10.50</ele>
	<time>1970-01-01T00:00:00.000Z</time>
</trkpt>
<trkpt lat="53.5544100" lon="-10.1256200">
	<ele>10.70</ele>
	<time>1970-01-01T00:00:00.000Z</time>
</trkpt>
<trkpt lat="53.5545600" lon="-10.1242100">
	<ele>12.40</ele>
	<time>1970-01-01T00:00:00.000Z</time>
</trkpt>
<trkpt lat="53.5556500" lon="-10.1206900">
	<ele>17.40</ele>
	<time>1970-01-01T00:00:00.000Z</time>
</trkpt>
<trkpt lat="53.5557800" lon="-10.1199990">
	<ele>18.30</ele>
	<time>1970-01-01T00:00:00.000Z</time>
</trkpt>
<trkpt lat="53.5559290" lon="-10.1172200">
	<ele>16.40</ele>
	<time>1970-01-01T00:00:00.000Z</time>
</trkpt>
<trkpt lat="53.5561800" lon="-10.1157700">
	<ele>13.20</ele>
	<time>1970-01-01T00:00:00.000Z</time>
</trkpt>
<trkpt lat="53.5563900" lon="-10.1139300">
	<ele>10.50</ele>
	<time>1970-01-01T00:00:00.000Z</time>
</trkpt>
<trkpt lat="53.5565790" lon="-10.1129500">
	<ele>8.10</ele>
	<time>1970-01-01T00:00:00.000Z</time>
</trkpt>
<trkpt lat="53.5566300" lon="-10.1122090">
	<ele>5.90</ele>
	<time>1970-01-01T00:00:00.000Z</time>
</trkpt>
<trkpt lat="53.5559800" lon="-10.1104500">
	<ele>5.80</ele>
	<time>1970-01-01T00:00:00.000Z</time>
</trkpt>
<trkpt lat="53.5559000" lon="-10.1101100">
	<ele>6.80</ele>
	<time>1970-01-01T00:00:00.000Z</time>
</trkpt>
<trkpt lat="53.5557290" lon="-10.1087800">
	<ele>2.40</ele>
	<time>1970-01-01T00:00:00.000Z</time>
</trkpt>
<trkpt lat="53.5556000" lon="-10.1085000">
	<ele>3.90</ele>
	<time>1970-01-01T00:00:00.000Z</time>
</trkpt>
<trkpt lat="53.5552000" lon="-10.1078600">
	<ele>5.00</ele>
	<time>1970-01-01T00:00:00.000Z</time>
</trkpt>
<trkpt lat="53.5545400" lon="-10.1048900">
	<ele>7.90</ele>
	<time>1970-01-01T00:00:00.000Z</time>
</trkpt>
<trkpt lat="53.5545190" lon="-10.1047300">
	<ele>7.90</ele>
	<time>1970-01-01T00:00:00.000Z</time>
</trkpt>
<trkpt lat="53.5546990" lon="-10.1043700">
	<ele>3.80</ele>
	<time>1970-01-01T00:00:00.000Z</time>
</trkpt>
<trkpt lat="53.5549100" lon="-10.1034800">
	<ele>0.70</ele>
	<time>1970-01-01T00:00:00.000Z</time>
</trkpt>
<trkpt lat="53.5550100" lon="-10.1028800">
	<ele>0.00</ele>
	<time>1970-01-01T00:00:00.000Z</time>
</trkpt>
<trkpt lat="53.5550300" lon="-10.1024990">
	<ele>0.30</ele>
	<time>1970-01-01T00:00:00.000Z</time>
</trkpt>
<trkpt lat="53.5547100" lon="-10.0994490">
	<ele>0.30</ele>
	<time>1970-01-01T00:00:00.000Z</time>
</trkpt>
<trkpt lat="53.5546300" lon="-10.0989900">
	<ele>0.50</ele>
	<time>1970-01-01T00:00:00.000Z</time>
</trkpt>
<trkpt lat="53.5541800" lon="-10.0973900">
	<ele>3.40</ele>
	<time>1970-01-01T00:00:00.000Z</time>
</trkpt>
<trkpt lat="53.5539400" lon="-10.0959700">
	<ele>2.40</ele>
	<time>1970-01-01T00:00:00.000Z</time>
</trkpt>
<trkpt lat="53.5539400" lon="-10.0957500">
	<ele>2.40</ele>
	<time>1970-01-01T00:00:00.000Z</time>
</trkpt>
<trkpt lat="53.5541300" lon="-10.0950700">
	<ele>0.20</ele>
	<time>1970-01-01T00:00:00.000Z</time>
</trkpt>
<trkpt lat="53.5543300" lon="-10.0947090">
	<ele>0.00</ele>
	<time>1970-01-01T00:00:00.000Z</time>
</trkpt>
<trkpt lat="53.5544900" lon="-10.0945200">
	<ele>0.00</ele>
	<time>1970-01-01T00:00:00.000Z</time>
</trkpt>
<trkpt lat="53.5549800" lon="-10.0940300">
	<ele>0.00</ele>
	<time>1970-01-01T00:00:00.000Z</time>
</trkpt>
<trkpt lat="53.5556200" lon="-10.0935300">
	<ele>0.00</ele>
	<time>1970-01-01T00:00:00.000Z</time>
</trkpt>
<trkpt lat="53.5558700" lon="-10.0934100">
	<ele>0.00</ele>
	<time>1970-01-01T00:00:00.000Z</time>
</trkpt>
<trkpt lat="53.5567400" lon="-10.0931700">
	<ele>0.20</ele>
	<time>1970-01-01T00:00:00.000Z</time>
</trkpt>
<trkpt lat="53.5568900" lon="-10.0930300">
	<ele>2.00</ele>
	<time>1970-01-01T00:00:00.000Z</time>
</trkpt>
<trkpt lat="53.5570300" lon="-10.0927900">
	<ele>2.80</ele>
	<time>1970-01-01T00:00:00.000Z</time>
</trkpt>
<trkpt lat="53.5572000" lon="-10.0923700">
	<ele>4.80</ele>
	<time>1970-01-01T00:00:00.000Z</time>
</trkpt>
<trkpt lat="53.5573000" lon="-10.0920000">
	<ele>6.60</ele>
	<time>1970-01-01T00:00:00.000Z</time>
</trkpt>
<trkpt lat="53.5573900" lon="-10.0915700">
	<ele>7.00</ele>
	<time>1970-01-01T00:00:00.000Z</time>
</trkpt>
<trkpt lat="53.5574900" lon="-10.0902600">
	<ele>8.70</ele>
	<time>1970-01-01T00:00:00.000Z</time>
</trkpt>
<trkpt lat="53.5575000" lon="-10.0895900">
	<ele>9.20</ele>
	<time>1970-01-01T00:00:00.000Z</time>
</trkpt>
<trkpt lat="53.5573600" lon="-10.0882200">
	<ele>9.20</ele>
	<time>1970-01-01T00:00:00.000Z</time>
</trkpt>
<trkpt lat="53.5573600" lon="-10.0877000">
	<ele>8.60</ele>
	<time>1970-01-01T00:00:00.000Z</time>
</trkpt>
<trkpt lat="53.5576200" lon="-10.0861800">
	<ele>13.40</ele>
	<time>1970-01-01T00:00:00.000Z</time>
</trkpt>
<trkpt lat="53.5576900" lon="-10.0846800">
	<ele>16.70</ele>
	<time>1970-01-01T00:00:00.000Z</time>
</trkpt>
<trkpt lat="53.5580300" lon="-10.0839100">
	<ele>22.20</ele>
	<time>1970-01-01T00:00:00.000Z</time>
</trkpt>
<trkpt lat="53.5582000" lon="-10.0830900">
	<ele>27.60</ele>
	<time>1970-01-01T00:00:00.000Z</time>
</trkpt>
<trkpt lat="53.5582000" lon="-10.0826200">
	<ele>28.20</ele>
	<time>1970-01-01T00:00:00.000Z</time>
</trkpt>
<trkpt lat="53.5578700" lon="-10.0819400">
	<ele>23.00</ele>
	<time>1970-01-01T00:00:00.000Z</time>
</trkpt>
<trkpt lat="53.5575700" lon="-10.0804300">
	<ele>23.40</ele>
	<time>1970-01-01T00:00:00.000Z</time>
</trkpt>
<trkpt lat="53.5574100" lon="-10.0789300">
	<ele>27.10</ele>
	<time>1970-01-01T00:00:00.000Z</time>
</trkpt>
<trkpt lat="53.5577200" lon="-10.0775600">
	<ele>28.00</ele>
	<time>1970-01-01T00:00:00.000Z</time>
</trkpt>
<trkpt lat="53.5577200" lon="-10.0756700">
	<ele>19.90</ele>
	<time>1970-01-01T00:00:00.000Z</time>
</trkpt>
<trkpt lat="53.5579500" lon="-10.0740000">
	<ele>20.10</ele>
	<time>1970-01-01T00:00:00.000Z</time>
</trkpt>
<trkpt lat="53.5587100" lon="-10.0716900">
	<ele>22.10</ele>
	<time>1970-01-01T00:00:00.000Z</time>
</trkpt>
<trkpt lat="53.5590400" lon="-10.0714100">
	<ele>24.30</ele>
	<time>1970-01-01T00:00:00.000Z</time>
</trkpt>
<trkpt lat="53.5599200" lon="-10.0705300">
	<ele>24.20</ele>
	<time>1970-01-01T00:00:00.000Z</time>
</trkpt>
<trkpt lat="53.5601800" lon="-10.0698500">
	<ele>20.40</ele>
	<time>1970-01-01T00:00:00.000Z</time>
</trkpt>
<trkpt lat="53.5602500" lon="-10.0694190">
	<ele>19.20</ele>
	<time>1970-01-01T00:00:00.000Z</time>
</trkpt>
<trkpt lat="53.5602400" lon="-10.0688700">
	<ele>17.20</ele>
	<time>1970-01-01T00:00:00.000Z</time>
</trkpt>
<trkpt lat="53.5603200" lon="-10.0682900">
	<ele>16.20</ele>
	<time>1970-01-01T00:00:00.000Z</time>
</trkpt>
<trkpt lat="53.5605190" lon="-10.0677600">
	<ele>14.70</ele>
	<time>1970-01-01T00:00:00.000Z</time>
</trkpt>
<trkpt lat="53.5608700" lon="-10.0670500">
	<ele>13.40</ele>
	<time>1970-01-01T00:00:00.000Z</time>
</trkpt>
<trkpt lat="53.5609800" lon="-10.0665500">
	<ele>12.60</ele>
	<time>1970-01-01T00:00:00.000Z</time>
</trkpt>
<trkpt lat="53.5609890" lon="-10.0662700">
	<ele>11.61</ele>
	<time>1970-01-01T00:00:00.000Z</time>
</trkpt>
<trkpt lat="53.5609600" lon="-10.0660200">
	<ele>12.60</ele>
	<time>1970-01-01T00:00:00.000Z</time>
</trkpt>
<trkpt lat="53.5608900" lon="-10.0657590">
	<ele>12.20</ele>
	<time>1970-01-01T00:00:00.000Z</time>
</trkpt>
<trkpt lat="53.5598600" lon="-10.0625900">
	<ele>14.60</ele>
	<time>1970-01-01T00:00:00.000Z</time>
</trkpt>
<trkpt lat="53.5596500" lon="-10.0618000">
	<ele>17.00</ele>
	<time>1970-01-01T00:00:00.000Z</time>
</trkpt>
<trkpt lat="53.5595000" lon="-10.0601900">
	<ele>26.30</ele>
	<time>1970-01-01T00:00:00.000Z</time>
</trkpt>
<trkpt lat="53.5595000" lon="-10.0588000">
	<ele>33.50</ele>
	<time>1970-01-01T00:00:00.000Z</time>
</trkpt>
<trkpt lat="53.5595600" lon="-10.0579000">
	<ele>38.20</ele>
	<time>1970-01-01T00:00:00.000Z</time>
</trkpt>
<trkpt lat="53.5598900" lon="-10.0554100">
	<ele>44.30</ele>
	<time>1970-01-01T00:00:00.000Z</time>
</trkpt>
<trkpt lat="53.5597700" lon="-10.0545890">
	<ele>41.20</ele>
	<time>1970-01-01T00:00:00.000Z</time>
</trkpt>
<trkpt lat="53.5594600" lon="-10.0514700">
	<ele>40.50</ele>
	<time>1970-01-01T00:00:00.000Z</time>
</trkpt>
<trkpt lat="53.5593400" lon="-10.0493600">
	<ele>47.30</ele>
	<time>1970-01-01T00:00:00.000Z</time>
</trkpt>
<trkpt lat="53.5582600" lon="-10.0463600">
	<ele>29.70</ele>
	<time>1970-01-01T00:00:00.000Z</time>
</trkpt>
<trkpt lat="53.5571600" lon="-10.0424100">
	<ele>25.80</ele>
	<time>1970-01-01T00:00:00.000Z</time>
</trkpt>
<trkpt lat="53.5572400" lon="-10.0418100">
	<ele>30.50</ele>
	<time>1970-01-01T00:00:00.000Z</time>
</trkpt>
<trkpt lat="53.5572900" lon="-10.0407400">
	<ele>32.10</ele>
	<time>1970-01-01T00:00:00.000Z</time>
</trkpt>
<trkpt lat="53.5564700" lon="-10.0351600">
	<ele>21.60</ele>
	<time>1970-01-01T00:00:00.000Z</time>
</trkpt>
<trkpt lat="53.5563900" lon="-10.0348100">
	<ele>21.80</ele>
	<time>1970-01-01T00:00:00.000Z</time>
</trkpt>
<trkpt lat="53.5560400" lon="-10.0340000">
	<ele>22.00</ele>
	<time>1970-01-01T00:00:00.000Z</time>
</trkpt>
<trkpt lat="53.5558800" lon="-10.0337400">
	<ele>21.50</ele>
	<time>1970-01-01T00:00:00.000Z</time>
</trkpt>
<trkpt lat="53.5554800" lon="-10.0336300">
	<ele>18.60</ele>
	<time>1970-01-01T00:00:00.000Z</time>
</trkpt>
<trkpt lat="53.5540000" lon="-10.0328800">
	<ele>13.10</ele>
	<time>1970-01-01T00:00:00.000Z</time>
</trkpt>
<trkpt lat="53.5529500" lon="-10.0322800">
	<ele>14.70</ele>
	<time>1970-01-01T00:00:00.000Z</time>
</trkpt>
<trkpt lat="53.5527200" lon="-10.0322500">
	<ele>16.30</ele>
	<time>1970-01-01T00:00:00.000Z</time>
</trkpt>
<trkpt lat="53.5525900" lon="-10.0319290">
	<ele>16.20</ele>
	<time>1970-01-01T00:00:00.000Z</time>
</trkpt>
<trkpt lat="53.5523700" lon="-10.0311700">
	<ele>17.40</ele>
	<time>1970-01-01T00:00:00.000Z</time>
</trkpt>
<trkpt lat="53.5517890" lon="-10.0305300">
	<ele>19.20</ele>
	<time>1970-01-01T00:00:00.000Z</time>
</trkpt>
<trkpt lat="53.5506600" lon="-10.0287600">
	<ele>20.90</ele>
	<time>1970-01-01T00:00:00.000Z</time>
</trkpt>
<trkpt lat="53.5492000" lon="-10.0265700">
	<ele>19.80</ele>
	<time>1970-01-01T00:00:00.000Z</time>
</trkpt>
<trkpt lat="53.5489500" lon="-10.0261300">
	<ele>19.00</ele>
	<time>1970-01-01T00:00:00.000Z</time>
</trkpt>
<trkpt lat="53.5481100" lon="-10.0249000">
	<ele>18.60</ele>
	<time>1970-01-01T00:00:00.000Z</time>
</trkpt>
<trkpt lat="53.5479390" lon="-10.0245400">
	<ele>19.10</ele>
	<time>1970-01-01T00:00:00.000Z</time>
</trkpt>
<trkpt lat="53.5459690" lon="-10.0192800">
	<ele>20.60</ele>
	<time>1970-01-01T00:00:00.000Z</time>
</trkpt>
<trkpt lat="53.5456900" lon="-10.0182100">
	<ele>20.20</ele>
	<time>1970-01-01T00:00:00.000Z</time>
</trkpt>
<trkpt lat="53.5452500" lon="-10.0154590">
	<ele>20.00</ele>
	<time>1970-01-01T00:00:00.000Z</time>
</trkpt>
<trkpt lat="53.5447700" lon="-10.0117700">
	<ele>22.30</ele>
	<time>1970-01-01T00:00:00.000Z</time>
</trkpt>
<trkpt lat="53.5439130" lon="-10.0066680">
	<ele>21.10</ele>
	<time>1970-01-01T00:00:00.000Z</time>
</trkpt>
<trkpt lat="53.5439600" lon="-10.0066500">
	<ele>20.60</ele>
	<time>1970-01-01T00:00:00.000Z</time>
</trkpt>
<trkpt lat="53.5437900" lon="-10.0055590">
	<ele>20.30</ele>
	<time>1970-01-01T00:00:00.000Z</time>
</trkpt>
<trkpt lat="53.5437200" lon="-10.0051800">
	<ele>19.50</ele>
	<time>1970-01-01T00:00:00.000Z</time>
</trkpt>
<trkpt lat="53.5436000" lon="-10.0048700">
	<ele>19.00</ele>
	<time>1970-01-01T00:00:00.000Z</time>
</trkpt>
<trkpt lat="53.5438600" lon="-10.0039500">
	<ele>17.90</ele>
	<time>1970-01-01T00:00:00.000Z</time>
</trkpt>
<trkpt lat="53.5438300" lon="-10.0036500">
	<ele>17.60</ele>
	<time>1970-01-01T00:00:00.000Z</time>
</trkpt>
<trkpt lat="53.5437400" lon="-10.0033600">
	<ele>18.30</ele>
	<time>1970-01-01T00:00:00.000Z</time>
</trkpt>
<trkpt lat="53.5437100" lon="-10.0029400">
	<ele>18.00</ele>
	<time>1970-01-01T00:00:00.000Z</time>
</trkpt>
<trkpt lat="53.5437500" lon="-10.0023800">
	<ele>17.40</ele>
	<time>1970-01-01T00:00:00.000Z</time>
</trkpt>
<trkpt lat="53.5439090" lon="-10.0011100">
	<ele>12.10</ele>
	<time>1970-01-01T00:00:00.000Z</time>
</trkpt>
<trkpt lat="53.5439400" lon="-10.0004300">
	<ele>10.70</ele>
	<time>1970-01-01T00:00:00.000Z</time>
</trkpt>
<trkpt lat="53.5439400" lon="-9.9974700">
	<ele>10.50</ele>
	<time>1970-01-01T00:00:00.000Z</time>
</trkpt>
<trkpt lat="53.5438600" lon="-9.9967700">
	<ele>11.60</ele>
	<time>1970-01-01T00:00:00.000Z</time>
</trkpt>
<trkpt lat="53.5438700" lon="-9.9966200">
	<ele>11.60</ele>
	<time>1970-01-01T00:00:00.000Z</time>
</trkpt>
<trkpt lat="53.5439500" lon="-9.9963400">
	<ele>10.50</ele>
	<time>1970-01-01T00:00:00.000Z</time>
</trkpt>
<trkpt lat="53.5441200" lon="-9.9958700">
	<ele>10.40</ele>
	<time>1970-01-01T00:00:00.000Z</time>
</trkpt>
<trkpt lat="53.5442400" lon="-9.9949200">
	<ele>11.00</ele>
	<time>1970-01-01T00:00:00.000Z</time>
</trkpt>
<trkpt lat="53.5441900" lon="-9.9945290">
	<ele>11.00</ele>
	<time>1970-01-01T00:00:00.000Z</time>
</trkpt>
<trkpt lat="53.5440700" lon="-9.9939600">
	<ele>11.80</ele>
	<time>1970-01-01T00:00:00.000Z</time>
</trkpt>
<trkpt lat="53.5435000" lon="-9.9916000">
	<ele>11.20</ele>
	<time>1970-01-01T00:00:00.000Z</time>
</trkpt>
<trkpt lat="53.5434300" lon="-9.9907600">
	<ele>11.20</ele>
	<time>1970-01-01T00:00:00.000Z</time>
</trkpt>
<trkpt lat="53.5434100" lon="-9.9902700">
	<ele>10.90</ele>
	<time>1970-01-01T00:00:00.000Z</time>
</trkpt>
<trkpt lat="53.5436000" lon="-9.9844200">
	<ele>12.50</ele>
	<time>1970-01-01T00:00:00.000Z</time>
</trkpt>
<trkpt lat="53.5435800" lon="-9.9841900">
	<ele>12.50</ele>
	<time>1970-01-01T00:00:00.000Z</time>
</trkpt>
<trkpt lat="53.5434000" lon="-9.9833700">
	<ele>11.80</ele>
	<time>1970-01-01T00:00:00.000Z</time>
</trkpt>
<trkpt lat="53.5433800" lon="-9.9828700">
	<ele>10.70</ele>
	<time>1970-01-01T00:00:00.000Z</time>
</trkpt>
<trkpt lat="53.5436000" lon="-9.9800200">
	<ele>9.00</ele>
	<time>1970-01-01T00:00:00.000Z</time>
</trkpt>
<trkpt lat="53.5436500" lon="-9.9796900">
	<ele>8.90</ele>
	<time>1970-01-01T00:00:00.000Z</time>
</trkpt>
<trkpt lat="53.5439900" lon="-9.9784200">
	<ele>10.20</ele>
	<time>1970-01-01T00:00:00.000Z</time>
</trkpt>
<trkpt lat="53.5441000" lon="-9.9781500">
	<ele>11.20</ele>
	<time>1970-01-01T00:00:00.000Z</time>
</trkpt>
<trkpt lat="53.5445200" lon="-9.9776390">
	<ele>12.50</ele>
	<time>1970-01-01T00:00:00.000Z</time>
</trkpt>
<trkpt lat="53.5446000" lon="-9.9774100">
	<ele>13.20</ele>
	<time>1970-01-01T00:00:00.000Z</time>
</trkpt>
<trkpt lat="53.5446400" lon="-9.9770900">
	<ele>14.40</ele>
	<time>1970-01-01T00:00:00.000Z</time>
</trkpt>
<trkpt lat="53.5446400" lon="-9.9766400">
	<ele>15.30</ele>
	<time>1970-01-01T00:00:00.000Z</time>
</trkpt>
<trkpt lat="53.5445300" lon="-9.9744300">
	<ele>22.10</ele>
	<time>1970-01-01T00:00:00.000Z</time>
</trkpt>
<trkpt lat="53.5445500" lon="-9.9742800">
	<ele>22.68</ele>
	<time>1970-01-01T00:00:00.000Z</time>
</trkpt>
<trkpt lat="53.5445900" lon="-9.9741600">
	<ele>22.00</ele>
	<time>1970-01-01T00:00:00.000Z</time>
</trkpt>
<trkpt lat="53.5447500" lon="-9.9739900">
	<ele>21.60</ele>
	<time>1970-01-01T00:00:00.000Z</time>
</trkpt>
<trkpt lat="53.5449200" lon="-9.9739700">
	<ele>21.50</ele>
	<time>1970-01-01T00:00:00.000Z</time>
</trkpt>
<trkpt lat="53.5456300" lon="-9.9740900">
	<ele>22.00</ele>
	<time>1970-01-01T00:00:00.000Z</time>
</trkpt>
<trkpt lat="53.5463300" lon="-9.9739400">
	<ele>22.60</ele>
	<time>1970-01-01T00:00:00.000Z</time>
</trkpt>
<trkpt lat="53.5465200" lon="-9.9737900">
	<ele>23.90</ele>
	<time>1970-01-01T00:00:00.000Z</time>
</trkpt>
<trkpt lat="53.5467100" lon="-9.9733300">
	<ele>25.30</ele>
	<time>1970-01-01T00:00:00.000Z</time>
</trkpt>
<trkpt lat="53.5470900" lon="-9.9716400">
	<ele>21.10</ele>
	<time>1970-01-01T00:00:00.000Z</time>
</trkpt>
<trkpt lat="53.5471600" lon="-9.9712200">
	<ele>18.00</ele>
	<time>1970-01-01T00:00:00.000Z</time>
</trkpt>
<trkpt lat="53.5471000" lon="-9.9701500">
	<ele>16.20</ele>
	<time>1970-01-01T00:00:00.000Z</time>
</trkpt>
<trkpt lat="53.5471800" lon="-9.9699200">
	<ele>14.80</ele>
	<time>1970-01-01T00:00:00.000Z</time>
</trkpt>
<trkpt lat="53.5483100" lon="-9.9691500">
	<ele>7.10</ele>
	<time>1970-01-01T00:00:00.000Z</time>
</trkpt>
<trkpt lat="53.5485800" lon="-9.9690100">
	<ele>7.60</ele>
	<time>1970-01-01T00:00:00.000Z</time>
</trkpt>
<trkpt lat="53.5491600" lon="-9.9689700">
	<ele>7.40</ele>
	<time>1970-01-01T00:00:00.000Z</time>
</trkpt>
<trkpt lat="53.5495600" lon="-9.9690100">
	<ele>4.50</ele>
	<time>1970-01-01T00:00:00.000Z</time>
</trkpt>
<trkpt lat="53.5497400" lon="-9.9689300">
	<ele>2.00</ele>
	<time>1970-01-01T00:00:00.000Z</time>
</trkpt>
<trkpt lat="53.5499090" lon="-9.9687400">
	<ele>1.50</ele>
	<time>1970-01-01T00:00:00.000Z</time>
</trkpt>
<trkpt lat="53.5500500" lon="-9.9684500">
	<ele>1.30</ele>
	<time>1970-01-01T00:00:00.000Z</time>
</trkpt>
<trkpt lat="53.5504200" lon="-9.9667900">
	<ele>5.50</ele>
	<time>1970-01-01T00:00:00.000Z</time>
</trkpt>
<trkpt lat="53.5504100" lon="-9.9664500">
	<ele>6.80</ele>
	<time>1970-01-01T00:00:00.000Z</time>
</trkpt>
<trkpt lat="53.5502700" lon="-9.9655100">
	<ele>12.50</ele>
	<time>1970-01-01T00:00:00.000Z</time>
</trkpt>
<trkpt lat="53.5502400" lon="-9.9649400">
	<ele>12.10</ele>
	<time>1970-01-01T00:00:00.000Z</time>
</trkpt>
<trkpt lat="53.5504200" lon="-9.9633200">
	<ele>7.80</ele>
	<time>1970-01-01T00:00:00.000Z</time>
</trkpt>
<trkpt lat="53.5504000" lon="-9.9627500">
	<ele>8.10</ele>
	<time>1970-01-01T00:00:00.000Z</time>
</trkpt>
<trkpt lat="53.5505100" lon="-9.9617600">
	<ele>6.80</ele>
	<time>1970-01-01T00:00:00.000Z</time>
</trkpt>
<trkpt lat="53.5506600" lon="-9.9607800">
	<ele>9.60</ele>
	<time>1970-01-01T00:00:00.000Z</time>
</trkpt>
<trkpt lat="53.5506800" lon="-9.9604190">
	<ele>7.80</ele>
	<time>1970-01-01T00:00:00.000Z</time>
</trkpt>
<trkpt lat="53.5506600" lon="-9.9600600">
	<ele>11.10</ele>
	<time>1970-01-01T00:00:00.000Z</time>
</trkpt>
<trkpt lat="53.5509500" lon="-9.9595200">
	<ele>7.60</ele>
	<time>1970-01-01T00:00:00.000Z</time>
</trkpt>
<trkpt lat="53.5510800" lon="-9.9591000">
	<ele>6.40</ele>
	<time>1970-01-01T00:00:00.000Z</time>
</trkpt>
<trkpt lat="53.5511700" lon="-9.9580600">
	<ele>5.90</ele>
	<time>1970-01-01T00:00:00.000Z</time>
</trkpt>
<trkpt lat="53.5511390" lon="-9.9572200">
	<ele>9.10</ele>
	<time>1970-01-01T00:00:00.000Z</time>
</trkpt>
<trkpt lat="53.5512700" lon="-9.9562700">
	<ele>10.30</ele>
	<time>1970-01-01T00:00:00.000Z</time>
</trkpt>
<trkpt lat="53.5513000" lon="-9.9555600">
	<ele>13.10</ele>
	<time>1970-01-01T00:00:00.000Z</time>
</trkpt>
<trkpt lat="53.5513500" lon="-9.9553300">
	<ele>12.60</ele>
	<time>1970-01-01T00:00:00.000Z</time>
</trkpt>
<trkpt lat="53.5516400" lon="-9.9545700">
	<ele>15.10</ele>
	<time>1970-01-01T00:00:00.000Z</time>
</trkpt>
<trkpt lat="53.5517800" lon="-9.9538800">
	<ele>18.80</ele>
	<time>1970-01-01T00:00:00.000Z</time>
</trkpt>
<trkpt lat="53.5519900" lon="-9.9532200">
	<ele>19.50</ele>
	<time>1970-01-01T00:00:00.000Z</time>
</trkpt>
<trkpt lat="53.5519500" lon="-9.9519700">
	<ele>28.80</ele>
	<time>1970-01-01T00:00:00.000Z</time>
</trkpt>
<trkpt lat="53.5519900" lon="-9.9516800">
	<ele>30.00</ele>
	<time>1970-01-01T00:00:00.000Z</time>
</trkpt>
<trkpt lat="53.5523800" lon="-9.9500300">
	<ele>28.20</ele>
	<time>1970-01-01T00:00:00.000Z</time>
</trkpt>
<trkpt lat="53.5524500" lon="-9.9498200">
	<ele>28.40</ele>
	<time>1970-01-01T00:00:00.000Z</time>
</trkpt>
<trkpt lat="53.5526000" lon="-9.9495900">
	<ele>28.90</ele>
	<time>1970-01-01T00:00:00.000Z</time>
</trkpt>
<trkpt lat="53.5536100" lon="-9.9483300">
	<ele>35.29</ele>
	<time>1970-01-01T00:00:00.000Z</time>
</trkpt>
<trkpt lat="53.5545300" lon="-9.9506400">
	<ele>35.90</ele>
	<time>1970-01-01T00:00:00.000Z</time>
</trkpt>
<trkpt lat="53.5552900" lon="-9.9512600">
	<ele>36.20</ele>
	<time>1970-01-01T00:00:00.000Z</time>
</trkpt>
<trkpt lat="53.5556000" lon="-9.9516100">
	<ele>36.20</ele>
	<time>1970-01-01T00:00:00.000Z</time>
</trkpt>
<trkpt lat="53.5557200" lon="-9.9520500">
	<ele>36.40</ele>
	<time>1970-01-01T00:00:00.000Z</time>
</trkpt>
<trkpt lat="53.5557600" lon="-9.9533600">
	<ele>40.00</ele>
	<time>1970-01-01T00:00:00.000Z</time>
</trkpt>
<trkpt lat="53.5558000" lon="-9.9536800">
	<ele>41.10</ele>
	<time>1970-01-01T00:00:00.000Z</time>
</trkpt>
<trkpt lat="53.5575100" lon="-9.9565500">
	<ele>35.40</ele>
	<time>1970-01-01T00:00:00.000Z</time>
</trkpt>
<trkpt lat="53.5580200" lon="-9.9574700">
	<ele>34.80</ele>
	<time>1970-01-01T00:00:00.000Z</time>
</trkpt>
<trkpt lat="53.5586700" lon="-9.9583800">
	<ele>36.10</ele>
	<time>1970-01-01T00:00:00.000Z</time>
</trkpt>
<trkpt lat="53.5588390" lon="-9.9584800">
	<ele>35.20</ele>
	<time>1970-01-01T00:00:00.000Z</time>
</trkpt>
<trkpt lat="53.5605190" lon="-9.9587100">
	<ele>30.30</ele>
	<time>1970-01-01T00:00:00.000Z</time>
</trkpt>
<trkpt lat="53.5608000" lon="-9.9589200">
	<ele>28.50</ele>
	<time>1970-01-01T00:00:00.000Z</time>
</trkpt>
<trkpt lat="53.5610200" lon="-9.9593800">
	<ele>28.00</ele>
	<time>1970-01-01T00:00:00.000Z</time>
</trkpt>
<trkpt lat="53.5611600" lon="-9.9598090">
	<ele>27.60</ele>
	<time>1970-01-01T00:00:00.000Z</time>
</trkpt>
<trkpt lat="53.5614000" lon="-9.9607400">
	<ele>25.10</ele>
	<time>1970-01-01T00:00:00.000Z</time>
</trkpt>
<trkpt lat="53.5615000" lon="-9.9609200">
	<ele>25.10</ele>
	<time>1970-01-01T00:00:00.000Z</time>
</trkpt>
<trkpt lat="53.5617500" lon="-9.9610800">
	<ele>23.10</ele>
	<time>1970-01-01T00:00:00.000Z</time>
</trkpt>
<trkpt lat="53.5636000" lon="-9.9610290">
	<ele>15.10</ele>
	<time>1970-01-01T00:00:00.000Z</time>
</trkpt>
<trkpt lat="53.5641300" lon="-9.9611900">
	<ele>12.60</ele>
	<time>1970-01-01T00:00:00.000Z</time>
</trkpt>
<trkpt lat="53.5649600" lon="-9.9609400">
	<ele>12.20</ele>
	<time>1970-01-01T00:00:00.000Z</time>
</trkpt>
<trkpt lat="53.5653200" lon="-9.9609200">
	<ele>11.70</ele>
	<time>1970-01-01T00:00:00.000Z</time>
</trkpt>
<trkpt lat="53.5661800" lon="-9.9610900">
	<ele>10.50</ele>
	<time>1970-01-01T00:00:00.000Z</time>
</trkpt>
<trkpt lat="53.5666400" lon="-9.9611100">
	<ele>11.80</ele>
	<time>1970-01-01T00:00:00.000Z</time>
</trkpt>
<trkpt lat="53.5671200" lon="-9.9610500">
	<ele>11.50</ele>
	<time>1970-01-01T00:00:00.000Z</time>
</trkpt>
<trkpt lat="53.5673800" lon="-9.9609800">
	<ele>13.80</ele>
	<time>1970-01-01T00:00:00.000Z</time>
</trkpt>
<trkpt lat="53.5676300" lon="-9.9608500">
	<ele>13.80</ele>
	<time>1970-01-01T00:00:00.000Z</time>
</trkpt>
<trkpt lat="53.5685300" lon="-9.9601500">
	<ele>12.20</ele>
	<time>1970-01-01T00:00:00.000Z</time>
</trkpt>
<trkpt lat="53.5693100" lon="-9.9596690">
	<ele>10.30</ele>
	<time>1970-01-01T00:00:00.000Z</time>
</trkpt>
<trkpt lat="53.5695400" lon="-9.9597000">
	<ele>10.10</ele>
	<time>1970-01-01T00:00:00.000Z</time>
</trkpt>
<trkpt lat="53.5698500" lon="-9.9598400">
	<ele>9.70</ele>
	<time>1970-01-01T00:00:00.000Z</time>
</trkpt>
<trkpt lat="53.5703400" lon="-9.9601600">
	<ele>8.60</ele>
	<time>1970-01-01T00:00:00.000Z</time>
</trkpt>
<trkpt lat="53.5707900" lon="-9.9603500">
	<ele>7.20</ele>
	<time>1970-01-01T00:00:00.000Z</time>
</trkpt>
<trkpt lat="53.5713800" lon="-9.9605000">
	<ele>6.80</ele>
	<time>1970-01-01T00:00:00.000Z</time>
</trkpt>
<trkpt lat="53.5719100" lon="-9.9603800">
	<ele>8.80</ele>
	<time>1970-01-01T00:00:00.000Z</time>
</trkpt>
<trkpt lat="53.5725200" lon="-9.9608800">
	<ele>9.50</ele>
	<time>1970-01-01T00:00:00.000Z</time>
</trkpt>
<trkpt lat="53.5729200" lon="-9.9609800">
	<ele>11.60</ele>
	<time>1970-01-01T00:00:00.000Z</time>
</trkpt>
<trkpt lat="53.5729200" lon="-9.9609100">
	<ele>11.60</ele>
	<time>1970-01-01T00:00:00.000Z</time>
</trkpt>
<trkpt lat="53.5741500" lon="-9.9609200">
	<ele>13.20</ele>
	<time>1970-01-01T00:00:00.000Z</time>
</trkpt>
<trkpt lat="53.5745300" lon="-9.9609700">
	<ele>14.50</ele>
	<time>1970-01-01T00:00:00.000Z</time>
</trkpt>
<trkpt lat="53.5761600" lon="-9.9617000">
	<ele>19.90</ele>
	<time>1970-01-01T00:00:00.000Z</time>
</trkpt>
<trkpt lat="53.5801000" lon="-9.9628700">
	<ele>26.00</ele>
	<time>1970-01-01T00:00:00.000Z</time>
</trkpt>
<trkpt lat="53.5805600" lon="-9.9628900">
	<ele>26.70</ele>
	<time>1970-01-01T00:00:00.000Z</time>
</trkpt>
<trkpt lat="53.5815000" lon="-9.9627600">
	<ele>28.00</ele>
	<time>1970-01-01T00:00:00.000Z</time>
</trkpt>
<trkpt lat="53.5834000" lon="-9.9626600">
	<ele>30.50</ele>
	<time>1970-01-01T00:00:00.000Z</time>
</trkpt>
<trkpt lat="53.5861000" lon="-9.9627190">
	<ele>49.60</ele>
	<time>1970-01-01T00:00:00.000Z</time>
</trkpt>
<trkpt lat="53.5873400" lon="-9.9628800">
	<ele>53.70</ele>
	<time>1970-01-01T00:00:00.000Z</time>
</trkpt>
<trkpt lat="53.5878500" lon="-9.9629900">
	<ele>53.00</ele>
	<time>1970-01-01T00:00:00.000Z</time>
</trkpt>
<trkpt lat="53.5884600" lon="-9.9632000">
	<ele>53.73</ele>
	<time>1970-01-01T00:00:00.000Z</time>
</trkpt>
<trkpt lat="53.5884438" lon="-9.9632168">
	<ele>53.80</ele>
	<time>1970-01-01T00:34:35.061Z</time>
</trkpt>
<trkpt lat="53.5883522" lon="-9.9629974">
	<ele>53.92</ele>
	<time>1970-01-01T00:34:38.069Z</time>
</trkpt>
<trkpt lat="53.5883026" lon="-9.9628601">
	<ele>53.91</ele>
	<time>1970-01-01T00:34:39.794Z</time>
</trkpt>
<trkpt lat="53.5883522" lon="-9.9627028">
	<ele>53.37</ele>
	<time>1970-01-01T00:34:41.475Z</time>
</trkpt>
<trkpt lat="53.5885544" lon="-9.9621773">
	<ele>50.18</ele>
	<time>1970-01-01T00:34:45.673Z</time>
</trkpt>
<trkpt lat="53.5887756" lon="-9.9615517">
	<ele>47.10</ele>
	<time>1970-01-01T00:34:52.041Z</time>
</trkpt>
<trkpt lat="53.5890007" lon="-9.9608459">
	<ele>46.26</ele>
	<time>1970-01-01T00:34:58.207Z</time>
</trkpt>
<trkpt lat="53.5892181" lon="-9.9601231">
	<ele>46.89</ele>
	<time>1970-01-01T00:35:05.742Z</time>
</trkpt>
<trkpt lat="53.5894127" lon="-9.9595747">
	<ele>47.35</ele>
	<time>1970-01-01T00:35:12.347Z</time>
</trkpt>
<trkpt lat="53.5895729" lon="-9.9591408">
	<ele>47.72</ele>
	<time>1970-01-01T00:35:17.502Z</time>
</trkpt>
<trkpt lat="53.5896797" lon="-9.9588203">
	<ele>47.53</ele>
	<time>1970-01-01T00:35:21.022Z</time>
</trkpt>
<trkpt lat="53.5897903" lon="-9.9586506">
	<ele>47.15</ele>
	<time>1970-01-01T00:35:23.424Z</time>
</trkpt>
<trkpt lat="53.5903435" lon="-9.9582605">
	<ele>45.03</ele>
	<time>1970-01-01T00:35:31.473Z</time>
</trkpt>
<trkpt lat="53.5907898" lon="-9.9579086">
	<ele>43.40</ele>
	<time>1970-01-01T00:35:37.892Z</time>
</trkpt>
<trkpt lat="53.5909653" lon="-9.9578733">
	<ele>43.24</ele>
	<time>1970-01-01T00:35:40.479Z</time>
</trkpt>
<trkpt lat="53.5911789" lon="-9.9578762">
	<ele>43.15</ele>
	<time>1970-01-01T00:35:43.731Z</time>
</trkpt>
<trkpt lat="53.5913620" lon="-9.9579134">
	<ele>43.19</ele>
	<time>1970-01-01T00:35:46.691Z</time>
</trkpt>
<trkpt lat="53.5914764" lon="-9.9579067">
	<ele>43.35</ele>
	<time>1970-01-01T00:35:48.571Z</time>
</trkpt>
<trkpt lat="53.5915413" lon="-9.9578648">
	<ele>43.57</ele>
	<time>1970-01-01T00:35:49.744Z</time>
</trkpt>
<trkpt lat="53.5916100" lon="-9.9577894">
	<ele>43.96</ele>
	<time>1970-01-01T00:35:51.162Z</time>
</trkpt>
<trkpt lat="53.5916519" lon="-9.9576693">
	<ele>44.45</ele>
	<time>1970-01-01T00:35:51.999Z</time>
</trkpt>
<trkpt lat="53.5916672" lon="-9.9575310">
	<ele>44.91</ele>
	<time>1970-01-01T00:35:52.901Z</time>
</trkpt>
<trkpt lat="53.5916557" lon="-9.9573336">
	<ele>45.50</ele>
	<time>1970-01-01T00:35:54.451Z</time>
</trkpt>
<trkpt lat="53.5916595" lon="-9.9570847">
	<ele>46.46</ele>
	<time>1970-01-01T00:35:56.932Z</time>
</trkpt>
<trkpt lat="53.5916595" lon="-9.9569426">
	<ele>47.01</ele>
	<time>1970-01-01T00:35:58.447Z</time>
</trkpt>
<trkpt lat="53.5918655" lon="-9.9559526">
	<ele>50.39</ele>
	<time>1970-01-01T00:36:11.432Z</time>
</trkpt>
<trkpt lat="53.5919724" lon="-9.9550791">
	<ele>51.69</ele>
	<time>1970-01-01T00:36:28.135Z</time>
</trkpt>
<trkpt lat="53.5920563" lon="-9.9545832">
	<ele>53.39</ele>
	<time>1970-01-01T00:36:39.767Z</time>
</trkpt>
<trkpt lat="53.5921288" lon="-9.9542494">
	<ele>54.60</ele>
	<time>1970-01-01T00:36:48.822Z</time>
</trkpt>
<trkpt lat="53.5923958" lon="-9.9536896">
	<ele>56.62</ele>
	<time>1970-01-01T00:37:08.787Z</time>
</trkpt>
<trkpt lat="53.5925369" lon="-9.9534283">
	<ele>57.62</ele>
	<time>1970-01-01T00:37:16.735Z</time>
</trkpt>
<trkpt lat="53.5926361" lon="-9.9531927">
	<ele>58.20</ele>
	<time>1970-01-01T00:37:23.212Z</time>
</trkpt>
<trkpt lat="53.5926933" lon="-9.9528971">
	<ele>58.70</ele>
	<time>1970-01-01T00:37:30.324Z</time>
</trkpt>
<trkpt lat="53.5927048" lon="-9.9528246">
	<ele>58.78</ele>
	<time>1970-01-01T00:37:31.986Z</time>
</trkpt>
<trkpt lat="53.5927353" lon="-9.9525604">
	<ele>59.07</ele>
	<time>1970-01-01T00:37:37.906Z</time>
</trkpt>
<trkpt lat="53.5927467" lon="-9.9523687">
	<ele>59.32</ele>
	<time>1970-01-01T00:37:42.054Z</time>
</trkpt>
<trkpt lat="53.5927658" lon="-9.9520950">
	<ele>59.62</ele>
	<time>1970-01-01T00:37:47.644Z</time>
</trkpt>
<trkpt lat="53.5927963" lon="-9.9515638">
	<ele>59.70</ele>
	<time>1970-01-01T00:37:57.153Z</time>
</trkpt>
<trkpt lat="53.5928993" lon="-9.9511719">
	<ele>57.93</ele>
	<time>1970-01-01T00:38:05.133Z</time>
</trkpt>
<trkpt lat="53.5929832" lon="-9.9509029">
	<ele>56.20</ele>
	<time>1970-01-01T00:38:08.406Z</time>
</trkpt>
<trkpt lat="53.5929947" lon="-9.9508200">
	<ele>55.86</ele>
	<time>1970-01-01T00:38:09.329Z</time>
</trkpt>
<trkpt lat="53.5930214" lon="-9.9506588">
	<ele>55.05</ele>
	<time>1970-01-01T00:38:10.843Z</time>
</trkpt>
<trkpt lat="53.5930061" lon="-9.9503660">
	<ele>54.39</ele>
	<time>1970-01-01T00:38:13.254Z</time>
</trkpt>
<trkpt lat="53.5929413" lon="-9.9500084">
	<ele>53.88</ele>
	<time>1970-01-01T00:38:16.588Z</time>
</trkpt>
<trkpt lat="53.5929146" lon="-9.9498281">
	<ele>53.45</ele>
	<time>1970-01-01T00:38:18.246Z</time>
</trkpt>
<trkpt lat="53.5929146" lon="-9.9496117">
	<ele>52.51</ele>
	<time>1970-01-01T00:38:20.117Z</time>
</trkpt>
<trkpt lat="53.5929451" lon="-9.9494324">
	<ele>51.53</ele>
	<time>1970-01-01T00:38:21.595Z</time>
</trkpt>
<trkpt lat="53.5929909" lon="-9.9492474">
	<ele>50.62</ele>
	<time>1970-01-01T00:38:23.028Z</time>
</trkpt>
<trkpt lat="53.5930977" lon="-9.9490128">
	<ele>49.64</ele>
	<time>1970-01-01T00:38:24.935Z</time>
</trkpt>
<trkpt lat="53.5932732" lon="-9.9486876">
	<ele>48.86</ele>
	<time>1970-01-01T00:38:28.704Z</time>
</trkpt>
<trkpt lat="53.5934677" lon="-9.9485321">
	<ele>47.63</ele>
	<time>1970-01-01T00:38:31.033Z</time>
</trkpt>
<trkpt lat="53.5937614" lon="-9.9483423">
	<ele>45.07</ele>
	<time>1970-01-01T00:38:33.833Z</time>
</trkpt>
<trkpt lat="53.5941734" lon="-9.9483004">
	<ele>40.90</ele>
	<time>1970-01-01T00:38:37.513Z</time>
</trkpt>
<trkpt lat="53.5944824" lon="-9.9482641">
	<ele>37.91</ele>
	<time>1970-01-01T00:38:40.313Z</time>
</trkpt>
<trkpt lat="53.5946426" lon="-9.9482784">
	<ele>36.39</ele>
	<time>1970-01-01T00:38:41.753Z</time>
</trkpt>
<trkpt lat="53.5947151" lon="-9.9482841">
	<ele>35.70</ele>
	<time>1970-01-01T00:38:42.393Z</time>
</trkpt>
<trkpt lat="53.5951118" lon="-9.9483147">
	<ele>32.02</ele>
	<time>1970-01-01T00:38:45.913Z</time>
</trkpt>
<trkpt lat="53.5952606" lon="-9.9482965">
	<ele>30.70</ele>
	<time>1970-01-01T00:38:47.273Z</time>
</trkpt>
<trkpt lat="53.5953941" lon="-9.9482307">
	<ele>29.69</ele>
	<time>1970-01-01T00:38:48.473Z</time>
</trkpt>
<trkpt lat="53.5954819" lon="-9.9481430">
	<ele>29.23</ele>
	<time>1970-01-01T00:38:49.353Z</time>
</trkpt>
<trkpt lat="53.5955963" lon="-9.9479799">
	<ele>28.91</ele>
	<time>1970-01-01T00:38:50.713Z</time>
</trkpt>
<trkpt lat="53.5957069" lon="-9.9477339">
	<ele>29.02</ele>
	<time>1970-01-01T00:38:52.393Z</time>
</trkpt>
<trkpt lat="53.5961418" lon="-9.9469404">
	<ele>28.98</ele>
	<time>1970-01-01T00:38:58.735Z</time>
</trkpt>
<trkpt lat="53.5962524" lon="-9.9465818">
	<ele>29.32</ele>
	<time>1970-01-01T00:39:01.767Z</time>
</trkpt>
<trkpt lat="53.5963478" lon="-9.9460888">
	<ele>29.58</ele>
	<time>1970-01-01T00:39:05.601Z</time>
</trkpt>
<trkpt lat="53.5965042" lon="-9.9452143">
	<ele>29.05</ele>
	<time>1970-01-01T00:39:13.433Z</time>
</trkpt>
<trkpt lat="53.5965195" lon="-9.9451189">
	<ele>28.94</ele>
	<time>1970-01-01T00:39:14.400Z</time>
</trkpt>
<trkpt lat="53.5965576" lon="-9.9448671">
	<ele>28.67</ele>
	<time>1970-01-01T00:39:16.669Z</time>
</trkpt>
<trkpt lat="53.5966072" lon="-9.9444170">
	<ele>28.26</ele>
	<time>1970-01-01T00:39:20.643Z</time>
</trkpt>
<trkpt lat="53.5966110" lon="-9.9442587">
	<ele>28.27</ele>
	<time>1970-01-01T00:39:21.947Z</time>
</trkpt>
<trkpt lat="53.5965843" lon="-9.9439383">
	<ele>28.75</ele>
	<time>1970-01-01T00:39:24.932Z</time>
</trkpt>
<trkpt lat="53.5965614" lon="-9.9436026">
	<ele>29.46</ele>
	<time>1970-01-01T00:39:28.346Z</time>
</trkpt>
<trkpt lat="53.5965347" lon="-9.9430704">
	<ele>29.79</ele>
	<time>1970-01-01T00:39:31.751Z</time>
</trkpt>
<trkpt lat="53.5965271" lon="-9.9429808">
	<ele>29.75</ele>
	<time>1970-01-01T00:39:32.383Z</time>
</trkpt>
<trkpt lat="53.5965424" lon="-9.9425268">
	<ele>29.19</ele>
	<time>1970-01-01T00:39:35.743Z</time>
</trkpt>
<trkpt lat="53.5965500" lon="-9.9423866">
	<ele>29.14</ele>
	<time>1970-01-01T00:39:36.870Z</time>
</trkpt>
<trkpt lat="53.5966072" lon="-9.9418411">
	<ele>29.18</ele>
	<time>1970-01-01T00:39:41.754Z</time>
</trkpt>
<trkpt lat="53.5966606" lon="-9.9415741">
	<ele>29.29</ele>
	<time>1970-01-01T00:39:44.555Z</time>
</trkpt>
<trkpt lat="53.5968399" lon="-9.9411783">
	<ele>28.63</ele>
	<time>1970-01-01T00:39:49.294Z</time>
</trkpt>
<trkpt lat="53.5969315" lon="-9.9409151">
	<ele>28.74</ele>
	<time>1970-01-01T00:39:52.446Z</time>
</trkpt>
<trkpt lat="53.5969467" lon="-9.9408731">
	<ele>28.76</ele>
	<time>1970-01-01T00:39:52.922Z</time>
</trkpt>
<trkpt lat="53.5969734" lon="-9.9407082">
	<ele>29.20</ele>
	<time>1970-01-01T00:39:54.788Z</time>
</trkpt>
<trkpt lat="53.5970573" lon="-9.9401588">
	<ele>30.60</ele>
	<time>1970-01-01T00:40:03.404Z</time>
</trkpt>
<trkpt lat="53.5970879" lon="-9.9400291">
	<ele>30.86</ele>
	<time>1970-01-01T00:40:05.449Z</time>
</trkpt>
<trkpt lat="53.5972099" lon="-9.9395237">
	<ele>33.24</ele>
	<time>1970-01-01T00:40:15.717Z</time>
</trkpt>
<trkpt lat="53.5973816" lon="-9.9388323">
	<ele>35.74</ele>
	<time>1970-01-01T00:40:24.252Z</time>
</trkpt>
<trkpt lat="53.5974159" lon="-9.9385777">
	<ele>36.34</ele>
	<time>1970-01-01T00:40:27.990Z</time>
</trkpt>
<trkpt lat="53.5974007" lon="-9.9382296">
	<ele>37.68</ele>
	<time>1970-01-01T00:40:35.315Z</time>
</trkpt>
<trkpt lat="53.5973740" lon="-9.9380646">
	<ele>38.37</ele>
	<time>1970-01-01T00:40:38.703Z</time>
</trkpt>
<trkpt lat="53.5973282" lon="-9.9377899">
	<ele>39.20</ele>
	<time>1970-01-01T00:40:45.110Z</time>
</trkpt>
<trkpt lat="53.5973091" lon="-9.9373131">
	<ele>39.00</ele>
	<time>1970-01-01T00:40:54.467Z</time>
</trkpt>
<trkpt lat="53.5972481" lon="-9.9367990">
	<ele>39.69</ele>
	<time>1970-01-01T00:41:05.419Z</time>
</trkpt>
<trkpt lat="53.5972023" lon="-9.9365606">
	<ele>40.60</ele>
	<time>1970-01-01T00:41:10.948Z</time>
</trkpt>
<trkpt lat="53.5970268" lon="-9.9356174">
	<ele>44.87</ele>
	<time>1970-01-01T00:41:42.970Z</time>
</trkpt>
<trkpt lat="53.5970116" lon="-9.9354820">
	<ele>45.16</ele>
	<time>1970-01-01T00:41:46.443Z</time>
</trkpt>
<trkpt lat="53.5969849" lon="-9.9352417">
	<ele>45.56</ele>
	<time>1970-01-01T00:41:53.036Z</time>
</trkpt>
<trkpt lat="53.5969582" lon="-9.9348583">
	<ele>45.20</ele>
	<time>1970-01-01T00:42:01.883Z</time>
</trkpt>
<trkpt lat="53.5968781" lon="-9.9344330">
	<ele>45.86</ele>
	<time>1970-01-01T00:42:11.091Z</time>
</trkpt>
<trkpt lat="53.5967445" lon="-9.9339952">
	<ele>47.96</ele>
	<time>1970-01-01T00:42:25.897Z</time>
</trkpt>
<trkpt lat="53.5967255" lon="-9.9339104">
	<ele>48.13</ele>
	<time>1970-01-01T00:42:28.473Z</time>
</trkpt>
<trkpt lat="53.5967064" lon="-9.9337978">
	<ele>48.16</ele>
	<time>1970-01-01T00:42:31.739Z</time>
</trkpt>
<trkpt lat="53.5966988" lon="-9.9337187">
	<ele>47.99</ele>
	<time>1970-01-01T00:42:33.691Z</time>
</trkpt>
<trkpt lat="53.5966873" lon="-9.9335670">
	<ele>47.58</ele>
	<time>1970-01-01T00:42:37.209Z</time>
</trkpt>
<trkpt lat="53.5966835" lon="-9.9330406">
	<ele>44.68</ele>
	<time>1970-01-01T00:42:43.261Z</time>
</trkpt>
<trkpt lat="53.5966682" lon="-9.9326553">
	<ele>42.77</ele>
	<time>1970-01-01T00:42:50.124Z</time>
</trkpt>
<trkpt lat="53.5966301" lon="-9.9323616">
	<ele>42.56</ele>
	<time>1970-01-01T00:42:54.358Z</time>
</trkpt>
<trkpt lat="53.5965614" lon="-9.9320726">
	<ele>43.65</ele>
	<time>1970-01-01T00:42:58.611Z</time>
</trkpt>
<trkpt lat="53.5963860" lon="-9.9314728">
	<ele>45.52</ele>
	<time>1970-01-01T00:43:09.846Z</time>
</trkpt>
<trkpt lat="53.5963364" lon="-9.9313126">
	<ele>45.55</ele>
	<time>1970-01-01T00:43:12.989Z</time>
</trkpt>
<trkpt lat="53.5962448" lon="-9.9309464">
	<ele>44.94</ele>
	<time>1970-01-01T00:43:19.699Z</time>
</trkpt>
<trkpt lat="53.5961571" lon="-9.9302816">
	<ele>42.56</ele>
	<time>1970-01-01T00:43:25.948Z</time>
</trkpt>
<trkpt lat="53.5961266" lon="-9.9300270">
	<ele>41.61</ele>
	<time>1970-01-01T00:43:27.868Z</time>
</trkpt>
<trkpt lat="53.5960922" lon="-9.9297600">
	<ele>40.86</ele>
	<time>1970-01-01T00:43:29.917Z</time>
</trkpt>
<trkpt lat="53.5960236" lon="-9.9294062">
	<ele>40.56</ele>
	<time>1970-01-01T00:43:32.949Z</time>
</trkpt>
<trkpt lat="53.5959473" lon="-9.9290485">
	<ele>40.59</ele>
	<time>1970-01-01T00:43:36.350Z</time>
</trkpt>
<trkpt lat="53.5959206" lon="-9.9289169">
	<ele>40.64</ele>
	<time>1970-01-01T00:43:37.612Z</time>
</trkpt>
<trkpt lat="53.5959129" lon="-9.9288893">
	<ele>40.70</ele>
	<time>1970-01-01T00:43:37.895Z</time>
</trkpt>
<trkpt lat="53.5958939" lon="-9.9287996">
	<ele>40.79</ele>
	<time>1970-01-01T00:43:38.749Z</time>
</trkpt>
<trkpt lat="53.5958366" lon="-9.9283485">
	<ele>40.96</ele>
	<time>1970-01-01T00:43:42.832Z</time>
</trkpt>
<trkpt lat="53.5958633" lon="-9.9277544">
	<ele>40.36</ele>
	<time>1970-01-01T00:43:47.722Z</time>
</trkpt>
<trkpt lat="53.5958862" lon="-9.9274368">
	<ele>39.97</ele>
	<time>1970-01-01T00:43:50.354Z</time>
</trkpt>
<trkpt lat="53.5958824" lon="-9.9272413">
	<ele>40.06</ele>
	<time>1970-01-01T00:43:52.051Z</time>
</trkpt>
<trkpt lat="53.5958595" lon="-9.9270840">
	<ele>40.54</ele>
	<time>1970-01-01T00:43:53.706Z</time>
</trkpt>
<trkpt lat="53.5958290" lon="-9.9269257">
	<ele>41.16</ele>
	<time>1970-01-01T00:43:55.603Z</time>
</trkpt>
<trkpt lat="53.5957756" lon="-9.9265509">
	<ele>42.01</ele>
	<time>1970-01-01T00:44:01.324Z</time>
</trkpt>
<trkpt lat="53.5957756" lon="-9.9264030">
	<ele>41.74</ele>
	<time>1970-01-01T00:44:03.572Z</time>
</trkpt>
<trkpt lat="53.5957756" lon="-9.9263639">
	<ele>41.65</ele>
	<time>1970-01-01T00:44:04.234Z</time>
</trkpt>
<trkpt lat="53.5958176" lon="-9.9261713">
	<ele>40.46</ele>
	<time>1970-01-01T00:44:06.877Z</time>
</trkpt>
<trkpt lat="53.5958633" lon="-9.9260445">
	<ele>39.47</ele>
	<time>1970-01-01T00:44:08.510Z</time>
</trkpt>
<trkpt lat="53.5959549" lon="-9.9258757">
	<ele>37.98</ele>
	<time>1970-01-01T00:44:10.362Z</time>
</trkpt>
<trkpt lat="53.5961266" lon="-9.9256124">
	<ele>36.34</ele>
	<time>1970-01-01T00:44:14.558Z</time>
</trkpt>
<trkpt lat="53.5963631" lon="-9.9252653">
	<ele>35.65</ele>
	<time>1970-01-01T00:44:18.430Z</time>
</trkpt>
<trkpt lat="53.5964966" lon="-9.9249763">
	<ele>36.15</ele>
	<time>1970-01-01T00:44:21.209Z</time>
</trkpt>
<trkpt lat="53.5967674" lon="-9.9243879">
	<ele>36.42</ele>
	<time>1970-01-01T00:44:27.755Z</time>
</trkpt>
<trkpt lat="53.5969276" lon="-9.9239731">
	<ele>36.68</ele>
	<time>1970-01-01T00:44:32.753Z</time>
</trkpt>
<trkpt lat="53.5969658" lon="-9.9238682">
	<ele>36.72</ele>
	<time>1970-01-01T00:44:33.987Z</time>
</trkpt>
<trkpt lat="53.5970459" lon="-9.9235535">
	<ele>37.20</ele>
	<time>1970-01-01T00:44:36.322Z</time>
</trkpt>
<trkpt lat="53.5972214" lon="-9.9226398">
	<ele>39.51</ele>
	<time>1970-01-01T00:44:46.465Z</time>
</trkpt>
<trkpt lat="53.5973167" lon="-9.9222260">
	<ele>39.84</ele>
	<time>1970-01-01T00:44:51.747Z</time>
</trkpt>
<trkpt lat="53.5974007" lon="-9.9218340">
	<ele>40.18</ele>
	<time>1970-01-01T00:44:57.392Z</time>
</trkpt>
<trkpt lat="53.5974960" lon="-9.9209089">
	<ele>40.99</ele>
	<time>1970-01-01T00:45:09.076Z</time>
</trkpt>
<trkpt lat="53.5975380" lon="-9.9204760">
	<ele>40.17</ele>
	<time>1970-01-01T00:45:13.458Z</time>
</trkpt>
<trkpt lat="53.5975494" lon="-9.9199362">
	<ele>39.52</ele>
	<time>1970-01-01T00:45:19.048Z</time>
</trkpt>
<trkpt lat="53.5975533" lon="-9.9193630">
	<ele>39.32</ele>
	<time>1970-01-01T00:45:25.082Z</time>
</trkpt>
<trkpt lat="53.5975494" lon="-9.9187498">
	<ele>39.00</ele>
	<time>1970-01-01T00:45:31.031Z</time>
</trkpt>
<trkpt lat="53.5975227" lon="-9.9182682">
	<ele>39.21</ele>
	<time>1970-01-01T00:45:36.459Z</time>
</trkpt>
<trkpt lat="53.5974083" lon="-9.9173632">
	<ele>39.59</ele>
	<time>1970-01-01T00:45:49.854Z</time>
</trkpt>
<trkpt lat="53.5973969" lon="-9.9171209">
	<ele>39.47</ele>
	<time>1970-01-01T00:45:52.670Z</time>
</trkpt>
<trkpt lat="53.5973892" lon="-9.9169741">
	<ele>39.42</ele>
	<time>1970-01-01T00:45:54.309Z</time>
</trkpt>
<trkpt lat="53.5973206" lon="-9.9155064">
	<ele>35.55</ele>
	<time>1970-01-01T00:46:09.816Z</time>
</trkpt>
<trkpt lat="53.5972862" lon="-9.9153070">
	<ele>35.16</ele>
	<time>1970-01-01T00:46:11.951Z</time>
</trkpt>
<trkpt lat="53.5972557" lon="-9.9152203">
	<ele>35.32</ele>
	<time>1970-01-01T00:46:13.099Z</time>
</trkpt>
<trkpt lat="53.5971069" lon="-9.9150238">
	<ele>37.57</ele>
	<time>1970-01-01T00:46:16.351Z</time>
</trkpt>
<trkpt lat="53.5970612" lon="-9.9149408">
	<ele>38.29</ele>
	<time>1970-01-01T00:46:17.984Z</time>
</trkpt>
<trkpt lat="53.5970345" lon="-9.9148779">
	<ele>38.67</ele>
	<time>1970-01-01T00:46:19.141Z</time>
</trkpt>
<trkpt lat="53.5970192" lon="-9.9148264">
	<ele>38.84</ele>
	<time>1970-01-01T00:46:20.187Z</time>
</trkpt>
<trkpt lat="53.5970497" lon="-9.9147129">
	<ele>37.73</ele>
	<time>1970-01-01T00:46:21.970Z</time>
</trkpt>
<trkpt lat="53.5970764" lon="-9.9146423">
	<ele>36.89</ele>
	<time>1970-01-01T00:46:23.036Z</time>
</trkpt>
<trkpt lat="53.5973854" lon="-9.9140472">
	<ele>29.91</ele>
	<time>1970-01-01T00:46:27.789Z</time>
</trkpt>
<trkpt lat="53.5974274" lon="-9.9139671">
	<ele>29.38</ele>
	<time>1970-01-01T00:46:28.412Z</time>
</trkpt>
<trkpt lat="53.5974960" lon="-9.9138346">
	<ele>28.75</ele>
	<time>1970-01-01T00:46:29.292Z</time>
</trkpt>
<trkpt lat="53.5979538" lon="-9.9131832">
	<ele>29.58</ele>
	<time>1970-01-01T00:46:35.392Z</time>
</trkpt>
<trkpt lat="53.5981064" lon="-9.9129686">
	<ele>31.23</ele>
	<time>1970-01-01T00:46:38.002Z</time>
</trkpt>
<trkpt lat="53.5984802" lon="-9.9124956">
	<ele>32.82</ele>
	<time>1970-01-01T00:46:44.224Z</time>
</trkpt>
<trkpt lat="53.5985413" lon="-9.9123926">
	<ele>32.64</ele>
	<time>1970-01-01T00:46:45.524Z</time>
</trkpt>
<trkpt lat="53.5985909" lon="-9.9122324">
	<ele>32.51</ele>
	<time>1970-01-01T00:46:47.120Z</time>
</trkpt>
<trkpt lat="53.5986099" lon="-9.9121428">
	<ele>32.43</ele>
	<time>1970-01-01T00:46:47.982Z</time>
</trkpt>
<trkpt lat="53.5986137" lon="-9.9120350">
	<ele>32.51</ele>
	<time>1970-01-01T00:46:49.133Z</time>
</trkpt>
<trkpt lat="53.5985222" lon="-9.9115601">
	<ele>34.62</ele>
	<time>1970-01-01T00:46:54.900Z</time>
</trkpt>
<trkpt lat="53.5984573" lon="-9.9111605">
	<ele>36.41</ele>
	<time>1970-01-01T00:47:02.319Z</time>
</trkpt>
<trkpt lat="53.5984573" lon="-9.9110212">
	<ele>36.66</ele>
	<time>1970-01-01T00:47:04.675Z</time>
</trkpt>
<trkpt lat="53.5984688" lon="-9.9109049">
	<ele>36.70</ele>
	<time>1970-01-01T00:47:06.697Z</time>
</trkpt>
<trkpt lat="53.5984993" lon="-9.9107714">
	<ele>36.45</ele>
	<time>1970-01-01T00:47:08.980Z</time>
</trkpt>
<trkpt lat="53.5985146" lon="-9.9107256">
	<ele>36.27</ele>
	<time>1970-01-01T00:47:09.652Z</time>
</trkpt>
<trkpt lat="53.5987244" lon="-9.9103527">
	<ele>33.02</ele>
	<time>1970-01-01T00:47:13.490Z</time>
</trkpt>
<trkpt lat="53.5987892" lon="-9.9101658">
	<ele>32.00</ele>
	<time>1970-01-01T00:47:14.975Z</time>
</trkpt>
<trkpt lat="53.5988235" lon="-9.9099665">
	<ele>31.63</ele>
	<time>1970-01-01T00:47:16.468Z</time>
</trkpt>
<trkpt lat="53.5988541" lon="-9.9097271">
	<ele>31.53</ele>
	<time>1970-01-01T00:47:18.188Z</time>
</trkpt>
<trkpt lat="53.5988846" lon="-9.9094162">
	<ele>31.64</ele>
	<time>1970-01-01T00:47:20.488Z</time>
</trkpt>
<trkpt lat="53.5988693" lon="-9.9085627">
	<ele>33.66</ele>
	<time>1970-01-01T00:47:31.901Z</time>
</trkpt>
<trkpt lat="53.5988884" lon="-9.9083652">
	<ele>33.70</ele>
	<time>1970-01-01T00:47:34.532Z</time>
</trkpt>
<trkpt lat="53.5989456" lon="-9.9082136">
	<ele>32.90</ele>
	<time>1970-01-01T00:47:36.482Z</time>
</trkpt>
<trkpt lat="53.5990410" lon="-9.9080820">
	<ele>31.43</ele>
	<time>1970-01-01T00:47:38.048Z</time>
</trkpt>
<trkpt lat="53.5991821" lon="-9.9079237">
	<ele>29.57</ele>
	<time>1970-01-01T00:47:40.797Z</time>
</trkpt>
<trkpt lat="53.5992165" lon="-9.9078894">
	<ele>29.17</ele>
	<time>1970-01-01T00:47:41.450Z</time>
</trkpt>
<trkpt lat="53.5992432" lon="-9.9078760">
	<ele>28.81</ele>
	<time>1970-01-01T00:47:41.825Z</time>
</trkpt>
<trkpt lat="53.5993919" lon="-9.9078026">
	<ele>26.98</ele>
	<time>1970-01-01T00:47:43.500Z</time>
</trkpt>
<trkpt lat="53.5995560" lon="-9.9077396">
	<ele>25.16</ele>
	<time>1970-01-01T00:47:45.040Z</time>
</trkpt>
<trkpt lat="53.5996094" lon="-9.9076977">
	<ele>24.72</ele>
	<time>1970-01-01T00:47:45.525Z</time>
</trkpt>
<trkpt lat="53.5996475" lon="-9.9076662">
	<ele>24.42</ele>
	<time>1970-01-01T00:47:45.928Z</time>
</trkpt>
<trkpt lat="53.5997849" lon="-9.9074516">
	<ele>23.87</ele>
	<time>1970-01-01T00:47:47.608Z</time>
</trkpt>
<trkpt lat="53.5998573" lon="-9.9073086">
	<ele>23.72</ele>
	<time>1970-01-01T00:47:48.597Z</time>
</trkpt>
<trkpt lat="53.5999413" lon="-9.9070997">
	<ele>23.74</ele>
	<time>1970-01-01T00:47:50.046Z</time>
</trkpt>
<trkpt lat="53.6001320" lon="-9.9066238">
	<ele>23.27</ele>
	<time>1970-01-01T00:47:53.464Z</time>
</trkpt>
<trkpt lat="53.6002922" lon="-9.9061766">
	<ele>22.25</ele>
	<time>1970-01-01T00:47:56.397Z</time>
</trkpt>
<trkpt lat="53.6003494" lon="-9.9060192">
	<ele>21.61</ele>
	<time>1970-01-01T00:47:57.410Z</time>
</trkpt>
<trkpt lat="53.6004105" lon="-9.9057655">
	<ele>20.88</ele>
	<time>1970-01-01T00:47:58.936Z</time>
</trkpt>
<trkpt lat="53.6004715" lon="-9.9055252">
	<ele>19.90</ele>
	<time>1970-01-01T00:48:00.442Z</time>
</trkpt>
<trkpt lat="53.6005363" lon="-9.9051991">
	<ele>18.89</ele>
	<time>1970-01-01T00:48:02.656Z</time>
</trkpt>
<trkpt lat="53.6005669" lon="-9.9050579">
	<ele>18.50</ele>
	<time>1970-01-01T00:48:03.643Z</time>
</trkpt>
<trkpt lat="53.6006241" lon="-9.9047832">
	<ele>18.07</ele>
	<time>1970-01-01T00:48:05.481Z</time>
</trkpt>
<trkpt lat="53.6006737" lon="-9.9046307">
	<ele>17.74</ele>
	<time>1970-01-01T00:48:06.624Z</time>
</trkpt>
<trkpt lat="53.6007576" lon="-9.9045372">
	<ele>16.94</ele>
	<time>1970-01-01T00:48:07.720Z</time>
</trkpt>
<trkpt lat="53.6008186" lon="-9.9044924">
	<ele>16.39</ele>
	<time>1970-01-01T00:48:08.289Z</time>
</trkpt>
<trkpt lat="53.6009216" lon="-9.9044428">
	<ele>15.55</ele>
	<time>1970-01-01T00:48:09.249Z</time>
</trkpt>
<trkpt lat="53.6009369" lon="-9.9044352">
	<ele>15.44</ele>
	<time>1970-01-01T00:48:09.410Z</time>
</trkpt>
<trkpt lat="53.6013069" lon="-9.9041977">
	<ele>13.63</ele>
	<time>1970-01-01T00:48:12.930Z</time>
</trkpt>
<trkpt lat="53.6019821" lon="-9.9032011">
	<ele>13.03</ele>
	<time>1970-01-01T00:48:22.168Z</time>
</trkpt>
<trkpt lat="53.6020164" lon="-9.9031496">
	<ele>13.08</ele>
	<time>1970-01-01T00:48:22.766Z</time>
</trkpt>
<trkpt lat="53.6020737" lon="-9.9030657">
	<ele>13.21</ele>
	<time>1970-01-01T00:48:23.792Z</time>
</trkpt>
<trkpt lat="53.6021347" lon="-9.9029741">
	<ele>13.42</ele>
	<time>1970-01-01T00:48:25.037Z</time>
</trkpt>
<trkpt lat="53.6022606" lon="-9.9027901">
	<ele>14.03</ele>
	<time>1970-01-01T00:48:27.734Z</time>
</trkpt>
<trkpt lat="53.6026421" lon="-9.9018602">
	<ele>17.42</ele>
	<time>1970-01-01T00:48:39.407Z</time>
</trkpt>
<trkpt lat="53.6028938" lon="-9.9014730">
	<ele>17.28</ele>
	<time>1970-01-01T00:48:45.508Z</time>
</trkpt>
<trkpt lat="53.6032028" lon="-9.9012976">
	<ele>15.92</ele>
	<time>1970-01-01T00:48:50.034Z</time>
</trkpt>
<trkpt lat="53.6032257" lon="-9.9012833">
	<ele>15.84</ele>
	<time>1970-01-01T00:48:50.429Z</time>
</trkpt>
<trkpt lat="53.6033058" lon="-9.9011431">
	<ele>15.92</ele>
	<time>1970-01-01T00:48:52.171Z</time>
</trkpt>
<trkpt lat="53.6034431" lon="-9.9012709">
	<ele>14.76</ele>
	<time>1970-01-01T00:48:54.123Z</time>
</trkpt>
<trkpt lat="53.6036224" lon="-9.9013882">
	<ele>13.69</ele>
	<time>1970-01-01T00:48:56.190Z</time>
</trkpt>
<trkpt lat="53.6039009" lon="-9.9017143">
	<ele>12.60</ele>
	<time>1970-01-01T00:49:01.928Z</time>
</trkpt>
<trkpt lat="53.6041794" lon="-9.9020138">
	<ele>12.36</ele>
	<time>1970-01-01T00:49:07.390Z</time>
</trkpt>
<trkpt lat="53.6043205" lon="-9.9022341">
	<ele>12.20</ele>
	<time>1970-01-01T00:49:10.409Z</time>
</trkpt>
<trkpt lat="53.6046524" lon="-9.9026899">
	<ele>10.47</ele>
	<time>1970-01-01T00:49:15.906Z</time>
</trkpt>
<trkpt lat="53.6048698" lon="-9.9030142">
	<ele>9.34</ele>
	<time>1970-01-01T00:49:19.354Z</time>
</trkpt>
<trkpt lat="53.6051102" lon="-9.9032831">
	<ele>8.40</ele>
	<time>1970-01-01T00:49:22.499Z</time>
</trkpt>
<trkpt lat="53.6053505" lon="-9.9036026">
	<ele>7.53</ele>
	<time>1970-01-01T00:49:25.563Z</time>
</trkpt>
<trkpt lat="53.6054153" lon="-9.9037561">
	<ele>7.46</ele>
	<time>1970-01-01T00:49:26.855Z</time>
</trkpt>
<trkpt lat="53.6054573" lon="-9.9039888">
	<ele>7.60</ele>
	<time>1970-01-01T00:49:28.534Z</time>
</trkpt>
<trkpt lat="53.6054916" lon="-9.9040899">
	<ele>7.60</ele>
	<time>1970-01-01T00:49:29.372Z</time>
</trkpt>
<trkpt lat="53.6058083" lon="-9.9044981">
	<ele>7.63</ele>
	<time>1970-01-01T00:49:34.606Z</time>
</trkpt>
<trkpt lat="53.6060982" lon="-9.9049530">
	<ele>8.32</ele>
	<time>1970-01-01T00:49:41.759Z</time>
</trkpt>
<trkpt lat="53.6061668" lon="-9.9050922">
	<ele>8.35</ele>
	<time>1970-01-01T00:49:43.604Z</time>
</trkpt>
<trkpt lat="53.6062584" lon="-9.9051886">
	<ele>8.33</ele>
	<time>1970-01-01T00:49:45.357Z</time>
</trkpt>
<trkpt lat="53.6063728" lon="-9.9053392">
	<ele>8.08</ele>
	<time>1970-01-01T00:49:47.375Z</time>
</trkpt>
</trkseg>
</trk>
</gpx>
