<?xml version="1.0" encoding="utf-8" standalone="yes"?>
<gpx version="1.1" creator="Locus Map, Android"
 xmlns="http://www.topografix.com/GPX/1/1"
 xmlns:xsi="http://www.w3.org/2001/XMLSchema-instance"
 xsi:schemaLocation="http://www.topografix.com/GPX/1/1 http://www.topografix.com/GPX/1/1/gpx.xsd"
 xmlns:gpxx="http://www.garmin.com/xmlschemas/GpxExtensions/v3"
 xmlns:gpxtrkx="http://www.garmin.com/xmlschemas/TrackStatsExtension/v1"
 xmlns:gpxtpx="http://www.garmin.com/xmlschemas/TrackPointExtension/v2"
 xmlns:locus="https://www.locusmap.app">
	<metadata>
		<desc>File with points/tracks from Locus Map/4.35.0</desc>
		<time>2026-08-05T10:39:33.099Z</time>
	</metadata>
<trk>
	<name>IE_13</name>
	<extensions>
		<line xmlns="http://www.topografix.com/GPX/gpx_style/0/2">
			<color>D700D7</color>
			<opacity>0.59</opacity>
			<width>6.0</width>
			<extensions>
				<locus:lsColorBase>#96D700D7</locus:lsColorBase>
				<locus:lsWidth>6.0</locus:lsWidth>
				<locus:lsUnits>PIXELS</locus:lsUnits>
			</extensions>
		</line>
		<locus:activity>cycling</locus:activity>
		<locus:rteComputeType>103</locus:rteComputeType>
	</extensions>
<trkseg>
<trkpt lat="51.9019623" lon="-8.4591551">
	<ele>11.18</ele>
	<time>1970-01-01T00:00:00.000Z</time>
</trkpt>
<trkpt lat="51.9019890" lon="-8.4591274">
	<ele>11.37</ele>
	<time>1970-01-01T00:00:00.715Z</time>
</trkpt>
<trkpt lat="51.9020500" lon="-8.4590664">
	<ele>11.84</ele>
	<time>1970-01-01T00:00:02.347Z</time>
</trkpt>
<trkpt lat="51.9021034" lon="-8.4590597">
	<ele>12.35</ele>
	<time>1970-01-01T00:00:03.829Z</time>
</trkpt>
<trkpt lat="51.9021034" lon="-8.4590483">
	<ele>12.33</ele>
	<time>1970-01-01T00:00:04.073Z</time>
</trkpt>
<trkpt lat="51.9021034" lon="-8.4590054">
	<ele>12.26</ele>
	<time>1970-01-01T00:00:04.751Z</time>
</trkpt>
<trkpt lat="51.9022484" lon="-8.4589844">
	<ele>13.82</ele>
	<time>1970-01-01T00:00:09.844Z</time>
</trkpt>
<trkpt lat="51.9022636" lon="-8.4589844">
	<ele>14.01</ele>
	<time>1970-01-01T00:00:10.487Z</time>
</trkpt>
<trkpt lat="51.9023285" lon="-8.4589891">
	<ele>14.87</ele>
	<time>1970-01-01T00:00:11.697Z</time>
</trkpt>
<trkpt lat="51.9022903" lon="-8.4590759">
	<ele>14.54</ele>
	<time>1970-01-01T00:00:14.152Z</time>
</trkpt>
<trkpt lat="51.9022865" lon="-8.4597673">
	<ele>15.85</ele>
	<time>1970-01-01T00:00:24.010Z</time>
</trkpt>
<trkpt lat="51.9022675" lon="-8.4599323">
	<ele>15.89</ele>
	<time>1970-01-01T00:00:26.340Z</time>
</trkpt>
<trkpt lat="51.9022713" lon="-8.4599657">
	<ele>16.01</ele>
	<time>1970-01-01T00:00:26.725Z</time>
</trkpt>
<trkpt lat="51.9022484" lon="-8.4601107">
	<ele>15.96</ele>
	<time>1970-01-01T00:00:28.631Z</time>
</trkpt>
<trkpt lat="51.9022102" lon="-8.4602861">
	<ele>15.76</ele>
	<time>1970-01-01T00:00:30.919Z</time>
</trkpt>
<trkpt lat="51.9021416" lon="-8.4605837">
	<ele>15.39</ele>
	<time>1970-01-01T00:00:37.993Z</time>
</trkpt>
<trkpt lat="51.9021263" lon="-8.4606056">
	<ele>15.22</ele>
	<time>1970-01-01T00:00:38.557Z</time>
</trkpt>
<trkpt lat="51.9021072" lon="-8.4606867">
	<ele>15.10</ele>
	<time>1970-01-01T00:00:40.111Z</time>
</trkpt>
<trkpt lat="51.9020882" lon="-8.4607620">
	<ele>14.96</ele>
	<time>1970-01-01T00:00:41.528Z</time>
</trkpt>
<trkpt lat="51.9020844" lon="-8.4607916">
	<ele>14.96</ele>
	<time>1970-01-01T00:00:41.994Z</time>
</trkpt>
<trkpt lat="51.9017258" lon="-8.4621410">
	<ele>10.26</ele>
	<time>1970-01-01T00:00:57.311Z</time>
</trkpt>
<trkpt lat="51.9017067" lon="-8.4622030">
	<ele>10.12</ele>
	<time>1970-01-01T00:00:58.053Z</time>
</trkpt>
<trkpt lat="51.9016876" lon="-8.4622793">
	<ele>10.00</ele>
	<time>1970-01-01T00:00:58.897Z</time>
</trkpt>
<trkpt lat="51.9016304" lon="-8.4623890">
	<ele>9.51</ele>
	<time>1970-01-01T00:01:00.170Z</time>
</trkpt>
<trkpt lat="51.9015274" lon="-8.4627466">
	<ele>8.84</ele>
	<time>1970-01-01T00:01:03.944Z</time>
</trkpt>
<trkpt lat="51.9014397" lon="-8.4635029">
	<ele>9.05</ele>
	<time>1970-01-01T00:01:12.611Z</time>
</trkpt>
<trkpt lat="51.9014130" lon="-8.4637690">
	<ele>9.63</ele>
	<time>1970-01-01T00:01:15.573Z</time>
</trkpt>
<trkpt lat="51.9014053" lon="-8.4638433">
	<ele>9.79</ele>
	<time>1970-01-01T00:01:16.398Z</time>
</trkpt>
<trkpt lat="51.9013901" lon="-8.4638891">
	<ele>9.86</ele>
	<time>1970-01-01T00:01:17.016Z</time>
</trkpt>
<trkpt lat="51.9013863" lon="-8.4639139">
	<ele>9.90</ele>
	<time>1970-01-01T00:01:17.326Z</time>
</trkpt>
<trkpt lat="51.9013824" lon="-8.4639816">
	<ele>10.01</ele>
	<time>1970-01-01T00:01:18.102Z</time>
</trkpt>
<trkpt lat="51.9013786" lon="-8.4640484">
	<ele>10.09</ele>
	<time>1970-01-01T00:01:18.882Z</time>
</trkpt>
<trkpt lat="51.9013786" lon="-8.4640827">
	<ele>10.13</ele>
	<time>1970-01-01T00:01:19.194Z</time>
</trkpt>
<trkpt lat="51.9013252" lon="-8.4641056">
	<ele>10.04</ele>
	<time>1970-01-01T00:01:20.077Z</time>
</trkpt>
<trkpt lat="51.9012947" lon="-8.4641199">
	<ele>9.99</ele>
	<time>1970-01-01T00:01:20.634Z</time>
</trkpt>
<trkpt lat="51.9012756" lon="-8.4641256">
	<ele>9.97</ele>
	<time>1970-01-01T00:01:20.914Z</time>
</trkpt>
<trkpt lat="51.9012604" lon="-8.4641304">
	<ele>9.95</ele>
	<time>1970-01-01T00:01:21.195Z</time>
</trkpt>
<trkpt lat="51.9012413" lon="-8.4641323">
	<ele>9.93</ele>
	<time>1970-01-01T00:01:21.461Z</time>
</trkpt>
<trkpt lat="51.9012375" lon="-8.4642143">
	<ele>9.90</ele>
	<time>1970-01-01T00:01:22.265Z</time>
</trkpt>
<trkpt lat="51.9012375" lon="-8.4642429">
	<ele>9.88</ele>
	<time>1970-01-01T00:01:22.535Z</time>
</trkpt>
<trkpt lat="51.9012451" lon="-8.4644861">
	<ele>9.51</ele>
	<time>1970-01-01T00:01:24.872Z</time>
</trkpt>
<trkpt lat="51.9012527" lon="-8.4646816">
	<ele>9.11</ele>
	<time>1970-01-01T00:01:26.816Z</time>
</trkpt>
<trkpt lat="51.9012642" lon="-8.4651470">
	<ele>8.79</ele>
	<time>1970-01-01T00:01:31.989Z</time>
</trkpt>
<trkpt lat="51.9012604" lon="-8.4652071">
	<ele>8.80</ele>
	<time>1970-01-01T00:01:32.363Z</time>
</trkpt>
<trkpt lat="51.9012527" lon="-8.4652910">
	<ele>8.84</ele>
	<time>1970-01-01T00:01:32.935Z</time>
</trkpt>
<trkpt lat="51.9012527" lon="-8.4653368">
	<ele>8.89</ele>
	<time>1970-01-01T00:01:33.238Z</time>
</trkpt>
<trkpt lat="51.9012375" lon="-8.4653587">
	<ele>8.84</ele>
	<time>1970-01-01T00:01:33.442Z</time>
</trkpt>
<trkpt lat="51.9012413" lon="-8.4653730">
	<ele>8.87</ele>
	<time>1970-01-01T00:01:33.544Z</time>
</trkpt>
<trkpt lat="51.9012527" lon="-8.4655018">
	<ele>9.11</ele>
	<time>1970-01-01T00:01:34.525Z</time>
</trkpt>
<trkpt lat="51.9012375" lon="-8.4655066">
	<ele>9.05</ele>
	<time>1970-01-01T00:01:34.748Z</time>
</trkpt>
<trkpt lat="51.9010277" lon="-8.4655247">
	<ele>8.18</ele>
	<time>1970-01-01T00:01:36.936Z</time>
</trkpt>
<trkpt lat="51.9008713" lon="-8.4655428">
	<ele>7.56</ele>
	<time>1970-01-01T00:01:39.849Z</time>
</trkpt>
<trkpt lat="51.9006958" lon="-8.4655638">
	<ele>6.77</ele>
	<time>1970-01-01T00:01:42.588Z</time>
</trkpt>
<trkpt lat="51.9006577" lon="-8.4655704">
	<ele>6.61</ele>
	<time>1970-01-01T00:01:43.117Z</time>
</trkpt>
<trkpt lat="51.9006119" lon="-8.4655781">
	<ele>6.41</ele>
	<time>1970-01-01T00:01:43.783Z</time>
</trkpt>
<trkpt lat="51.9005432" lon="-8.4655809">
	<ele>6.12</ele>
	<time>1970-01-01T00:01:44.806Z</time>
</trkpt>
<trkpt lat="51.9005280" lon="-8.4657192">
	<ele>6.33</ele>
	<time>1970-01-01T00:01:46.186Z</time>
</trkpt>
<trkpt lat="51.9005318" lon="-8.4657536">
	<ele>6.42</ele>
	<time>1970-01-01T00:01:46.464Z</time>
</trkpt>
<trkpt lat="51.9006462" lon="-8.4665451">
	<ele>9.74</ele>
	<time>1970-01-01T00:01:53.574Z</time>
</trkpt>
<trkpt lat="51.9006348" lon="-8.4666681">
	<ele>9.98</ele>
	<time>1970-01-01T00:01:54.876Z</time>
</trkpt>
<trkpt lat="51.9006805" lon="-8.4673586">
	<ele>10.52</ele>
	<time>1970-01-01T00:02:01.709Z</time>
</trkpt>
<trkpt lat="51.9006844" lon="-8.4673958">
	<ele>10.52</ele>
	<time>1970-01-01T00:02:02.152Z</time>
</trkpt>
<trkpt lat="51.9006920" lon="-8.4674959">
	<ele>10.52</ele>
	<time>1970-01-01T00:02:03.191Z</time>
</trkpt>
<trkpt lat="51.9006996" lon="-8.4675884">
	<ele>10.52</ele>
	<time>1970-01-01T00:02:04.088Z</time>
</trkpt>
<trkpt lat="51.9006996" lon="-8.4676056">
	<ele>10.51</ele>
	<time>1970-01-01T00:02:04.238Z</time>
</trkpt>
<trkpt lat="51.9007492" lon="-8.4682779">
	<ele>9.98</ele>
	<time>1970-01-01T00:02:11.833Z</time>
</trkpt>
<trkpt lat="51.9007797" lon="-8.4683514">
	<ele>9.88</ele>
	<time>1970-01-01T00:02:12.811Z</time>
</trkpt>
<trkpt lat="51.9009094" lon="-8.4696074">
	<ele>7.43</ele>
	<time>1970-01-01T00:02:23.327Z</time>
</trkpt>
<trkpt lat="51.9009399" lon="-8.4700747">
	<ele>7.35</ele>
	<time>1970-01-01T00:02:27.531Z</time>
</trkpt>
<trkpt lat="51.9009323" lon="-8.4701357">
	<ele>7.41</ele>
	<time>1970-01-01T00:02:28.076Z</time>
</trkpt>
<trkpt lat="51.9009438" lon="-8.4702978">
	<ele>7.79</ele>
	<time>1970-01-01T00:02:29.597Z</time>
</trkpt>
<trkpt lat="51.9009552" lon="-8.4704628">
	<ele>8.24</ele>
	<time>1970-01-01T00:02:31.240Z</time>
</trkpt>
<trkpt lat="51.9009552" lon="-8.4704819">
	<ele>8.28</ele>
	<time>1970-01-01T00:02:31.390Z</time>
</trkpt>
<trkpt lat="51.9009552" lon="-8.4705286">
	<ele>8.40</ele>
	<time>1970-01-01T00:02:31.842Z</time>
</trkpt>
<trkpt lat="51.9010086" lon="-8.4720926">
	<ele>6.59</ele>
	<time>1970-01-01T00:02:46.928Z</time>
</trkpt>
<trkpt lat="51.9010086" lon="-8.4721928">
	<ele>6.29</ele>
	<time>1970-01-01T00:02:47.987Z</time>
</trkpt>
<trkpt lat="51.9010124" lon="-8.4722738">
	<ele>6.08</ele>
	<time>1970-01-01T00:02:48.901Z</time>
</trkpt>
<trkpt lat="51.9010124" lon="-8.4722795">
	<ele>6.07</ele>
	<time>1970-01-01T00:02:49.054Z</time>
</trkpt>
<trkpt lat="51.9010162" lon="-8.4723988">
	<ele>5.86</ele>
	<time>1970-01-01T00:02:50.208Z</time>
</trkpt>
<trkpt lat="51.9010239" lon="-8.4725504">
	<ele>5.82</ele>
	<time>1970-01-01T00:02:51.668Z</time>
</trkpt>
<trkpt lat="51.9009895" lon="-8.4725494">
	<ele>5.84</ele>
	<time>1970-01-01T00:02:52.257Z</time>
</trkpt>
<trkpt lat="51.9009323" lon="-8.4725475">
	<ele>5.88</ele>
	<time>1970-01-01T00:02:53.146Z</time>
</trkpt>
<trkpt lat="51.9005623" lon="-8.4725428">
	<ele>6.87</ele>
	<time>1970-01-01T00:02:59.369Z</time>
</trkpt>
<trkpt lat="51.9005394" lon="-8.4725437">
	<ele>6.96</ele>
	<time>1970-01-01T00:02:59.899Z</time>
</trkpt>
<trkpt lat="51.9004555" lon="-8.4725399">
	<ele>7.33</ele>
	<time>1970-01-01T00:03:01.594Z</time>
</trkpt>
<trkpt lat="51.9004745" lon="-8.4727840">
	<ele>7.55</ele>
	<time>1970-01-01T00:03:04.748Z</time>
</trkpt>
<trkpt lat="51.9004822" lon="-8.4728308">
	<ele>7.62</ele>
	<time>1970-01-01T00:03:05.299Z</time>
</trkpt>
<trkpt lat="51.9005089" lon="-8.4735537">
	<ele>8.25</ele>
	<time>1970-01-01T00:03:13.811Z</time>
</trkpt>
<trkpt lat="51.9004517" lon="-8.4735641">
	<ele>8.31</ele>
	<time>1970-01-01T00:03:14.997Z</time>
</trkpt>
<trkpt lat="51.8997307" lon="-8.4736567">
	<ele>8.68</ele>
	<time>1970-01-01T00:03:31.365Z</time>
</trkpt>
<trkpt lat="51.8995628" lon="-8.4736490">
	<ele>8.64</ele>
	<time>1970-01-01T00:03:34.720Z</time>
</trkpt>
<trkpt lat="51.8995476" lon="-8.4737005">
	<ele>8.71</ele>
	<time>1970-01-01T00:03:35.422Z</time>
</trkpt>
<trkpt lat="51.8994522" lon="-8.4740114">
	<ele>9.34</ele>
	<time>1970-01-01T00:03:39.876Z</time>
</trkpt>
<trkpt lat="51.8992386" lon="-8.4738216">
	<ele>9.18</ele>
	<time>1970-01-01T00:03:44.769Z</time>
</trkpt>
<trkpt lat="51.8987465" lon="-8.4733868">
	<ele>8.96</ele>
	<time>1970-01-01T00:03:56.256Z</time>
</trkpt>
<trkpt lat="51.8985100" lon="-8.4731770">
	<ele>9.71</ele>
	<time>1970-01-01T00:04:02.293Z</time>
</trkpt>
<trkpt lat="51.8983879" lon="-8.4730711">
	<ele>10.00</ele>
	<time>1970-01-01T00:04:05.396Z</time>
</trkpt>
<trkpt lat="51.8984299" lon="-8.4728460">
	<ele>9.92</ele>
	<time>1970-01-01T00:04:08.605Z</time>
</trkpt>
<trkpt lat="51.8983917" lon="-8.4728336">
	<ele>9.98</ele>
	<time>1970-01-01T00:04:09.589Z</time>
</trkpt>
<trkpt lat="51.8983383" lon="-8.4728098">
	<ele>10.04</ele>
	<time>1970-01-01T00:04:10.760Z</time>
</trkpt>
<trkpt lat="51.8983040" lon="-8.4727983">
	<ele>10.07</ele>
	<time>1970-01-01T00:04:11.590Z</time>
</trkpt>
<trkpt lat="51.8982811" lon="-8.4727888">
	<ele>10.08</ele>
	<time>1970-01-01T00:04:12.208Z</time>
</trkpt>
<trkpt lat="51.8982620" lon="-8.4729443">
	<ele>10.13</ele>
	<time>1970-01-01T00:04:14.442Z</time>
</trkpt>
<trkpt lat="51.8982391" lon="-8.4729347">
	<ele>10.15</ele>
	<time>1970-01-01T00:04:14.843Z</time>
</trkpt>
<trkpt lat="51.8982048" lon="-8.4729156">
	<ele>10.17</ele>
	<time>1970-01-01T00:04:15.641Z</time>
</trkpt>
<trkpt lat="51.8975945" lon="-8.4726057">
	<ele>10.10</ele>
	<time>1970-01-01T00:04:29.063Z</time>
</trkpt>
<trkpt lat="51.8975601" lon="-8.4725876">
	<ele>10.07</ele>
	<time>1970-01-01T00:04:29.789Z</time>
</trkpt>
<trkpt lat="51.8975296" lon="-8.4725733">
	<ele>10.05</ele>
	<time>1970-01-01T00:04:30.332Z</time>
</trkpt>
<trkpt lat="51.8970184" lon="-8.4723091">
	<ele>9.42</ele>
	<time>1970-01-01T00:04:40.428Z</time>
</trkpt>
<trkpt lat="51.8966713" lon="-8.4721317">
	<ele>8.94</ele>
	<time>1970-01-01T00:04:46.939Z</time>
</trkpt>
<trkpt lat="51.8966484" lon="-8.4721203">
	<ele>8.90</ele>
	<time>1970-01-01T00:04:47.239Z</time>
</trkpt>
<trkpt lat="51.8966293" lon="-8.4721098">
	<ele>8.87</ele>
	<time>1970-01-01T00:04:47.541Z</time>
</trkpt>
<trkpt lat="51.8965645" lon="-8.4720736">
	<ele>8.76</ele>
	<time>1970-01-01T00:04:48.680Z</time>
</trkpt>
<trkpt lat="51.8967361" lon="-8.4713106">
	<ele>9.17</ele>
	<time>1970-01-01T00:04:56.249Z</time>
</trkpt>
<trkpt lat="51.8968315" lon="-8.4708977">
	<ele>9.18</ele>
	<time>1970-01-01T00:05:00.381Z</time>
</trkpt>
<trkpt lat="51.8967667" lon="-8.4708624">
	<ele>9.12</ele>
	<time>1970-01-01T00:05:01.455Z</time>
</trkpt>
<trkpt lat="51.8967819" lon="-8.4708004">
	<ele>9.05</ele>
	<time>1970-01-01T00:05:02.098Z</time>
</trkpt>
<trkpt lat="51.8969193" lon="-8.4702339">
	<ele>7.49</ele>
	<time>1970-01-01T00:05:08.742Z</time>
</trkpt>
<trkpt lat="51.8969383" lon="-8.4701777">
	<ele>7.36</ele>
	<time>1970-01-01T00:05:09.382Z</time>
</trkpt>
<trkpt lat="51.8969994" lon="-8.4700279">
	<ele>7.10</ele>
	<time>1970-01-01T00:05:11.193Z</time>
</trkpt>
<trkpt lat="51.8970985" lon="-8.4695978">
	<ele>7.00</ele>
	<time>1970-01-01T00:05:16.117Z</time>
</trkpt>
<trkpt lat="51.8971291" lon="-8.4694767">
	<ele>7.02</ele>
	<time>1970-01-01T00:05:17.439Z</time>
</trkpt>
<trkpt lat="51.8971443" lon="-8.4692764">
	<ele>6.94</ele>
	<time>1970-01-01T00:05:19.524Z</time>
</trkpt>
<trkpt lat="51.8971977" lon="-8.4690056">
	<ele>6.49</ele>
	<time>1970-01-01T00:05:22.234Z</time>
</trkpt>
<trkpt lat="51.8972397" lon="-8.4687967">
	<ele>5.78</ele>
	<time>1970-01-01T00:05:24.220Z</time>
</trkpt>
<trkpt lat="51.8973045" lon="-8.4685078">
	<ele>4.66</ele>
	<time>1970-01-01T00:05:26.701Z</time>
</trkpt>
<trkpt lat="51.8974304" lon="-8.4679775">
	<ele>4.60</ele>
	<time>1970-01-01T00:05:31.267Z</time>
</trkpt>
<trkpt lat="51.8974457" lon="-8.4679251">
	<ele>4.76</ele>
	<time>1970-01-01T00:05:31.765Z</time>
</trkpt>
<trkpt lat="51.8975449" lon="-8.4675913">
	<ele>5.93</ele>
	<time>1970-01-01T00:05:35.123Z</time>
</trkpt>
<trkpt lat="51.8976898" lon="-8.4670506">
	<ele>6.57</ele>
	<time>1970-01-01T00:05:42.124Z</time>
</trkpt>
<trkpt lat="51.8977013" lon="-8.4669857">
	<ele>6.56</ele>
	<time>1970-01-01T00:05:42.974Z</time>
</trkpt>
<trkpt lat="51.8976898" lon="-8.4669771">
	<ele>6.52</ele>
	<time>1970-01-01T00:05:43.144Z</time>
</trkpt>
<trkpt lat="51.8972855" lon="-8.4666700">
	<ele>6.12</ele>
	<time>1970-01-01T00:05:52.080Z</time>
</trkpt>
<trkpt lat="51.8972435" lon="-8.4666443">
	<ele>6.19</ele>
	<time>1970-01-01T00:05:52.959Z</time>
</trkpt>
<trkpt lat="51.8972511" lon="-8.4666271">
	<ele>6.18</ele>
	<time>1970-01-01T00:05:53.134Z</time>
</trkpt>
<trkpt lat="51.8972588" lon="-8.4666014">
	<ele>6.17</ele>
	<time>1970-01-01T00:05:53.485Z</time>
</trkpt>
<trkpt lat="51.8972702" lon="-8.4665632">
	<ele>6.16</ele>
	<time>1970-01-01T00:05:54.010Z</time>
</trkpt>
<trkpt lat="51.8972778" lon="-8.4665461">
	<ele>6.15</ele>
	<time>1970-01-01T00:05:54.185Z</time>
</trkpt>
<trkpt lat="51.8972969" lon="-8.4664993">
	<ele>6.12</ele>
	<time>1970-01-01T00:05:54.839Z</time>
</trkpt>
<trkpt lat="51.8973579" lon="-8.4664011">
	<ele>6.05</ele>
	<time>1970-01-01T00:05:56.476Z</time>
</trkpt>
<trkpt lat="51.8973846" lon="-8.4663401">
	<ele>6.03</ele>
	<time>1970-01-01T00:05:57.296Z</time>
</trkpt>
<trkpt lat="51.8973961" lon="-8.4663191">
	<ele>6.02</ele>
	<time>1970-01-01T00:05:57.624Z</time>
</trkpt>
<trkpt lat="51.8974075" lon="-8.4662066">
	<ele>6.01</ele>
	<time>1970-01-01T00:05:58.937Z</time>
</trkpt>
<trkpt lat="51.8974266" lon="-8.4661274">
	<ele>6.01</ele>
	<time>1970-01-01T00:05:59.924Z</time>
</trkpt>
<trkpt lat="51.8974648" lon="-8.4660082">
	<ele>6.00</ele>
	<time>1970-01-01T00:06:01.405Z</time>
</trkpt>
<trkpt lat="51.8974304" lon="-8.4658766">
	<ele>6.02</ele>
	<time>1970-01-01T00:06:03.053Z</time>
</trkpt>
<trkpt lat="51.8976250" lon="-8.4650936">
	<ele>5.74</ele>
	<time>1970-01-01T00:06:12.174Z</time>
</trkpt>
<trkpt lat="51.8976517" lon="-8.4649839">
	<ele>5.72</ele>
	<time>1970-01-01T00:06:13.454Z</time>
</trkpt>
<trkpt lat="51.8976669" lon="-8.4649162">
	<ele>5.73</ele>
	<time>1970-01-01T00:06:14.257Z</time>
</trkpt>
<trkpt lat="51.8976974" lon="-8.4647913">
	<ele>5.79</ele>
	<time>1970-01-01T00:06:15.705Z</time>
</trkpt>
<trkpt lat="51.8977013" lon="-8.4647808">
	<ele>5.80</ele>
	<time>1970-01-01T00:06:15.866Z</time>
</trkpt>
<trkpt lat="51.8977051" lon="-8.4647608">
	<ele>5.82</ele>
	<time>1970-01-01T00:06:16.027Z</time>
</trkpt>
<trkpt lat="51.8977089" lon="-8.4647465">
	<ele>5.83</ele>
	<time>1970-01-01T00:06:16.178Z</time>
</trkpt>
<trkpt lat="51.8977966" lon="-8.4644146">
	<ele>6.09</ele>
	<time>1970-01-01T00:06:20.001Z</time>
</trkpt>
<trkpt lat="51.8978081" lon="-8.4643650">
	<ele>6.12</ele>
	<time>1970-01-01T00:06:20.620Z</time>
</trkpt>
<trkpt lat="51.8978195" lon="-8.4643202">
	<ele>6.14</ele>
	<time>1970-01-01T00:06:21.085Z</time>
</trkpt>
<trkpt lat="51.8978386" lon="-8.4642525">
	<ele>6.14</ele>
	<time>1970-01-01T00:06:21.863Z</time>
</trkpt>
<trkpt lat="51.8978577" lon="-8.4641848">
	<ele>6.12</ele>
	<time>1970-01-01T00:06:22.643Z</time>
</trkpt>
<trkpt lat="51.8978729" lon="-8.4641228">
	<ele>6.08</ele>
	<time>1970-01-01T00:06:23.426Z</time>
</trkpt>
<trkpt lat="51.8980064" lon="-8.4636250">
	<ele>5.35</ele>
	<time>1970-01-01T00:06:28.980Z</time>
</trkpt>
<trkpt lat="51.8980179" lon="-8.4635878">
	<ele>5.27</ele>
	<time>1970-01-01T00:06:29.411Z</time>
</trkpt>
<trkpt lat="51.8980255" lon="-8.4635620">
	<ele>5.21</ele>
	<time>1970-01-01T00:06:29.699Z</time>
</trkpt>
<trkpt lat="51.8980293" lon="-8.4635429">
	<ele>5.17</ele>
	<time>1970-01-01T00:06:29.844Z</time>
</trkpt>
<trkpt lat="51.8980331" lon="-8.4635239">
	<ele>5.13</ele>
	<time>1970-01-01T00:06:29.989Z</time>
</trkpt>
<trkpt lat="51.8980522" lon="-8.4634266">
	<ele>4.92</ele>
	<time>1970-01-01T00:06:31.007Z</time>
</trkpt>
<trkpt lat="51.8980827" lon="-8.4632730">
	<ele>4.56</ele>
	<time>1970-01-01T00:06:32.535Z</time>
</trkpt>
<trkpt lat="51.8981094" lon="-8.4631271">
	<ele>4.10</ele>
	<time>1970-01-01T00:06:33.948Z</time>
</trkpt>
<trkpt lat="51.8981171" lon="-8.4630690">
	<ele>3.90</ele>
	<time>1970-01-01T00:06:34.519Z</time>
</trkpt>
<trkpt lat="51.8981209" lon="-8.4630327">
	<ele>3.78</ele>
	<time>1970-01-01T00:06:34.950Z</time>
</trkpt>
<trkpt lat="51.8981247" lon="-8.4630060">
	<ele>3.68</ele>
	<time>1970-01-01T00:06:35.238Z</time>
</trkpt>
<trkpt lat="51.8981323" lon="-8.4629431">
	<ele>3.47</ele>
	<time>1970-01-01T00:06:35.783Z</time>
</trkpt>
<trkpt lat="51.8981400" lon="-8.4628973">
	<ele>3.30</ele>
	<time>1970-01-01T00:06:36.195Z</time>
</trkpt>
<trkpt lat="51.8981400" lon="-8.4628973">
	<ele>3.30</ele>
	<time>1970-01-01T00:06:44.631Z</time>
</trkpt>
<trkpt lat="51.8981628" lon="-8.4627399">
	<ele>2.79</ele>
	<time>1970-01-01T00:06:46.469Z</time>
</trkpt>
<trkpt lat="51.8981705" lon="-8.4626913">
	<ele>2.66</ele>
	<time>1970-01-01T00:06:46.970Z</time>
</trkpt>
<trkpt lat="51.8981895" lon="-8.4625444">
	<ele>2.41</ele>
	<time>1970-01-01T00:06:48.641Z</time>
</trkpt>
<trkpt lat="51.8982124" lon="-8.4624014">
	<ele>2.38</ele>
	<time>1970-01-01T00:06:50.209Z</time>
</trkpt>
<trkpt lat="51.8982162" lon="-8.4623728">
	<ele>2.41</ele>
	<time>1970-01-01T00:06:50.524Z</time>
</trkpt>
<trkpt lat="51.8982277" lon="-8.4623022">
	<ele>2.51</ele>
	<time>1970-01-01T00:06:51.312Z</time>
</trkpt>
<trkpt lat="51.8983040" lon="-8.4617901">
	<ele>3.84</ele>
	<time>1970-01-01T00:06:56.742Z</time>
</trkpt>
<trkpt lat="51.8983078" lon="-8.4617558">
	<ele>3.91</ele>
	<time>1970-01-01T00:06:57.049Z</time>
</trkpt>
<trkpt lat="51.8983192" lon="-8.4617004">
	<ele>3.99</ele>
	<time>1970-01-01T00:06:57.664Z</time>
</trkpt>
<trkpt lat="51.8983574" lon="-8.4614592">
	<ele>4.06</ele>
	<time>1970-01-01T00:07:00.150Z</time>
</trkpt>
<trkpt lat="51.8983727" lon="-8.4613428">
	<ele>3.99</ele>
	<time>1970-01-01T00:07:01.338Z</time>
</trkpt>
<trkpt lat="51.8983917" lon="-8.4611988">
	<ele>3.88</ele>
	<time>1970-01-01T00:07:02.837Z</time>
</trkpt>
<trkpt lat="51.8983955" lon="-8.4611359">
	<ele>3.84</ele>
	<time>1970-01-01T00:07:03.441Z</time>
</trkpt>
<trkpt lat="51.8983841" lon="-8.4610500">
	<ele>3.84</ele>
	<time>1970-01-01T00:07:04.352Z</time>
</trkpt>
<trkpt lat="51.8983765" lon="-8.4609966">
	<ele>3.85</ele>
	<time>1970-01-01T00:07:04.962Z</time>
</trkpt>
<trkpt lat="51.8983421" lon="-8.4609108">
	<ele>3.95</ele>
	<time>1970-01-01T00:07:06.034Z</time>
</trkpt>
<trkpt lat="51.8982811" lon="-8.4607944">
	<ele>4.14</ele>
	<time>1970-01-01T00:07:07.677Z</time>
</trkpt>
<trkpt lat="51.8982162" lon="-8.4606810">
	<ele>4.33</ele>
	<time>1970-01-01T00:07:09.608Z</time>
</trkpt>
<trkpt lat="51.8977318" lon="-8.4598446">
	<ele>6.30</ele>
	<time>1970-01-01T00:07:27.883Z</time>
</trkpt>
<trkpt lat="51.8976669" lon="-8.4597111">
	<ele>6.55</ele>
	<time>1970-01-01T00:07:30.502Z</time>
</trkpt>
<trkpt lat="51.8976402" lon="-8.4596663">
	<ele>6.60</ele>
	<time>1970-01-01T00:07:31.419Z</time>
</trkpt>
<trkpt lat="51.8976517" lon="-8.4595108">
	<ele>6.95</ele>
	<time>1970-01-01T00:07:34.053Z</time>
</trkpt>
<trkpt lat="51.8974037" lon="-8.4590769">
	<ele>6.80</ele>
	<time>1970-01-01T00:07:43.649Z</time>
</trkpt>
<trkpt lat="51.8973694" lon="-8.4590330">
	<ele>6.76</ele>
	<time>1970-01-01T00:07:44.739Z</time>
</trkpt>
<trkpt lat="51.8973503" lon="-8.4590082">
	<ele>6.73</ele>
	<time>1970-01-01T00:07:45.386Z</time>
</trkpt>
<trkpt lat="51.8972588" lon="-8.4589968">
	<ele>6.31</ele>
	<time>1970-01-01T00:07:47.369Z</time>
</trkpt>
<trkpt lat="51.8972015" lon="-8.4588881">
	<ele>6.28</ele>
	<time>1970-01-01T00:07:49.192Z</time>
</trkpt>
<trkpt lat="51.8971863" lon="-8.4588594">
	<ele>6.26</ele>
	<time>1970-01-01T00:07:49.737Z</time>
</trkpt>
<trkpt lat="51.8971786" lon="-8.4588394">
	<ele>6.27</ele>
	<time>1970-01-01T00:07:50.098Z</time>
</trkpt>
<trkpt lat="51.8971443" lon="-8.4587736">
	<ele>6.23</ele>
	<time>1970-01-01T00:07:51.111Z</time>
</trkpt>
<trkpt lat="51.8971062" lon="-8.4587326">
	<ele>6.09</ele>
	<time>1970-01-01T00:07:51.954Z</time>
</trkpt>
<trkpt lat="51.8971214" lon="-8.4586697">
	<ele>6.32</ele>
	<time>1970-01-01T00:07:52.796Z</time>
</trkpt>
<trkpt lat="51.8971214" lon="-8.4586029">
	<ele>6.45</ele>
	<time>1970-01-01T00:07:53.639Z</time>
</trkpt>
<trkpt lat="51.8971062" lon="-8.4585400">
	<ele>6.45</ele>
	<time>1970-01-01T00:07:54.481Z</time>
</trkpt>
<trkpt lat="51.8971214" lon="-8.4583769">
	<ele>6.71</ele>
	<time>1970-01-01T00:07:56.332Z</time>
</trkpt>
<trkpt lat="51.8971252" lon="-8.4581957">
	<ele>6.65</ele>
	<time>1970-01-01T00:07:58.350Z</time>
</trkpt>
<trkpt lat="51.8971329" lon="-8.4581575">
	<ele>6.66</ele>
	<time>1970-01-01T00:07:58.854Z</time>
</trkpt>
<trkpt lat="51.8971367" lon="-8.4581118">
	<ele>6.61</ele>
	<time>1970-01-01T00:07:59.326Z</time>
</trkpt>
<trkpt lat="51.8971405" lon="-8.4580746">
	<ele>6.57</ele>
	<time>1970-01-01T00:07:59.799Z</time>
</trkpt>
<trkpt lat="51.8971443" lon="-8.4580183">
	<ele>6.49</ele>
	<time>1970-01-01T00:08:00.430Z</time>
</trkpt>
<trkpt lat="51.8971977" lon="-8.4574928">
	<ele>5.62</ele>
	<time>1970-01-01T00:08:06.018Z</time>
</trkpt>
<trkpt lat="51.8972282" lon="-8.4572287">
	<ele>5.38</ele>
	<time>1970-01-01T00:08:08.644Z</time>
</trkpt>
<trkpt lat="51.8972969" lon="-8.4564505">
	<ele>4.73</ele>
	<time>1970-01-01T00:08:16.442Z</time>
</trkpt>
<trkpt lat="51.8973007" lon="-8.4564056">
	<ele>4.69</ele>
	<time>1970-01-01T00:08:16.891Z</time>
</trkpt>
<trkpt lat="51.8973122" lon="-8.4563084">
	<ele>4.61</ele>
	<time>1970-01-01T00:08:18.014Z</time>
</trkpt>
<trkpt lat="51.8973236" lon="-8.4561844">
	<ele>4.50</ele>
	<time>1970-01-01T00:08:19.461Z</time>
</trkpt>
<trkpt lat="51.8973694" lon="-8.4556589">
	<ele>4.43</ele>
	<time>1970-01-01T00:08:25.808Z</time>
</trkpt>
<trkpt lat="51.8973770" lon="-8.4555559">
	<ele>4.50</ele>
	<time>1970-01-01T00:08:27.002Z</time>
</trkpt>
<trkpt lat="51.8973885" lon="-8.4554310">
	<ele>4.60</ele>
	<time>1970-01-01T00:08:28.440Z</time>
</trkpt>
<trkpt lat="51.8974075" lon="-8.4551945">
	<ele>4.80</ele>
	<time>1970-01-01T00:08:31.008Z</time>
</trkpt>
<trkpt lat="51.8974152" lon="-8.4551163">
	<ele>4.85</ele>
	<time>1970-01-01T00:08:31.764Z</time>
</trkpt>
<trkpt lat="51.8974228" lon="-8.4550409">
	<ele>4.90</ele>
	<time>1970-01-01T00:08:32.524Z</time>
</trkpt>
<trkpt lat="51.8974571" lon="-8.4546299">
	<ele>4.87</ele>
	<time>1970-01-01T00:08:37.545Z</time>
</trkpt>
<trkpt lat="51.8975372" lon="-8.4537220">
	<ele>6.43</ele>
	<time>1970-01-01T00:08:51.536Z</time>
</trkpt>
<trkpt lat="51.8975563" lon="-8.4535007">
	<ele>7.26</ele>
	<time>1970-01-01T00:08:54.989Z</time>
</trkpt>
<trkpt lat="51.8975754" lon="-8.4532928">
	<ele>7.79</ele>
	<time>1970-01-01T00:08:58.285Z</time>
</trkpt>
<trkpt lat="51.8975945" lon="-8.4530439">
	<ele>8.23</ele>
	<time>1970-01-01T00:09:01.629Z</time>
</trkpt>
<trkpt lat="51.8977394" lon="-8.4514647">
	<ele>5.14</ele>
	<time>1970-01-01T00:09:17.408Z</time>
</trkpt>
<trkpt lat="51.8977470" lon="-8.4513788">
	<ele>4.92</ele>
	<time>1970-01-01T00:09:18.331Z</time>
</trkpt>
<trkpt lat="51.8977585" lon="-8.4512653">
	<ele>4.67</ele>
	<time>1970-01-01T00:09:19.568Z</time>
</trkpt>
<trkpt lat="51.8977699" lon="-8.4511042">
	<ele>4.38</ele>
	<time>1970-01-01T00:09:21.280Z</time>
</trkpt>
<trkpt lat="51.8978119" lon="-8.4506254">
	<ele>4.50</ele>
	<time>1970-01-01T00:09:26.488Z</time>
</trkpt>
<trkpt lat="51.8978233" lon="-8.4505081">
	<ele>4.74</ele>
	<time>1970-01-01T00:09:27.764Z</time>
</trkpt>
<trkpt lat="51.8978424" lon="-8.4502659">
	<ele>5.31</ele>
	<time>1970-01-01T00:09:30.490Z</time>
</trkpt>
<trkpt lat="51.8978462" lon="-8.4502106">
	<ele>5.44</ele>
	<time>1970-01-01T00:09:31.134Z</time>
</trkpt>
<trkpt lat="51.8980064" lon="-8.4483995">
	<ele>5.08</ele>
	<time>1970-01-01T00:09:50.267Z</time>
</trkpt>
<trkpt lat="51.8980141" lon="-8.4483433">
	<ele>4.98</ele>
	<time>1970-01-01T00:09:50.905Z</time>
</trkpt>
<trkpt lat="51.8980331" lon="-8.4481239">
	<ele>4.71</ele>
	<time>1970-01-01T00:09:53.164Z</time>
</trkpt>
<trkpt lat="51.8980484" lon="-8.4479675">
	<ele>4.59</ele>
	<time>1970-01-01T00:09:54.743Z</time>
</trkpt>
<trkpt lat="51.8980598" lon="-8.4478312">
	<ele>4.53</ele>
	<time>1970-01-01T00:09:56.200Z</time>
</trkpt>
<trkpt lat="51.8980675" lon="-8.4477434">
	<ele>4.49</ele>
	<time>1970-01-01T00:09:57.083Z</time>
</trkpt>
<trkpt lat="51.8981133" lon="-8.4472456">
	<ele>4.20</ele>
	<time>1970-01-01T00:10:01.831Z</time>
</trkpt>
<trkpt lat="51.8981171" lon="-8.4471998">
	<ele>4.15</ele>
	<time>1970-01-01T00:10:02.228Z</time>
</trkpt>
<trkpt lat="51.8981247" lon="-8.4471264">
	<ele>4.07</ele>
	<time>1970-01-01T00:10:02.896Z</time>
</trkpt>
<trkpt lat="51.8981743" lon="-8.4465504">
	<ele>3.44</ele>
	<time>1970-01-01T00:10:08.200Z</time>
</trkpt>
<trkpt lat="51.8981895" lon="-8.4463930">
	<ele>3.30</ele>
	<time>1970-01-01T00:10:09.733Z</time>
</trkpt>
<trkpt lat="51.8982124" lon="-8.4461613">
	<ele>3.09</ele>
	<time>1970-01-01T00:10:12.010Z</time>
</trkpt>
<trkpt lat="51.8982162" lon="-8.4460974">
	<ele>3.03</ele>
	<time>1970-01-01T00:10:12.588Z</time>
</trkpt>
<trkpt lat="51.8982277" lon="-8.4459686">
	<ele>2.94</ele>
	<time>1970-01-01T00:10:13.899Z</time>
</trkpt>
<trkpt lat="51.8982391" lon="-8.4458122">
	<ele>2.87</ele>
	<time>1970-01-01T00:10:15.625Z</time>
</trkpt>
<trkpt lat="51.8983078" lon="-8.4450016">
	<ele>2.99</ele>
	<time>1970-01-01T00:10:23.014Z</time>
</trkpt>
<trkpt lat="51.8983116" lon="-8.4449272">
	<ele>2.98</ele>
	<time>1970-01-01T00:10:23.715Z</time>
</trkpt>
<trkpt lat="51.8983269" lon="-8.4447851">
	<ele>2.97</ele>
	<time>1970-01-01T00:10:25.132Z</time>
</trkpt>
<trkpt lat="51.8983650" lon="-8.4442711">
	<ele>2.99</ele>
	<time>1970-01-01T00:10:30.693Z</time>
</trkpt>
<trkpt lat="51.8984108" lon="-8.4440308">
	<ele>3.21</ele>
	<time>1970-01-01T00:10:33.367Z</time>
</trkpt>
<trkpt lat="51.8984413" lon="-8.4439402">
	<ele>3.35</ele>
	<time>1970-01-01T00:10:34.550Z</time>
</trkpt>
<trkpt lat="51.8984871" lon="-8.4438047">
	<ele>3.55</ele>
	<time>1970-01-01T00:10:36.407Z</time>
</trkpt>
<trkpt lat="51.8988838" lon="-8.4430170">
	<ele>3.13</ele>
	<time>1970-01-01T00:10:48.186Z</time>
</trkpt>
<trkpt lat="51.8988850" lon="-8.4430170">
	<ele>3.12</ele>
	<time>1970-01-01T00:06:40.353Z</time>
</trkpt>
<trkpt lat="51.8988838" lon="-8.4430170">
	<ele>3.13</ele>
	<time>1970-01-01T00:00:00.167Z</time>
</trkpt>
<trkpt lat="51.8988914" lon="-8.4430046">
	<ele>3.11</ele>
	<time>1970-01-01T00:00:00.334Z</time>
</trkpt>
<trkpt lat="51.8989067" lon="-8.4429789">
	<ele>3.09</ele>
	<time>1970-01-01T00:00:00.668Z</time>
</trkpt>
<trkpt lat="51.8990211" lon="-8.4427433">
	<ele>2.99</ele>
	<time>1970-01-01T00:00:03.972Z</time>
</trkpt>
<trkpt lat="51.8994865" lon="-8.4417887">
	<ele>2.91</ele>
	<time>1970-01-01T00:00:17.498Z</time>
</trkpt>
<trkpt lat="51.8997688" lon="-8.4412327">
	<ele>3.87</ele>
	<time>1970-01-01T00:00:25.533Z</time>
</trkpt>
<trkpt lat="51.8997955" lon="-8.4411793">
	<ele>4.05</ele>
	<time>1970-01-01T00:00:26.357Z</time>
</trkpt>
<trkpt lat="51.8998184" lon="-8.4411297">
	<ele>4.22</ele>
	<time>1970-01-01T00:00:27.017Z</time>
</trkpt>
<trkpt lat="51.9011269" lon="-8.4385262">
	<ele>5.47</ele>
	<time>1970-01-01T00:01:17.525Z</time>
</trkpt>
<trkpt lat="51.9012337" lon="-8.4383221">
	<ele>4.88</ele>
	<time>1970-01-01T00:01:20.935Z</time>
</trkpt>
<trkpt lat="51.9012146" lon="-8.4382219">
	<ele>4.88</ele>
	<time>1970-01-01T00:01:22.241Z</time>
</trkpt>
<trkpt lat="51.9011078" lon="-8.4370823">
	<ele>4.55</ele>
	<time>1970-01-01T00:01:37.152Z</time>
</trkpt>
<trkpt lat="51.9010048" lon="-8.4360352">
	<ele>5.77</ele>
	<time>1970-01-01T00:01:50.054Z</time>
</trkpt>
<trkpt lat="51.9009323" lon="-8.4353924">
	<ele>5.45</ele>
	<time>1970-01-01T00:01:57.807Z</time>
</trkpt>
<trkpt lat="51.9009247" lon="-8.4353352">
	<ele>5.36</ele>
	<time>1970-01-01T00:01:58.491Z</time>
</trkpt>
<trkpt lat="51.9008713" lon="-8.4350929">
	<ele>5.06</ele>
	<time>1970-01-01T00:02:01.563Z</time>
</trkpt>
<trkpt lat="51.9008522" lon="-8.4350128">
	<ele>5.00</ele>
	<time>1970-01-01T00:02:02.585Z</time>
</trkpt>
<trkpt lat="51.9008255" lon="-8.4349480">
	<ele>4.97</ele>
	<time>1970-01-01T00:02:03.213Z</time>
</trkpt>
<trkpt lat="51.9007759" lon="-8.4348660">
	<ele>4.93</ele>
	<time>1970-01-01T00:02:04.235Z</time>
</trkpt>
<trkpt lat="51.9007225" lon="-8.4348116">
	<ele>4.86</ele>
	<time>1970-01-01T00:02:05.097Z</time>
</trkpt>
<trkpt lat="51.9006691" lon="-8.4347734">
	<ele>4.77</ele>
	<time>1970-01-01T00:02:05.812Z</time>
</trkpt>
<trkpt lat="51.9007111" lon="-8.4344912">
	<ele>4.99</ele>
	<time>1970-01-01T00:02:08.406Z</time>
</trkpt>
<trkpt lat="51.9007111" lon="-8.4343967">
	<ele>5.04</ele>
	<time>1970-01-01T00:02:09.206Z</time>
</trkpt>
<trkpt lat="51.9006996" lon="-8.4342966">
	<ele>5.08</ele>
	<time>1970-01-01T00:02:10.153Z</time>
</trkpt>
<trkpt lat="51.9006767" lon="-8.4341841">
	<ele>5.12</ele>
	<time>1970-01-01T00:02:11.190Z</time>
</trkpt>
<trkpt lat="51.9006271" lon="-8.4340239">
	<ele>5.14</ele>
	<time>1970-01-01T00:02:12.781Z</time>
</trkpt>
<trkpt lat="51.9005737" lon="-8.4339094">
	<ele>5.11</ele>
	<time>1970-01-01T00:02:14.065Z</time>
</trkpt>
<trkpt lat="51.9006386" lon="-8.4337549">
	<ele>5.19</ele>
	<time>1970-01-01T00:02:15.874Z</time>
</trkpt>
<trkpt lat="51.9006348" lon="-8.4332895">
	<ele>4.90</ele>
	<time>1970-01-01T00:02:20.483Z</time>
</trkpt>
<trkpt lat="51.9006119" lon="-8.4326296">
	<ele>3.24</ele>
	<time>1970-01-01T00:02:25.856Z</time>
</trkpt>
<trkpt lat="51.9005585" lon="-8.4321280">
	<ele>2.62</ele>
	<time>1970-01-01T00:02:29.734Z</time>
</trkpt>
<trkpt lat="51.9005318" lon="-8.4318323">
	<ele>2.54</ele>
	<time>1970-01-01T00:02:31.961Z</time>
</trkpt>
<trkpt lat="51.9003792" lon="-8.4306202">
	<ele>2.83</ele>
	<time>1970-01-01T00:02:42.492Z</time>
</trkpt>
<trkpt lat="51.9002228" lon="-8.4295988">
	<ele>3.17</ele>
	<time>1970-01-01T00:02:52.906Z</time>
</trkpt>
<trkpt lat="51.9000511" lon="-8.4286118">
	<ele>4.04</ele>
	<time>1970-01-01T00:03:03.946Z</time>
</trkpt>
<trkpt lat="51.8999557" lon="-8.4281607">
	<ele>5.51</ele>
	<time>1970-01-01T00:03:09.883Z</time>
</trkpt>
<trkpt lat="51.8997269" lon="-8.4271994">
	<ele>5.38</ele>
	<time>1970-01-01T00:03:30.276Z</time>
</trkpt>
<trkpt lat="51.8996925" lon="-8.4270639">
	<ele>4.86</ele>
	<time>1970-01-01T00:03:32.514Z</time>
</trkpt>
<trkpt lat="51.8997269" lon="-8.4270506">
	<ele>4.82</ele>
	<time>1970-01-01T00:03:33.391Z</time>
</trkpt>
<trkpt lat="51.8998642" lon="-8.4269991">
	<ele>4.54</ele>
	<time>1970-01-01T00:03:36.390Z</time>
</trkpt>
<trkpt lat="51.8998795" lon="-8.4269924">
	<ele>4.49</ele>
	<time>1970-01-01T00:03:36.761Z</time>
</trkpt>
<trkpt lat="51.8995514" lon="-8.4250736">
	<ele>3.02</ele>
	<time>1970-01-01T00:04:00.972Z</time>
</trkpt>
<trkpt lat="51.8991661" lon="-8.4228086">
	<ele>5.45</ele>
	<time>1970-01-01T00:04:30.335Z</time>
</trkpt>
<trkpt lat="51.8990402" lon="-8.4221334">
	<ele>4.55</ele>
	<time>1970-01-01T00:04:36.315Z</time>
</trkpt>
<trkpt lat="51.8989525" lon="-8.4216442">
	<ele>3.35</ele>
	<time>1970-01-01T00:04:40.258Z</time>
</trkpt>
<trkpt lat="51.8987236" lon="-8.4202604">
	<ele>1.78</ele>
	<time>1970-01-01T00:04:53.448Z</time>
</trkpt>
<trkpt lat="51.8985405" lon="-8.4191036">
	<ele>8.46</ele>
	<time>1970-01-01T00:05:05.911Z</time>
</trkpt>
<trkpt lat="51.8984489" lon="-8.4181499">
	<ele>8.15</ele>
	<time>1970-01-01T00:05:16.611Z</time>
</trkpt>
<trkpt lat="51.8983612" lon="-8.4173326">
	<ele>6.24</ele>
	<time>1970-01-01T00:05:25.906Z</time>
</trkpt>
<trkpt lat="51.8983269" lon="-8.4169512">
	<ele>5.63</ele>
	<time>1970-01-01T00:05:32.734Z</time>
</trkpt>
<trkpt lat="51.8983154" lon="-8.4166756">
	<ele>5.19</ele>
	<time>1970-01-01T00:05:36.370Z</time>
</trkpt>
<trkpt lat="51.8983002" lon="-8.4163322">
	<ele>4.90</ele>
	<time>1970-01-01T00:05:40.842Z</time>
</trkpt>
<trkpt lat="51.8983002" lon="-8.4159651">
	<ele>4.51</ele>
	<time>1970-01-01T00:05:45.391Z</time>
</trkpt>
<trkpt lat="51.8982925" lon="-8.4156160">
	<ele>3.81</ele>
	<time>1970-01-01T00:05:49.676Z</time>
</trkpt>
<trkpt lat="51.8982887" lon="-8.4154387">
	<ele>3.29</ele>
	<time>1970-01-01T00:05:51.795Z</time>
</trkpt>
<trkpt lat="51.8982773" lon="-8.4150419">
	<ele>2.41</ele>
	<time>1970-01-01T00:05:56.516Z</time>
</trkpt>
<trkpt lat="51.8982735" lon="-8.4149437">
	<ele>2.37</ele>
	<time>1970-01-01T00:05:57.731Z</time>
</trkpt>
<trkpt lat="51.8982620" lon="-8.4146271">
	<ele>2.74</ele>
	<time>1970-01-01T00:06:01.531Z</time>
</trkpt>
<trkpt lat="51.8982544" lon="-8.4144258">
	<ele>3.14</ele>
	<time>1970-01-01T00:06:03.936Z</time>
</trkpt>
<trkpt lat="51.8982506" lon="-8.4143534">
	<ele>3.28</ele>
	<time>1970-01-01T00:06:04.792Z</time>
</trkpt>
<trkpt lat="51.8982391" lon="-8.4141073">
	<ele>3.56</ele>
	<time>1970-01-01T00:06:07.697Z</time>
</trkpt>
<trkpt lat="51.8982391" lon="-8.4140530">
	<ele>3.55</ele>
	<time>1970-01-01T00:06:08.379Z</time>
</trkpt>
<trkpt lat="51.8982277" lon="-8.4138517">
	<ele>3.46</ele>
	<time>1970-01-01T00:06:10.762Z</time>
</trkpt>
<trkpt lat="51.8982201" lon="-8.4137802">
	<ele>3.42</ele>
	<time>1970-01-01T00:06:11.612Z</time>
</trkpt>
<trkpt lat="51.8981972" lon="-8.4137201">
	<ele>3.49</ele>
	<time>1970-01-01T00:06:12.460Z</time>
</trkpt>
<trkpt lat="51.8981590" lon="-8.4136734">
	<ele>3.65</ele>
	<time>1970-01-01T00:06:13.478Z</time>
</trkpt>
<trkpt lat="51.8981171" lon="-8.4136448">
	<ele>3.86</ele>
	<time>1970-01-01T00:06:14.326Z</time>
</trkpt>
<trkpt lat="51.8980446" lon="-8.4136286">
	<ele>4.26</ele>
	<time>1970-01-01T00:06:15.680Z</time>
</trkpt>
<trkpt lat="51.8979721" lon="-8.4136229">
	<ele>4.68</ele>
	<time>1970-01-01T00:06:17.034Z</time>
</trkpt>
<trkpt lat="51.8975868" lon="-8.4135866">
	<ele>6.97</ele>
	<time>1970-01-01T00:06:24.288Z</time>
</trkpt>
<trkpt lat="51.8973389" lon="-8.4135180">
	<ele>8.32</ele>
	<time>1970-01-01T00:06:33.819Z</time>
</trkpt>
<trkpt lat="51.8972244" lon="-8.4134636">
	<ele>8.92</ele>
	<time>1970-01-01T00:06:38.217Z</time>
</trkpt>
<trkpt lat="51.8973351" lon="-8.4130974">
	<ele>7.51</ele>
	<time>1970-01-01T00:06:45.741Z</time>
</trkpt>
<trkpt lat="51.8974190" lon="-8.4128208">
	<ele>6.85</ele>
	<time>1970-01-01T00:06:51.167Z</time>
</trkpt>
<trkpt lat="51.8974304" lon="-8.4127903">
	<ele>6.81</ele>
	<time>1970-01-01T00:06:51.660Z</time>
</trkpt>
<trkpt lat="51.8974800" lon="-8.4126577">
	<ele>6.76</ele>
	<time>1970-01-01T00:06:54.308Z</time>
</trkpt>
<trkpt lat="51.8975792" lon="-8.4123716">
	<ele>7.37</ele>
	<time>1970-01-01T00:07:00.231Z</time>
</trkpt>
<trkpt lat="51.8976479" lon="-8.4121580">
	<ele>8.39</ele>
	<time>1970-01-01T00:07:04.826Z</time>
</trkpt>
<trkpt lat="51.8977318" lon="-8.4118576">
	<ele>10.06</ele>
	<time>1970-01-01T00:07:11.654Z</time>
</trkpt>
<trkpt lat="51.8978043" lon="-8.4115448">
	<ele>11.61</ele>
	<time>1970-01-01T00:07:18.908Z</time>
</trkpt>
<trkpt lat="51.8978271" lon="-8.4114304">
	<ele>12.13</ele>
	<time>1970-01-01T00:07:21.521Z</time>
</trkpt>
<trkpt lat="51.8978653" lon="-8.4112701">
	<ele>12.81</ele>
	<time>1970-01-01T00:07:25.665Z</time>
</trkpt>
<trkpt lat="51.8978920" lon="-8.4111748">
	<ele>13.19</ele>
	<time>1970-01-01T00:07:28.215Z</time>
</trkpt>
<trkpt lat="51.8979568" lon="-8.4110060">
	<ele>13.77</ele>
	<time>1970-01-01T00:07:33.784Z</time>
</trkpt>
<trkpt lat="51.8980370" lon="-8.4108458">
	<ele>14.26</ele>
	<time>1970-01-01T00:07:39.387Z</time>
</trkpt>
<trkpt lat="51.8980713" lon="-8.4107847">
	<ele>14.45</ele>
	<time>1970-01-01T00:07:41.748Z</time>
</trkpt>
<trkpt lat="51.8981857" lon="-8.4106293">
	<ele>14.94</ele>
	<time>1970-01-01T00:07:48.909Z</time>
</trkpt>
<trkpt lat="51.8982239" lon="-8.4105730">
	<ele>15.13</ele>
	<time>1970-01-01T00:07:51.359Z</time>
</trkpt>
<trkpt lat="51.8982925" lon="-8.4104671">
	<ele>15.49</ele>
	<time>1970-01-01T00:07:56.026Z</time>
</trkpt>
<trkpt lat="51.8984146" lon="-8.4102812">
	<ele>15.70</ele>
	<time>1970-01-01T00:08:03.289Z</time>
</trkpt>
<trkpt lat="51.8986206" lon="-8.4098730">
	<ele>14.38</ele>
	<time>1970-01-01T00:08:14.886Z</time>
</trkpt>
<trkpt lat="51.8986702" lon="-8.4097767">
	<ele>13.79</ele>
	<time>1970-01-01T00:08:17.445Z</time>
</trkpt>
<trkpt lat="51.8988266" lon="-8.4094534">
	<ele>12.09</ele>
	<time>1970-01-01T00:08:24.762Z</time>
</trkpt>
<trkpt lat="51.8988533" lon="-8.4093800">
	<ele>11.94</ele>
	<time>1970-01-01T00:08:26.225Z</time>
</trkpt>
<trkpt lat="51.8990211" lon="-8.4086828">
	<ele>12.48</ele>
	<time>1970-01-01T00:08:36.018Z</time>
</trkpt>
<trkpt lat="51.8991203" lon="-8.4082603">
	<ele>12.84</ele>
	<time>1970-01-01T00:08:44.067Z</time>
</trkpt>
<trkpt lat="51.8991547" lon="-8.4080725">
	<ele>12.99</ele>
	<time>1970-01-01T00:08:46.964Z</time>
</trkpt>
<trkpt lat="51.8991814" lon="-8.4078598">
	<ele>13.21</ele>
	<time>1970-01-01T00:08:50.183Z</time>
</trkpt>
<trkpt lat="51.8991966" lon="-8.4077415">
	<ele>13.29</ele>
	<time>1970-01-01T00:08:51.853Z</time>
</trkpt>
<trkpt lat="51.8992157" lon="-8.4075813">
	<ele>13.35</ele>
	<time>1970-01-01T00:08:54.102Z</time>
</trkpt>
<trkpt lat="51.8992462" lon="-8.4073553">
	<ele>13.24</ele>
	<time>1970-01-01T00:08:57.291Z</time>
</trkpt>
<trkpt lat="51.8992767" lon="-8.4071207">
	<ele>12.89</ele>
	<time>1970-01-01T00:09:00.396Z</time>
</trkpt>
<trkpt lat="51.8993034" lon="-8.4069080">
	<ele>12.45</ele>
	<time>1970-01-01T00:09:03.245Z</time>
</trkpt>
<trkpt lat="51.8993111" lon="-8.4068546">
	<ele>12.32</ele>
	<time>1970-01-01T00:09:03.995Z</time>
</trkpt>
<trkpt lat="51.8993225" lon="-8.4066267">
	<ele>12.11</ele>
	<time>1970-01-01T00:09:06.964Z</time>
</trkpt>
<trkpt lat="51.8993034" lon="-8.4060297">
	<ele>12.47</ele>
	<time>1970-01-01T00:09:14.378Z</time>
</trkpt>
<trkpt lat="51.8993034" lon="-8.4058123">
	<ele>12.43</ele>
	<time>1970-01-01T00:09:17.038Z</time>
</trkpt>
<trkpt lat="51.8993645" lon="-8.4053421">
	<ele>11.40</ele>
	<time>1970-01-01T00:09:22.815Z</time>
</trkpt>
<trkpt lat="51.8994179" lon="-8.4049253">
	<ele>10.05</ele>
	<time>1970-01-01T00:09:27.277Z</time>
</trkpt>
<trkpt lat="51.8994255" lon="-8.4047518">
	<ele>9.43</ele>
	<time>1970-01-01T00:09:29.041Z</time>
</trkpt>
<trkpt lat="51.8994179" lon="-8.4046602">
	<ele>9.20</ele>
	<time>1970-01-01T00:09:29.933Z</time>
</trkpt>
<trkpt lat="51.8992996" lon="-8.4038439">
	<ele>8.17</ele>
	<time>1970-01-01T00:09:35.864Z</time>
</trkpt>
<trkpt lat="51.8992958" lon="-8.4037209">
	<ele>8.23</ele>
	<time>1970-01-01T00:09:36.855Z</time>
</trkpt>
<trkpt lat="51.8992996" lon="-8.4036751">
	<ele>8.26</ele>
	<time>1970-01-01T00:09:37.192Z</time>
</trkpt>
<trkpt lat="51.8995285" lon="-8.4029522">
	<ele>9.07</ele>
	<time>1970-01-01T00:09:42.902Z</time>
</trkpt>
<trkpt lat="51.8995934" lon="-8.4028683">
	<ele>9.23</ele>
	<time>1970-01-01T00:09:43.846Z</time>
</trkpt>
<trkpt lat="51.8996429" lon="-8.4027777">
	<ele>9.45</ele>
	<time>1970-01-01T00:09:44.675Z</time>
</trkpt>
<trkpt lat="51.8997612" lon="-8.4025326">
	<ele>9.80</ele>
	<time>1970-01-01T00:09:46.791Z</time>
</trkpt>
<trkpt lat="51.8997917" lon="-8.4024611">
	<ele>9.74</ele>
	<time>1970-01-01T00:09:47.427Z</time>
</trkpt>
<trkpt lat="51.8999138" lon="-8.4021740">
	<ele>8.63</ele>
	<time>1970-01-01T00:09:49.809Z</time>
</trkpt>
<trkpt lat="51.8999329" lon="-8.4021091">
	<ele>8.28</ele>
	<time>1970-01-01T00:09:50.333Z</time>
</trkpt>
<trkpt lat="51.8999252" lon="-8.4020348">
	<ele>7.98</ele>
	<time>1970-01-01T00:09:50.867Z</time>
</trkpt>
<trkpt lat="51.8996582" lon="-8.4016876">
	<ele>8.30</ele>
	<time>1970-01-01T00:09:56.970Z</time>
</trkpt>
<trkpt lat="51.8995590" lon="-8.4015408">
	<ele>8.64</ele>
	<time>1970-01-01T00:09:59.560Z</time>
</trkpt>
<trkpt lat="51.8995056" lon="-8.4013968">
	<ele>8.69</ele>
	<time>1970-01-01T00:10:01.623Z</time>
</trkpt>
<trkpt lat="51.8994827" lon="-8.4012957">
	<ele>8.62</ele>
	<time>1970-01-01T00:10:02.824Z</time>
</trkpt>
<trkpt lat="51.8994560" lon="-8.4010906">
	<ele>8.30</ele>
	<time>1970-01-01T00:10:05.072Z</time>
</trkpt>
<trkpt lat="51.8996506" lon="-8.4010468">
	<ele>6.78</ele>
	<time>1970-01-01T00:10:07.920Z</time>
</trkpt>
<trkpt lat="51.8996010" lon="-8.4005642">
	<ele>5.94</ele>
	<time>1970-01-01T00:10:11.799Z</time>
</trkpt>
<trkpt lat="51.8996277" lon="-8.4004879">
	<ele>5.58</ele>
	<time>1970-01-01T00:10:12.491Z</time>
</trkpt>
<trkpt lat="51.8996353" lon="-8.4004250">
	<ele>5.38</ele>
	<time>1970-01-01T00:10:12.938Z</time>
</trkpt>
<trkpt lat="51.8996506" lon="-8.4003944">
	<ele>5.21</ele>
	<time>1970-01-01T00:10:13.262Z</time>
</trkpt>
<trkpt lat="51.8996010" lon="-8.4001198">
	<ele>4.85</ele>
	<time>1970-01-01T00:10:15.327Z</time>
</trkpt>
<trkpt lat="51.8995590" lon="-8.3999414">
	<ele>4.67</ele>
	<time>1970-01-01T00:10:16.692Z</time>
</trkpt>
<trkpt lat="51.8995171" lon="-8.3998260">
	<ele>4.58</ele>
	<time>1970-01-01T00:10:17.675Z</time>
</trkpt>
<trkpt lat="51.8992882" lon="-8.3993549">
	<ele>4.09</ele>
	<time>1970-01-01T00:10:22.724Z</time>
</trkpt>
<trkpt lat="51.8992653" lon="-8.3993034">
	<ele>4.04</ele>
	<time>1970-01-01T00:10:23.245Z</time>
</trkpt>
<trkpt lat="51.8992081" lon="-8.3990860">
	<ele>3.86</ele>
	<time>1970-01-01T00:10:25.376Z</time>
</trkpt>
<trkpt lat="51.8991241" lon="-8.3987408">
	<ele>3.99</ele>
	<time>1970-01-01T00:10:28.662Z</time>
</trkpt>
<trkpt lat="51.8989410" lon="-8.3980436">
	<ele>3.94</ele>
	<time>1970-01-01T00:10:35.665Z</time>
</trkpt>
<trkpt lat="51.8985519" lon="-8.3966494">
	<ele>3.72</ele>
	<time>1970-01-01T00:10:50.838Z</time>
</trkpt>
<trkpt lat="51.8981247" lon="-8.3949862">
	<ele>3.16</ele>
	<time>1970-01-01T00:11:10.579Z</time>
</trkpt>
<trkpt lat="51.8979111" lon="-8.3942194">
	<ele>1.64</ele>
	<time>1970-01-01T00:11:20.091Z</time>
</trkpt>
<trkpt lat="51.8977776" lon="-8.3936853">
	<ele>1.53</ele>
	<time>1970-01-01T00:11:26.699Z</time>
</trkpt>
<trkpt lat="51.8976593" lon="-8.3932695">
	<ele>1.67</ele>
	<time>1970-01-01T00:11:31.838Z</time>
</trkpt>
<trkpt lat="51.8975372" lon="-8.3929157">
	<ele>1.51</ele>
	<time>1970-01-01T00:11:36.488Z</time>
</trkpt>
<trkpt lat="51.8974190" lon="-8.3927660">
	<ele>1.45</ele>
	<time>1970-01-01T00:11:39.316Z</time>
</trkpt>
<trkpt lat="51.8973198" lon="-8.3926830">
	<ele>1.45</ele>
	<time>1970-01-01T00:11:41.479Z</time>
</trkpt>
<trkpt lat="51.8971519" lon="-8.3926268">
	<ele>1.57</ele>
	<time>1970-01-01T00:11:44.643Z</time>
</trkpt>
<trkpt lat="51.8969421" lon="-8.3926191">
	<ele>1.79</ele>
	<time>1970-01-01T00:11:48.475Z</time>
</trkpt>
<trkpt lat="51.8964539" lon="-8.3927107">
	<ele>2.42</ele>
	<time>1970-01-01T00:11:54.397Z</time>
</trkpt>
<trkpt lat="51.8958588" lon="-8.3926830">
	<ele>3.11</ele>
	<time>1970-01-01T00:12:03.617Z</time>
</trkpt>
<trkpt lat="51.8953094" lon="-8.3925753">
	<ele>2.33</ele>
	<time>1970-01-01T00:12:13.022Z</time>
</trkpt>
<trkpt lat="51.8948441" lon="-8.3924351">
	<ele>2.22</ele>
	<time>1970-01-01T00:12:21.405Z</time>
</trkpt>
<trkpt lat="51.8942680" lon="-8.3921785">
	<ele>3.82</ele>
	<time>1970-01-01T00:12:32.263Z</time>
</trkpt>
<trkpt lat="51.8927765" lon="-8.3913107">
	<ele>3.05</ele>
	<time>1970-01-01T00:13:01.375Z</time>
</trkpt>
<trkpt lat="51.8927765" lon="-8.3913107">
	<ele>3.05</ele>
	<time>1970-01-01T00:23:49.394Z</time>
</trkpt>
<trkpt lat="51.8925705" lon="-8.3911896">
	<ele>3.24</ele>
	<time>1970-01-01T00:23:53.404Z</time>
</trkpt>
<trkpt lat="51.8920670" lon="-8.3908443">
	<ele>4.31</ele>
	<time>1970-01-01T00:24:03.597Z</time>
</trkpt>
<trkpt lat="51.8915558" lon="-8.3904419">
	<ele>4.60</ele>
	<time>1970-01-01T00:24:15.892Z</time>
</trkpt>
<trkpt lat="51.8912697" lon="-8.3901253">
	<ele>3.74</ele>
	<time>1970-01-01T00:24:21.766Z</time>
</trkpt>
<trkpt lat="51.8911705" lon="-8.3900604">
	<ele>3.47</ele>
	<time>1970-01-01T00:24:23.542Z</time>
</trkpt>
<trkpt lat="51.8909988" lon="-8.3900242">
	<ele>3.14</ele>
	<time>1970-01-01T00:24:26.242Z</time>
</trkpt>
<trkpt lat="51.8907242" lon="-8.3895903">
	<ele>2.71</ele>
	<time>1970-01-01T00:24:32.009Z</time>
</trkpt>
<trkpt lat="51.8906784" lon="-8.3895502">
	<ele>2.72</ele>
	<time>1970-01-01T00:24:32.852Z</time>
</trkpt>
<trkpt lat="51.8901291" lon="-8.3897238">
	<ele>3.70</ele>
	<time>1970-01-01T00:24:42.897Z</time>
</trkpt>
<trkpt lat="51.8889809" lon="-8.3899956">
	<ele>4.01</ele>
	<time>1970-01-01T00:25:03.398Z</time>
</trkpt>
<trkpt lat="51.8889160" lon="-8.3900356">
	<ele>4.12</ele>
	<time>1970-01-01T00:25:04.617Z</time>
</trkpt>
<trkpt lat="51.8886833" lon="-8.3902836">
	<ele>4.63</ele>
	<time>1970-01-01T00:25:10.312Z</time>
</trkpt>
<trkpt lat="51.8883171" lon="-8.3901949">
	<ele>4.38</ele>
	<time>1970-01-01T00:25:17.629Z</time>
</trkpt>
<trkpt lat="51.8881760" lon="-8.3902054">
	<ele>4.26</ele>
	<time>1970-01-01T00:25:20.437Z</time>
</trkpt>
<trkpt lat="51.8862495" lon="-8.3910704">
	<ele>3.07</ele>
	<time>1970-01-01T00:26:00.537Z</time>
</trkpt>
<trkpt lat="51.8858910" lon="-8.3911686">
	<ele>2.12</ele>
	<time>1970-01-01T00:26:06.031Z</time>
</trkpt>
<trkpt lat="51.8856163" lon="-8.3912935">
	<ele>2.63</ele>
	<time>1970-01-01T00:26:10.943Z</time>
</trkpt>
<trkpt lat="51.8851089" lon="-8.3914061">
	<ele>4.06</ele>
	<time>1970-01-01T00:26:20.427Z</time>
</trkpt>
<trkpt lat="51.8844452" lon="-8.3914976">
	<ele>4.58</ele>
	<time>1970-01-01T00:26:35.464Z</time>
</trkpt>
<trkpt lat="51.8838387" lon="-8.3915138">
	<ele>4.04</ele>
	<time>1970-01-01T00:26:47.777Z</time>
</trkpt>
<trkpt lat="51.8823624" lon="-8.3915100">
	<ele>4.62</ele>
	<time>1970-01-01T00:27:16.084Z</time>
</trkpt>
<trkpt lat="51.8819237" lon="-8.3915958">
	<ele>4.96</ele>
	<time>1970-01-01T00:27:24.523Z</time>
</trkpt>
<trkpt lat="51.8817635" lon="-8.3916502">
	<ele>5.05</ele>
	<time>1970-01-01T00:27:27.552Z</time>
</trkpt>
<trkpt lat="51.8815918" lon="-8.3917494">
	<ele>5.14</ele>
	<time>1970-01-01T00:27:31.619Z</time>
</trkpt>
<trkpt lat="51.8813858" lon="-8.3919554">
	<ele>5.34</ele>
	<time>1970-01-01T00:27:37.226Z</time>
</trkpt>
<trkpt lat="51.8813133" lon="-8.3919449">
	<ele>5.14</ele>
	<time>1970-01-01T00:27:38.828Z</time>
</trkpt>
<trkpt lat="51.8810692" lon="-8.3923359">
	<ele>5.56</ele>
	<time>1970-01-01T00:27:46.164Z</time>
</trkpt>
<trkpt lat="51.8808289" lon="-8.3928137">
	<ele>5.08</ele>
	<time>1970-01-01T00:27:54.071Z</time>
</trkpt>
<trkpt lat="51.8805962" lon="-8.3937120">
	<ele>4.38</ele>
	<time>1970-01-01T00:28:05.905Z</time>
</trkpt>
<trkpt lat="51.8802147" lon="-8.3952751">
	<ele>3.91</ele>
	<time>1970-01-01T00:28:22.260Z</time>
</trkpt>
<trkpt lat="51.8801613" lon="-8.3956051">
	<ele>2.98</ele>
	<time>1970-01-01T00:28:25.265Z</time>
</trkpt>
<trkpt lat="51.8801537" lon="-8.3957701">
	<ele>2.66</ele>
	<time>1970-01-01T00:28:26.605Z</time>
</trkpt>
<trkpt lat="51.8801804" lon="-8.3960428">
	<ele>2.41</ele>
	<time>1970-01-01T00:28:28.896Z</time>
</trkpt>
<trkpt lat="51.8802109" lon="-8.3962383">
	<ele>2.32</ele>
	<time>1970-01-01T00:28:30.661Z</time>
</trkpt>
<trkpt lat="51.8802910" lon="-8.3965702">
	<ele>2.32</ele>
	<time>1970-01-01T00:28:33.821Z</time>
</trkpt>
<trkpt lat="51.8808022" lon="-8.3982515">
	<ele>0.99</ele>
	<time>1970-01-01T00:28:52.872Z</time>
</trkpt>
<trkpt lat="51.8811684" lon="-8.3994484">
	<ele>1.98</ele>
	<time>1970-01-01T00:29:07.633Z</time>
</trkpt>
<trkpt lat="51.8812599" lon="-8.3996544">
	<ele>1.49</ele>
	<time>1970-01-01T00:29:10.410Z</time>
</trkpt>
<trkpt lat="51.8813820" lon="-8.3998137">
	<ele>1.09</ele>
	<time>1970-01-01T00:29:13.360Z</time>
</trkpt>
<trkpt lat="51.8813972" lon="-8.3998652">
	<ele>0.89</ele>
	<time>1970-01-01T00:29:14.017Z</time>
</trkpt>
<trkpt lat="51.8813705" lon="-8.4010277">
	<ele>-0.31</ele>
	<time>1970-01-01T00:29:27.230Z</time>
</trkpt>
<trkpt lat="51.8813820" lon="-8.4010744">
	<ele>-0.31</ele>
	<time>1970-01-01T00:29:27.728Z</time>
</trkpt>
<trkpt lat="51.8813744" lon="-8.4012280">
	<ele>-0.26</ele>
	<time>1970-01-01T00:29:29.553Z</time>
</trkpt>
<trkpt lat="51.8813591" lon="-8.4013796">
	<ele>-0.21</ele>
	<time>1970-01-01T00:29:31.379Z</time>
</trkpt>
<trkpt lat="51.8813438" lon="-8.4015017">
	<ele>-0.17</ele>
	<time>1970-01-01T00:29:32.875Z</time>
</trkpt>
<trkpt lat="51.8812904" lon="-8.4017000">
	<ele>-0.13</ele>
	<time>1970-01-01T00:29:35.368Z</time>
</trkpt>
<trkpt lat="51.8812561" lon="-8.4016571">
	<ele>-0.13</ele>
	<time>1970-01-01T00:29:36.200Z</time>
</trkpt>
<trkpt lat="51.8809280" lon="-8.4012308">
	<ele>-0.02</ele>
	<time>1970-01-01T00:29:44.026Z</time>
</trkpt>
<trkpt lat="51.8805618" lon="-8.4006615">
	<ele>0.02</ele>
	<time>1970-01-01T00:29:53.530Z</time>
</trkpt>
<trkpt lat="51.8801498" lon="-8.4000444">
	<ele>0.71</ele>
	<time>1970-01-01T00:30:04.044Z</time>
</trkpt>
<trkpt lat="51.8798256" lon="-8.3995667">
	<ele>1.65</ele>
	<time>1970-01-01T00:30:12.226Z</time>
</trkpt>
<trkpt lat="51.8795052" lon="-8.3989878">
	<ele>3.71</ele>
	<time>1970-01-01T00:30:21.245Z</time>
</trkpt>
<trkpt lat="51.8791161" lon="-8.3981504">
	<ele>3.59</ele>
	<time>1970-01-01T00:30:35.207Z</time>
</trkpt>
<trkpt lat="51.8785973" lon="-8.3967113">
	<ele>3.09</ele>
	<time>1970-01-01T00:30:55.603Z</time>
</trkpt>
<trkpt lat="51.8782005" lon="-8.3954897">
	<ele>7.31</ele>
	<time>1970-01-01T00:31:18.911Z</time>
</trkpt>
<trkpt lat="51.8780403" lon="-8.3949146">
	<ele>6.39</ele>
	<time>1970-01-01T00:31:29.197Z</time>
</trkpt>
<trkpt lat="51.8778343" lon="-8.3939648">
	<ele>4.98</ele>
	<time>1970-01-01T00:31:43.372Z</time>
</trkpt>
<trkpt lat="51.8777695" lon="-8.3936195">
	<ele>5.17</ele>
	<time>1970-01-01T00:31:48.110Z</time>
</trkpt>
<trkpt lat="51.8776207" lon="-8.3927393">
	<ele>4.70</ele>
	<time>1970-01-01T00:31:59.532Z</time>
</trkpt>
<trkpt lat="51.8776054" lon="-8.3926134">
	<ele>4.51</ele>
	<time>1970-01-01T00:32:01.123Z</time>
</trkpt>
<trkpt lat="51.8775711" lon="-8.3923588">
	<ele>4.31</ele>
	<time>1970-01-01T00:32:04.280Z</time>
</trkpt>
<trkpt lat="51.8774261" lon="-8.3913984">
	<ele>4.01</ele>
	<time>1970-01-01T00:32:14.433Z</time>
</trkpt>
<trkpt lat="51.8773613" lon="-8.3911810">
	<ele>3.97</ele>
	<time>1970-01-01T00:32:17.423Z</time>
</trkpt>
<trkpt lat="51.8772163" lon="-8.3906078">
	<ele>4.44</ele>
	<time>1970-01-01T00:32:26.813Z</time>
</trkpt>
<trkpt lat="51.8771515" lon="-8.3905544">
	<ele>4.94</ele>
	<time>1970-01-01T00:32:28.694Z</time>
</trkpt>
<trkpt lat="51.8771210" lon="-8.3905430">
	<ele>5.17</ele>
	<time>1970-01-01T00:32:29.436Z</time>
</trkpt>
<trkpt lat="51.8770523" lon="-8.3905363">
	<ele>5.67</ele>
	<time>1970-01-01T00:32:31.372Z</time>
</trkpt>
<trkpt lat="51.8770561" lon="-8.3904133">
	<ele>6.04</ele>
	<time>1970-01-01T00:32:33.510Z</time>
</trkpt>
<trkpt lat="51.8770905" lon="-8.3896646">
	<ele>8.36</ele>
	<time>1970-01-01T00:32:48.774Z</time>
</trkpt>
<trkpt lat="51.8771057" lon="-8.3882570">
	<ele>13.07</ele>
	<time>1970-01-01T00:33:14.386Z</time>
</trkpt>
<trkpt lat="51.8771095" lon="-8.3870306">
	<ele>13.76</ele>
	<time>1970-01-01T00:33:34.800Z</time>
</trkpt>
<trkpt lat="51.8771324" lon="-8.3855028">
	<ele>13.85</ele>
	<time>1970-01-01T00:33:57.984Z</time>
</trkpt>
<trkpt lat="51.8771820" lon="-8.3843899">
	<ele>12.82</ele>
	<time>1970-01-01T00:34:12.321Z</time>
</trkpt>
<trkpt lat="51.8772049" lon="-8.3838320">
	<ele>12.70</ele>
	<time>1970-01-01T00:34:19.234Z</time>
</trkpt>
<trkpt lat="51.8772697" lon="-8.3838348">
	<ele>11.03</ele>
	<time>1970-01-01T00:34:20.957Z</time>
</trkpt>
<trkpt lat="51.8772926" lon="-8.3838253">
	<ele>10.49</ele>
	<time>1970-01-01T00:34:21.349Z</time>
</trkpt>
<trkpt lat="51.8773155" lon="-8.3836784">
	<ele>10.22</ele>
	<time>1970-01-01T00:34:23.220Z</time>
</trkpt>
<trkpt lat="51.8773499" lon="-8.3830585">
	<ele>10.36</ele>
	<time>1970-01-01T00:34:29.426Z</time>
</trkpt>
<trkpt lat="51.8774109" lon="-8.3828144">
	<ele>9.39</ele>
	<time>1970-01-01T00:34:31.335Z</time>
</trkpt>
<trkpt lat="51.8774338" lon="-8.3825283">
	<ele>9.15</ele>
	<time>1970-01-01T00:34:33.418Z</time>
</trkpt>
<trkpt lat="51.8774529" lon="-8.3821659">
	<ele>8.49</ele>
	<time>1970-01-01T00:34:36.014Z</time>
</trkpt>
<trkpt lat="51.8774948" lon="-8.3813829">
	<ele>6.97</ele>
	<time>1970-01-01T00:34:44.797Z</time>
</trkpt>
<trkpt lat="51.8774986" lon="-8.3812962">
	<ele>6.90</ele>
	<time>1970-01-01T00:34:45.780Z</time>
</trkpt>
<trkpt lat="51.8775024" lon="-8.3811874">
	<ele>6.84</ele>
	<time>1970-01-01T00:34:47.012Z</time>
</trkpt>
<trkpt lat="51.8775330" lon="-8.3810368">
	<ele>6.39</ele>
	<time>1970-01-01T00:34:48.717Z</time>
</trkpt>
<trkpt lat="51.8775558" lon="-8.3807411">
	<ele>6.18</ele>
	<time>1970-01-01T00:34:52.008Z</time>
</trkpt>
<trkpt lat="51.8776131" lon="-8.3795280">
	<ele>5.97</ele>
	<time>1970-01-01T00:35:00.930Z</time>
</trkpt>
<trkpt lat="51.8777199" lon="-8.3776140">
	<ele>4.36</ele>
	<time>1970-01-01T00:35:19.297Z</time>
</trkpt>
<trkpt lat="51.8777466" lon="-8.3766394">
	<ele>4.37</ele>
	<time>1970-01-01T00:35:29.770Z</time>
</trkpt>
<trkpt lat="51.8780251" lon="-8.3714924">
	<ele>4.75</ele>
	<time>1970-01-01T00:36:20.733Z</time>
</trkpt>
<trkpt lat="51.8785172" lon="-8.3618402">
	<ele>3.14</ele>
	<time>1970-01-01T00:38:11.901Z</time>
</trkpt>
<trkpt lat="51.8788986" lon="-8.3546362">
	<ele>2.11</ele>
	<time>1970-01-01T00:39:31.826Z</time>
</trkpt>
<trkpt lat="51.8789291" lon="-8.3542347">
	<ele>1.43</ele>
	<time>1970-01-01T00:39:36.499Z</time>
</trkpt>
<trkpt lat="51.8790779" lon="-8.3510742">
	<ele>1.36</ele>
	<time>1970-01-01T00:40:12.908Z</time>
</trkpt>
<trkpt lat="51.8790970" lon="-8.3505373">
	<ele>1.66</ele>
	<time>1970-01-01T00:40:19.090Z</time>
</trkpt>
<trkpt lat="51.8790817" lon="-8.3500843">
	<ele>2.47</ele>
	<time>1970-01-01T00:40:24.269Z</time>
</trkpt>
<trkpt lat="51.8791084" lon="-8.3496599">
	<ele>2.86</ele>
	<time>1970-01-01T00:40:29.115Z</time>
</trkpt>
<trkpt lat="51.8790970" lon="-8.3493567">
	<ele>3.45</ele>
	<time>1970-01-01T00:40:32.623Z</time>
</trkpt>
<trkpt lat="51.8789368" lon="-8.3479795">
	<ele>7.33</ele>
	<time>1970-01-01T00:40:59.116Z</time>
</trkpt>
<trkpt lat="51.8785896" lon="-8.3466883">
	<ele>3.54</ele>
	<time>1970-01-01T00:41:18.653Z</time>
</trkpt>
<trkpt lat="51.8783150" lon="-8.3459578">
	<ele>3.48</ele>
	<time>1970-01-01T00:41:28.302Z</time>
</trkpt>
<trkpt lat="51.8780174" lon="-8.3453369">
	<ele>3.35</ele>
	<time>1970-01-01T00:41:37.216Z</time>
</trkpt>
<trkpt lat="51.8773613" lon="-8.3442430">
	<ele>2.50</ele>
	<time>1970-01-01T00:41:50.115Z</time>
</trkpt>
<trkpt lat="51.8773193" lon="-8.3441782">
	<ele>2.70</ele>
	<time>1970-01-01T00:41:51.006Z</time>
</trkpt>
<trkpt lat="51.8765945" lon="-8.3430386">
	<ele>6.77</ele>
	<time>1970-01-01T00:42:08.618Z</time>
</trkpt>
<trkpt lat="51.8750229" lon="-8.3404369">
	<ele>3.98</ele>
	<time>1970-01-01T00:42:49.810Z</time>
</trkpt>
<trkpt lat="51.8750076" lon="-8.3404732">
	<ele>4.31</ele>
	<time>1970-01-01T00:42:50.310Z</time>
</trkpt>
<trkpt lat="51.8750000" lon="-8.3405228">
	<ele>4.64</ele>
	<time>1970-01-01T00:42:50.737Z</time>
</trkpt>
<trkpt lat="51.8748856" lon="-8.3407240">
	<ele>6.77</ele>
	<time>1970-01-01T00:42:54.176Z</time>
</trkpt>
<trkpt lat="51.8748512" lon="-8.3407841">
	<ele>7.40</ele>
	<time>1970-01-01T00:42:55.498Z</time>
</trkpt>
<trkpt lat="51.8748360" lon="-8.3407469">
	<ele>7.40</ele>
	<time>1970-01-01T00:42:56.198Z</time>
</trkpt>
<trkpt lat="51.8748283" lon="-8.3407564">
	<ele>7.53</ele>
	<time>1970-01-01T00:42:56.430Z</time>
</trkpt>
<trkpt lat="51.8747902" lon="-8.3408051">
	<ele>8.18</ele>
	<time>1970-01-01T00:42:57.832Z</time>
</trkpt>
<trkpt lat="51.8747673" lon="-8.3407631">
	<ele>8.25</ele>
	<time>1970-01-01T00:42:59.002Z</time>
</trkpt>
<trkpt lat="51.8744507" lon="-8.3401518">
	<ele>7.85</ele>
	<time>1970-01-01T00:43:16.227Z</time>
</trkpt>
</trkseg>
</trk>
</gpx>
